"zip","city","state","latitude","longitude"
"38079","Tiptonville","KY",36.513386,-89.50472
"40003","Bagdad","KY",38.279797,-85.03498
"40004","Bardstown","KY",37.81109,-85.46164
"40006","Bedford","KY",38.597624,-85.33889
"40007","Bethlehem","KY",38.452451,-85.00764
"40008","Bloomfield","KY",37.923734,-85.28257
"40009","Bradfordsville","KY",37.477192,-85.10175
"40010","Buckner","KY",38.366467,-85.45075
"40011","Campbellsburg","KY",38.53445,-85.17178
"40012","Chaplin","KY",37.905918,-85.21241
"40013","Coxs Creek","KY",37.928563,-85.49036
"40014","Crestwood","KY",38.335106,-85.4584
"40018","Eastwood","KY",38.22977,-85.66304
"40019","Eminence","KY",38.370336,-85.17208
"40020","Fairfield","KY",37.9348,-85.38765
"40022","Finchville","KY",38.147801,-85.33158
"40023","Fisherville","KY",38.182772,-85.43238
"40025","Glenview","KY",38.309597,-85.643359
"40026","Goshen","KY",38.411964,-85.57066
"40027","Harrods Creek","KY",38.329718,-85.63299
"40031","La Grange","KY",38.407833,-85.38475
"40032","La Grange","KY",38.40464,-85.460504
"40033","Lebanon","KY",37.565894,-85.25148
"40036","Lockport","KY",38.434443,-84.96898
"40037","Loretto","KY",37.652712,-85.41337
"40040","Mackville","KY",37.742806,-85.05564
"40041","Masonic Home","KY",38.25361,-85.662215
"40045","Milton","KY",38.702793,-85.37187
"40046","Mount Eden","KY",38.026767,-85.1869
"40047","Mount Washington","KY",38.045982,-85.55467
"40048","Nazareth","KY",37.756941,-85.44671
"40049","Nerinx","KY",37.660251,-85.393204
"40050","New Castle","KY",38.435604,-85.17658
"40051","New Haven","KY",37.656291,-85.58099
"40052","New Hope","KY",37.585365,-85.50817
"40053","Pewee Valley","KY",37.7604,-85.447393
"40055","Pendleton","KY",38.495454,-85.33839
"40056","Pewee Valley","KY",38.308109,-85.48714
"40057","Pleasureville","KY",38.386916,-85.06609
"40058","Port Royal","KY",38.433076,-85.17111
"40059","Prospect","KY",38.350915,-85.60042
"40060","Raywick","KY",37.533395,-85.43588
"40061","Saint Catharine","KY",37.773962,-85.201068
"40062","Saint Francis","KY",37.590699,-85.45004
"40063","Saint Mary","KY",37.579519,-85.355132
"40065","Shelbyville","KY",38.211511,-85.21658
"40066","Shelbyville","KY",38.197268,-85.212156
"40067","Simpsonville","KY",38.210818,-85.36122
"40068","Smithfield","KY",38.400619,-85.27741
"40069","Springfield","KY",37.702418,-85.22257
"40070","Sulphur","KY",38.486325,-85.27425
"40071","Taylorsville","KY",38.045406,-85.36427
"40075","Turners Station","KY",38.552133,-85.101879
"40076","Waddy","KY",38.122088,-85.06677
"40077","Westport","KY",38.491982,-85.4722
"40078","Willisburg","KY",37.840066,-85.12572
"40080","Fairfield","KY",37.93388,-85.385382
"40081","Crestwood","KY",38.3386,-85.492459
"40104","Battletown","KY",38.087303,-86.35414
"40106","Big Spring","KY",37.788538,-86.231194
"40107","Boston","KY",37.768921,-85.65602
"40108","Brandenburg","KY",37.973094,-86.11831
"40109","Brooks","KY",38.062515,-85.73559
"40110","Clermont","KY",37.93462,-85.65545
"40111","Cloverport","KY",37.816771,-86.63448
"40115","Custer","KY",37.753533,-86.21654
"40117","Ekron","KY",37.915077,-86.14434
"40118","Fairdale","KY",38.106135,-85.75362
"40119","Falls Of Rough","KY",37.600179,-86.52846
"40121","Fort Knox","KY",37.895491,-85.9662
"40122","Fort Knox","KY",37.89,-85.96
"40129","Hillview","KY",38.07,-85.67
"40140","Garfield","KY",37.675627,-86.23001
"40142","Guston","KY",37.894075,-86.20383
"40143","Hardinsburg","KY",37.777083,-86.48345
"40144","Harned","KY",37.750101,-86.39972
"40145","Hudson","KY",37.652706,-86.3173
"40146","Irvington","KY",37.88108,-86.31377
"40150","Lebanon Junction","KY",37.849334,-85.73269
"40152","McDaniels","KY",37.61966,-86.45078
"40153","McQuady","KY",37.802295,-86.414768
"40155","Muldraugh","KY",37.937825,-85.99137
"40157","Payneville","KY",38.028543,-86.38511
"40159","Radcliff","KY",37.723474,-85.976854
"40160","Radcliff","KY",37.828459,-85.93888
"40161","Rhodelia","KY",38.005963,-86.398391
"40162","Rineyville","KY",37.756775,-86.00073
"40164","Se Ree","KY",37.670928,-86.39204
"40165","Shepherdsville","KY",37.997938,-85.69667
"40170","Stephensport","KY",37.965908,-86.49255
"40171","Union Star","KY",37.969766,-86.43079
"40175","Vine Grove","KY",37.826822,-86.00692
"40176","Webster","KY",37.934279,-86.34869
"40177","West Point","KY",37.997957,-85.94452
"40178","Westview","KY",37.647315,-86.40623
"40179","West Point","KY",37.998628,-85.946585
"40201","Louisville","KY",38.188962,-85.676819
"40202","Louisville","KY",38.252854,-85.75137
"40203","Louisville","KY",38.248106,-85.7665
"40204","Louisville","KY",38.23862,-85.72626
"40205","Louisville","KY",38.22292,-85.68326
"40206","Louisville","KY",38.254671,-85.70254
"40207","Louisville","KY",38.257489,-85.65134
"40208","Louisville","KY",38.218764,-85.76241
"40209","Louisville","KY",38.19187,-85.75298
"40210","Louisville","KY",38.23067,-85.78665
"40211","Louisville","KY",38.24142,-85.81181
"40212","Louisville","KY",38.26632,-85.79998
"40213","Louisville","KY",38.186126,-85.71304
"40214","Louisville","KY",38.160936,-85.77624
"40215","Louisville","KY",38.19192,-85.78405
"40216","Louisville","KY",38.188886,-85.83137
"40217","Louisville","KY",38.21632,-85.739
"40218","Louisville","KY",38.193769,-85.65733
"40219","Louisville","KY",38.141638,-85.68218
"40220","Louisville","KY",38.214982,-85.62207
"40221","Louisville","KY",38.188962,-85.676819
"40222","Louisville","KY",38.26507,-85.61319
"40223","Louisville","KY",38.258941,-85.55574
"40224","Louisville","KY",38.188962,-85.676819
"40225","Louisville","KY",38.188962,-85.676819
"40228","Louisville","KY",38.137586,-85.62741
"40229","Louisville","KY",38.085601,-85.66979
"40231","Louisville","KY",38.188962,-85.676819
"40232","Louisville","KY",38.188962,-85.676819
"40233","Louisville","KY",38.188962,-85.676819
"40241","Louisville","KY",38.305636,-85.58424
"40242","Louisville","KY",38.279059,-85.59037
"40243","Louisville","KY",38.237155,-85.53657
"40245","Louisville","KY",38.270855,-85.48322
"40250","Louisville","KY",38.188962,-85.676819
"40251","Louisville","KY",38.188962,-85.676819
"40252","Louisville","KY",38.188962,-85.676819
"40253","Louisville","KY",38.188962,-85.676819
"40255","Louisville","KY",38.188962,-85.676819
"40256","Louisville","KY",38.188962,-85.676819
"40257","Louisville","KY",38.188962,-85.676819
"40258","Louisville","KY",38.141719,-85.86375
"40259","Louisville","KY",38.188962,-85.676819
"40261","Louisville","KY",38.188962,-85.676819
"40266","Louisville","KY",38.188962,-85.676819
"40268","Louisville","KY",38.188962,-85.676819
"40269","Louisville","KY",38.188962,-85.676819
"40270","Louisville","KY",38.188962,-85.676819
"40272","Louisville","KY",38.096056,-85.85994
"40280","Louisville","KY",38.246721,-85.685261
"40281","Louisville","KY",38.188962,-85.676819
"40282","Louisville","KY",38.188962,-85.676819
"40283","Louisville","KY",38.188962,-85.676819
"40285","Louisville","KY",38.188962,-85.676819
"40287","Louisville","KY",38.188962,-85.676819
"40289","Louisville","KY",38.188962,-85.676819
"40290","Louisville","KY",38.188962,-85.676819
"40291","Louisville","KY",38.147232,-85.59169
"40292","Louisville","KY",38.188962,-85.676819
"40293","Louisville","KY",38.188962,-85.676819
"40294","Louisville","KY",38.188962,-85.676819
"40295","Louisville","KY",38.188962,-85.676819
"40296","Louisville","KY",38.188962,-85.676819
"40297","Louisville","KY",38.188962,-85.676819
"40298","Louisville","KY",38.188962,-85.676819
"40299","Louisville","KY",38.190568,-85.55348
"40310","Burgin","KY",37.754255,-84.76904
"40311","Carlisle","KY",38.320944,-84.02358
"40312","Clay City","KY",37.846536,-83.9343
"40313","Clearfield","KY",38.156248,-83.41586
"40316","Denniston","KY",37.933123,-83.52303
"40317","Elliottville","KY",38.176471,-83.268234
"40319","Farmers","KY",38.140258,-83.533691
"40320","Ford","KY",37.968496,-84.157766
"40322","Frenchburg","KY",37.937105,-83.63429
"40324","Georgetown","KY",38.221179,-84.55465
"40328","Gravel Switch","KY",37.561722,-85.0227
"40329","Haldeman","KY",38.206706,-83.41725
"40330","Harrodsburg","KY",37.773923,-84.85812
"40334","Hope","KY",38.016706,-83.76639
"40336","Irvine","KY",37.694764,-83.9771
"40337","Jeffersonville","KY",37.9615,-83.8438
"40339","Keene","KY",37.942941,-84.64418
"40340","Nicholasville","KY",37.866238,-84.579491
"40342","Lawrenceburg","KY",38.012479,-84.94075
"40346","Means","KY",37.979941,-83.73183
"40347","Midway","KY",38.153759,-84.70928
"40348","Millersburg","KY",38.302495,-84.14578
"40350","Moorefield","KY",38.304494,-83.87442
"40351","Morehead","KY",38.19056,-83.4321
"40353","Mount Sterling","KY",38.061248,-83.92964
"40355","New Liberty","KY",38.606023,-84.8279
"40356","Nicholasville","KY",37.883886,-84.571
"40357","North Middletown","KY",38.146395,-84.107655
"40358","Olympia","KY",38.057744,-83.6848
"40359","Owenton","KY",38.467809,-84.81023
"40360","Owingsville","KY",38.152302,-83.76603
"40361","Paris","KY",38.212471,-84.23646
"40362","Paris","KY",38.219407,-84.205944
"40363","Perry Park","KY",38.522034,-85.00607
"40366","Preston","KY",38.086673,-83.757123
"40370","Sadieville","KY",38.399525,-84.53353
"40371","Salt Lick","KY",38.087867,-83.61146
"40372","Salvisa","KY",37.911825,-84.88657
"40374","Sharpsburg","KY",38.201485,-83.91734
"40376","Slade","KY",37.78422,-83.69224
"40379","Stamping Ground","KY",38.29617,-84.69614
"40380","Stanton","KY",37.838747,-83.8099
"40383","Versailles","KY",38.042639,-84.73189
"40384","Versailles","KY",38.021292,-84.745488
"40385","Waco","KY",37.724497,-84.11389
"40386","Versailles","KY",38.021292,-84.745488
"40387","Wellington","KY",37.929101,-83.49464
"40390","Wilmore","KY",37.85743,-84.66069
"40391","Winchester","KY",37.98223,-84.17023
"40392","Winchester","KY",37.968496,-84.157766
"40402","Annville","KY",37.29409,-83.9759
"40403","Berea","KY",37.575568,-84.27767
"40404","Berea","KY",37.716443,-84.299699
"40405","Bighill","KY",37.716443,-84.299699
"40409","Brodhead","KY",37.374681,-84.41808
"40410","Bryantsville","KY",37.651397,-84.546693
"40419","Crab Orchard","KY",37.455879,-84.48753
"40421","Dabolt","KY",37.416008,-83.993588
"40422","Danville","KY",37.644426,-84.78862
"40423","Danville","KY",37.624659,-84.845767
"40434","Gray Hawk","KY",37.395468,-83.908492
"40437","Hustonville","KY",37.431549,-84.81256
"40440","Junction City","KY",37.583748,-84.80855
"40442","Kings Mountain","KY",37.351449,-84.7219
"40444","Lancaster","KY",37.667083,-84.59496
"40445","Livingston","KY",37.302783,-84.21527
"40446","Lancaster","KY",37.651397,-84.546693
"40447","McKee","KY",37.457017,-84.03435
"40448","McKinney","KY",37.460003,-84.75676
"40452","Mitchellsburg","KY",37.603345,-84.94918
"40456","Mount Vernon","KY",37.36766,-84.33233
"40460","Orlando","KY",37.406069,-84.24292
"40461","Paint Lick","KY",37.59483,-84.40789
"40464","Parksville","KY",37.55081,-84.90009
"40467","Peoples","KY",37.416008,-83.993588
"40468","Perryville","KY",37.65487,-84.98037
"40469","Brodhead","KY",37.40382,-84.405839
"40472","Ravenna","KY",37.703394,-83.91384
"40473","Renfro Valley","KY",37.345751,-84.31614
"40475","Richmond","KY",37.745999,-84.28433
"40476","Richmond","KY",37.716443,-84.299699
"40481","Sandgap","KY",37.43424,-84.09155
"40484","Stanford","KY",37.520836,-84.6735
"40486","Tyner","KY",37.369321,-83.85889
"40488","Waneta","KY",37.471602,-84.03936
"40489","Waynesburg","KY",37.351221,-84.62099
"40492","Wildie","KY",37.345751,-84.31614
"40495","Winston","KY",37.709721,-84.082894
"40501","Lexington","KY",38.037847,-84.61645
"40502","Lexington","KY",38.017219,-84.4859
"40503","Lexington","KY",38.007898,-84.53452
"40504","Lexington","KY",38.039322,-84.54259
"40505","Lexington","KY",38.058477,-84.46109
"40506","Lexington","KY",38.028712,-84.507471
"40507","Lexington","KY",38.047408,-84.49627
"40508","Lexington","KY",38.051727,-84.49336
"40509","Lexington","KY",38.005199,-84.40954
"40510","Lexington","KY",38.064087,-84.60713
"40511","Lexington","KY",38.105283,-84.50775
"40512","Lexington","KY",38.028269,-84.471505
"40513","Lexington","KY",38.010247,-84.58619
"40514","Lexington","KY",37.984907,-84.56691
"40515","Lexington","KY",37.952113,-84.45347
"40516","Lexington","KY",38.071981,-84.38559
"40517","Lexington","KY",37.985128,-84.48874
"40522","Lexington","KY",38.028269,-84.471505
"40523","Lexington","KY",38.028269,-84.471505
"40524","Lexington","KY",38.028269,-84.471505
"40526","Lexington","KY",38.028269,-84.471505
"40533","Lexington","KY",38.028269,-84.471505
"40536","Lexington","KY",38.032075,-84.508361
"40544","Lexington","KY",38.028269,-84.471505
"40546","Lexington","KY",38.028269,-84.471505
"40550","Lexington","KY",38.028269,-84.471505
"40555","Lexington","KY",38.028269,-84.471505
"40574","Lexington","KY",38.028269,-84.471505
"40575","Lexington","KY",38.028269,-84.471505
"40576","Lexington","KY",38.028269,-84.471505
"40577","Lexington","KY",38.028269,-84.471505
"40578","Lexington","KY",38.028269,-84.471505
"40579","Lexington","KY",38.028269,-84.471505
"40580","Lexington","KY",38.028269,-84.471505
"40581","Lexington","KY",38.028269,-84.471505
"40582","Lexington","KY",38.028269,-84.471505
"40583","Lexington","KY",38.028269,-84.471505
"40584","Lexington","KY",38.028269,-84.471505
"40585","Lexington","KY",38.028269,-84.471505
"40586","Lexington","KY",38.028269,-84.471505
"40587","Lexington","KY",38.028269,-84.471505
"40588","Lexington","KY",38.028269,-84.471505
"40589","Lexington","KY",38.028269,-84.471505
"40590","Lexington","KY",38.028269,-84.471505
"40591","Lexington","KY",38.028269,-84.471505
"40592","Lexington","KY",38.028269,-84.471505
"40593","Lexington","KY",38.028269,-84.471505
"40594","Lexington","KY",38.028269,-84.471505
"40595","Lexington","KY",38.028269,-84.471505
"40596","Lexington","KY",38.028269,-84.471505
"40598","Lexington","KY",38.05,-84.5
"40601","Frankfort","KY",38.201649,-84.86935
"40602","Frankfort","KY",38.234133,-84.874809
"40603","Frankfort","KY",38.234133,-84.874809
"40604","Frankfort","KY",38.234133,-84.874809
"40618","Frankfort","KY",38.234133,-84.874809
"40619","Frankfort","KY",38.234133,-84.874809
"40620","Frankfort","KY",38.234133,-84.874809
"40621","Frankfort","KY",38.234133,-84.874809
"40622","Frankfort","KY",38.234133,-84.874809
"40695","Middlesborough","KY",36.608426,-83.731809
"40701","Corbin","KY",36.942035,-84.10685
"40702","Corbin","KY",36.937426,-84.1031
"40724","Bush","KY",37.152074,-84.140847
"40729","East Bernstadt","KY",37.231717,-84.13026
"40730","Emlyn","KY",36.705162,-84.14595
"40734","Gray","KY",36.930995,-83.98146
"40737","Keavy","KY",36.990797,-84.14124
"40740","Lily","KY",37.015283,-84.05872
"40741","London","KY",37.143828,-84.07839
"40742","London","KY",37.137615,-84.115617
"40743","London","KY",37.134455,-84.045746
"40744","London","KY",37.060576,-84.071
"40745","London","KY",37.137615,-84.115617
"40746","London","KY",37.137615,-84.115617
"40747","London","KY",37.137615,-84.115617
"40748","London","KY",37.137615,-84.115617
"40751","Marydell","KY",37.137615,-84.115617
"40754","Nevisdale","KY",36.780333,-84.11678
"40755","Pittsburg","KY",37.167752,-84.116614
"40759","Rockholds","KY",36.817151,-84.05917
"40763","Siler","KY",36.681189,-83.95156
"40769","Williamsburg","KY",36.709853,-84.1508
"40771","Woodbine","KY",36.888978,-84.05237
"40801","Ages Brookside","KY",36.858906,-83.2528
"40803","Asher","KY",37.046365,-83.42003
"40806","Baxter","KY",36.872801,-83.30778
"40807","Benham","KY",36.963608,-82.95015
"40808","Big Laurel","KY",36.981495,-83.25264
"40810","Bledsoe","KY",36.91707,-83.32399
"40813","Calvin","KY",36.737835,-83.60248
"40815","Cawood","KY",36.781517,-83.22904
"40816","Chappell","KY",36.987495,-83.32795
"40818","Coalgood","KY",36.807137,-83.26552
"40819","Coldiron","KY",36.827233,-83.4645
"40820","Cranks","KY",36.766134,-83.16117
"40823","Cumberland","KY",36.972292,-82.99572
"40824","Dayhoit","KY",36.840955,-83.37539
"40826","Eolia","KY",37.048238,-82.81775
"40827","Essie","KY",37.043142,-83.48892
"40828","Evarts","KY",36.86772,-83.17747
"40829","Grays Knob","KY",36.797447,-83.264497
"40830","Gulston","KY",36.772301,-83.33415
"40831","Harlan","KY",36.828285,-83.31856
"40840","Helton","KY",36.949181,-83.43129
"40843","Holmes Mill","KY",36.868363,-82.96607
"40844","Hoskinston","KY",37.058837,-83.38533
"40845","Hulen","KY",36.786271,-83.52009
"40847","Kenvir","KY",36.852687,-83.15917
"40849","Lejunior","KY",36.885169,-83.12461
"40854","Loyall","KY",36.85107,-83.35315
"40855","Lynch","KY",36.96222,-82.90522
"40856","Miracle","KY",36.726258,-83.54969
"40858","Mozelle","KY",37.018413,-83.39768
"40862","Partridge","KY",37.004426,-82.89858
"40863","Pathfork","KY",36.753043,-83.44991
"40865","Putney","KY",36.901802,-83.24129
"40867","Smith","KY",36.712383,-83.33711
"40868","Stinnett","KY",37.11181,-83.39265
"40870","Totz","KY",36.930024,-83.15467
"40873","Wallins Creek","KY",36.823334,-83.41058
"40874","Warbranch","KY",36.982545,-83.48003
"40902","Arjay","KY",36.836208,-83.63388
"40903","Artemus","KY",36.825088,-83.8385
"40906","Barbourville","KY",36.853913,-83.88501
"40913","Beverly","KY",36.942094,-83.53262
"40914","Big Creek","KY",37.112359,-83.56789
"40915","Bimble","KY",36.887081,-83.81552
"40921","Bryants Store","KY",36.72179,-83.90657
"40923","Cannon","KY",36.920165,-83.85699
"40927","Closplint","KY",36.889259,-83.05265
"40930","Dewitt","KY",36.855044,-83.739
"40931","Eriline","KY",37.147687,-83.737014
"40932","Fall Rock","KY",37.147687,-83.737014
"40935","Flat Lick","KY",36.867971,-83.74576
"40939","Fourmile","KY",36.871254,-83.829985
"40940","Frakes","KY",36.607234,-83.92535
"40941","Garrard","KY",37.176075,-83.66608
"40943","Girdler","KY",36.947113,-83.8506
"40944","Goose Rock","KY",37.147687,-83.737014
"40946","Green Road","KY",36.966634,-83.83413
"40949","Heidrick","KY",36.897618,-83.87252
"40951","Hima","KY",37.147687,-83.737014
"40953","Hinkle","KY",36.943114,-83.81984
"40955","Ingram","KY",36.769184,-83.708181
"40958","Kettle Island","KY",36.793291,-83.58725
"40962","Manchester","KY",37.164346,-83.76674
"40964","Mary Alice","KY",36.842977,-83.183446
"40965","Middlesboro","KY",36.617181,-83.72186
"40972","Oneida","KY",37.25398,-83.61901
"40977","Pineville","KY",36.750028,-83.72023
"40979","Roark","KY",37.016332,-83.51075
"40981","Saul","KY",37.331259,-83.386991
"40982","Scalf","KY",36.933443,-83.70088
"40983","Sextons Creek","KY",37.32832,-83.7488
"40988","Stoney Fork","KY",36.842522,-83.51851
"40995","Trosper","KY",36.78737,-83.81508
"40997","Walker","KY",36.888893,-83.66257
"40999","Woollum","KY",37.005242,-83.80508
"41000","Fort Mitchell","KY",39.0358,-84.546445
"41001","Alexandria","KY",38.946893,-84.38652
"41002","Augusta","KY",38.76189,-83.99683
"41003","Berry","KY",38.535065,-84.38904
"41004","Brooksville","KY",38.677837,-84.09411
"41005","Burlington","KY",39.020466,-84.74158
"41006","Butler","KY",38.796981,-84.33792
"41007","California","KY",38.910255,-84.28194
"41008","Carrollton","KY",38.663328,-85.16803
"41010","Corinth","KY",38.484843,-84.61017
"41011","Covington","KY",39.0752,-84.52064
"41012","Covington","KY",38.944663,-84.520501
"41014","Covington","KY",39.067811,-84.5039
"41015","Latonia","KY",39.013062,-84.49419
"41016","Covington","KY",39.087593,-84.55057
"41017","Ft Mitchell","KY",39.036361,-84.56801
"41018","Erlanger","KY",39.013755,-84.60229
"41019","Covington","KY",38.944663,-84.520501
"41022","Florence","KY",38.962372,-84.747789
"41030","Crittenden","KY",38.788439,-84.602
"41031","Cynthiana","KY",38.397678,-84.2939
"41033","De Mossville","KY",38.773111,-84.44889
"41034","Dover","KY",38.730747,-83.88762
"41035","Dry Ridge","KY",38.691006,-84.6418
"41037","Elizaville","KY",38.3481,-83.718626
"41039","Ewing","KY",38.424954,-83.86286
"41040","Falmouth","KY",38.656527,-84.32811
"41041","Flemingsburg","KY",38.418131,-83.72497
"41042","Florence","KY",38.983853,-84.64401
"41043","Foster","KY",38.765448,-84.16998
"41044","Germantown","KY",38.63785,-83.96651
"41045","Ghent","KY",38.724439,-85.05007
"41046","Glencoe","KY",38.742296,-84.81223
"41048","Hebron","KY",39.0805,-84.68754
"41049","Hillsboro","KY",38.286314,-83.6512
"41051","Independence","KY",38.941953,-84.54902
"41052","Jonesville","KY",38.6622,-84.77495
"41053","Kenton","KY",38.944663,-84.520501
"41054","Mason","KY",38.593226,-84.578552
"41055","Mayslick","KY",38.52217,-83.85894
"41056","Maysville","KY",38.624534,-83.76561
"41059","Melbourne","KY",39.022732,-84.36575
"41061","Milford","KY",38.688556,-84.070074
"41062","Minerva","KY",38.719573,-83.910276
"41063","Morning View","KY",38.842166,-84.48802
"41064","Mount Olivet","KY",38.508638,-84.05145
"41065","Muses Mills","KY",38.3481,-83.718626
"41071","Newport","KY",39.08347,-84.48681
"41072","Newport","KY",38.963761,-84.368926
"41073","Bellevue","KY",39.103011,-84.47987
"41074","Dayton","KY",39.10941,-84.46986
"41075","Fort Thomas","KY",39.076011,-84.45127
"41076","Newport","KY",39.019185,-84.44204
"41080","Petersburg","KY",39.062761,-84.85236
"41081","Plummers Landing","KY",38.3481,-83.718626
"41083","Sanders","KY",38.666588,-84.96756
"41085","Silver Grove","KY",39.034293,-84.39156
"41086","Sparta","KY",38.709838,-84.88807
"41091","Union","KY",38.930285,-84.71603
"41092","Verona","KY",38.815335,-84.68485
"41093","Wallingford","KY",38.37106,-83.57103
"41094","Walton","KY",38.87872,-84.62558
"41095","Warsaw","KY",38.775686,-84.89756
"41096","Washington","KY",38.61225,-83.808021
"41097","Williamstown","KY",38.628866,-84.5679
"41098","Worthville","KY",38.60395,-85.03388
"41099","Newport","KY",38.963761,-84.368926
"41101","Ashland","KY",38.473961,-82.64532
"41102","Ashland","KY",38.439526,-82.6932
"41105","Ashland","KY",38.370285,-82.694757
"41114","Ashland","KY",38.370285,-82.694757
"41121","Argillite","KY",38.456608,-82.82615
"41124","Blaine","KY",38.028476,-82.84781
"41127","Camp Dix","KY",38.602881,-83.361625
"41128","Carter","KY",38.433912,-83.133597
"41129","Catlettsburg","KY",38.360669,-82.61836
"41132","Denton","KY",38.251159,-82.83496
"41135","Emerson","KY",38.365096,-83.27206
"41137","Firebrick","KY",38.688142,-83.04838
"41139","Flatwoods","KY",38.52032,-82.72175
"41141","Garrison","KY",38.570194,-83.14301
"41142","Grahn","KY",38.282767,-83.0727
"41143","Grayson","KY",38.323106,-82.94997
"41144","Greenup","KY",38.552472,-82.86514
"41146","Hitchins","KY",38.272476,-82.90494
"41149","Isonville","KY",38.061324,-83.05005
"41150","Jacobs","KY",38.225087,-83.242129
"41156","Lloyd","KY",38.565211,-82.916586
"41159","Martha","KY",38.019104,-82.9507
"41160","Mazie","KY",38.074113,-82.744663
"41163","Grayson","KY",38.338445,-82.939541
"41164","Olive Hill","KY",38.292177,-83.18381
"41166","Quincy","KY",38.630683,-83.11739
"41168","Rush","KY",38.298546,-82.77714
"41169","Russell","KY",38.538456,-82.70856
"41170","Saint Paul","KY",38.68177,-83.0695
"41171","Sandy Hook","KY",38.089097,-83.09554
"41173","Soldier","KY",38.262029,-83.28472
"41174","South Portsmouth","KY",38.71293,-83.02353
"41175","South Shore","KY",38.676695,-82.9686
"41179","Vanceburg","KY",38.530915,-83.38506
"41180","Webbville","KY",38.132937,-82.85098
"41181","Willard","KY",38.204459,-82.907615
"41183","Worthington","KY",38.54912,-82.73508
"41189","Tollesboro","KY",38.546281,-83.55909
"41201","Adams","KY",38.076051,-82.73975
"41203","Beauty","KY",37.846064,-82.44835
"41204","Boons Camp","KY",37.81711,-82.68897
"41214","Debord","KY",37.775385,-82.57034
"41215","Denver","KY",37.771963,-82.865092
"41216","East Point","KY",37.756007,-82.81931
"41219","Flatgap","KY",37.933492,-82.90279
"41222","Hagerhill","KY",37.780917,-82.82744
"41224","Inez","KY",37.866327,-82.52903
"41226","Keaton","KY",37.992794,-82.94551
"41228","Leander","KY",37.752473,-82.87484
"41230","Louisa","KY",38.071237,-82.64062
"41231","Lovely","KY",37.810757,-82.39411
"41232","Lowmansville","KY",37.916701,-82.73746
"41234","Meally","KY",37.795418,-82.7337
"41238","Oil Springs","KY",37.841448,-82.94106
"41240","Paintsville","KY",37.823275,-82.78167
"41250","Pilgrim","KY",37.758445,-82.48919
"41254","River","KY",37.887278,-82.73688
"41255","Sitka","KY",37.916221,-82.83962
"41256","Staffordsville","KY",37.832617,-82.86299
"41257","Stambaugh","KY",37.940709,-82.81233
"41260","Thelma","KY",37.831324,-82.76039
"41262","Tomahawk","KY",37.855873,-82.62091
"41263","Tutor Key","KY",37.8583,-82.7598
"41264","Ulysses","KY",37.935529,-82.68331
"41265","Van Lear","KY",37.761356,-82.72165
"41267","Warfield","KY",37.855146,-82.41666
"41268","West Van Lear","KY",37.789291,-82.78437
"41271","Williamsport","KY",37.831277,-82.726407
"41274","Wittensville","KY",37.86388,-82.80914
"41301","Campton","KY",37.716311,-83.51835
"41307","Athol","KY",37.515013,-83.26432
"41310","Bays","KY",37.640938,-83.24466
"41311","Beattyville","KY",37.578547,-83.70348
"41313","Bethany","KY",37.740503,-83.475446
"41314","Booneville","KY",37.430777,-83.66771
"41317","Clayhole","KY",37.461944,-83.18256
"41332","Hazel Green","KY",37.797688,-83.36866
"41333","Heidelberg","KY",37.556255,-83.776253
"41338","Island City","KY",37.398617,-83.704908
"41339","Jackson","KY",37.533559,-83.34547
"41342","Lee City","KY",37.740503,-83.475446
"41344","Lerose","KY",37.502641,-83.62117
"41347","Lone","KY",37.54418,-83.600784
"41348","Lost Creek","KY",37.426337,-83.29911
"41351","Mistletoe","KY",37.398617,-83.704908
"41352","Mize","KY",37.914002,-83.233761
"41360","Pine Ridge","KY",37.791388,-83.64971
"41362","Primrose","KY",37.60332,-83.713974
"41364","Ricetown","KY",37.382832,-83.62327
"41365","Rogers","KY",37.711278,-83.63647
"41366","Rousseau","KY",37.593059,-83.287774
"41367","Rowdy","KY",37.383285,-83.2404
"41368","Saint Helens","KY",37.611684,-83.64341
"41377","Talbert","KY",37.416002,-83.44991
"41385","Vancleve","KY",37.635723,-83.35077
"41386","Vincent","KY",37.473347,-83.81722
"41390","Whick","KY",37.424083,-83.37595
"41397","Zoe","KY",37.643659,-83.67763
"41408","Cannel City","KY",37.792272,-83.28137
"41410","Cisco","KY",37.690636,-83.074592
"41413","Crockett","KY",37.970507,-83.125202
"41419","Edna","KY",37.690636,-83.074592
"41421","Elkfork","KY",37.997666,-83.16103
"41422","Elsie","KY",37.690636,-83.074592
"41425","Ezel","KY",37.891486,-83.44413
"41426","Falcon","KY",37.784924,-82.99783
"41433","Gapville","KY",37.690636,-83.074592
"41444","Ivyton","KY",37.690636,-83.074592
"41451","Malone","KY",37.914002,-83.233761
"41459","Ophir","KY",37.914002,-83.233761
"41463","Salyersville","KY",37.745824,-83.073603
"41464","Royalton","KY",37.65026,-82.94544
"41465","Salyersville","KY",37.736751,-83.08652
"41472","West Liberty","KY",37.932283,-83.23821
"41477","Wrigley","KY",37.914002,-83.233761
"41501","Pikeville","KY",37.478169,-82.5189
"41502","Pikeville","KY",37.481637,-82.550507
"41503","South Williamson","KY",37.67059,-82.28465
"41512","Ashcamp","KY",37.254188,-82.47961
"41513","Belcher","KY",37.357536,-82.3631
"41514","Belfry","KY",37.672296,-82.30442
"41517","Burdine","KY",37.184477,-82.61109
"41519","Canada","KY",37.60512,-82.31477
"41520","Dorton","KY",37.279027,-82.57732
"41522","Elkhorn City","KY",37.300397,-82.39516
"41524","Fedscreek","KY",37.424071,-82.23762
"41526","Fords Branch","KY",37.437194,-82.518527
"41527","Forest Hills","KY",37.641773,-82.27793
"41528","Freeburn","KY",37.561944,-82.13471
"41531","Hardy","KY",37.599893,-82.23349
"41534","Hellier","KY",37.2701,-82.48553
"41535","Huddy","KY",37.598267,-82.27611
"41537","Jenkins","KY",37.192483,-82.6235
"41538","Jonancy","KY",37.314335,-82.59506
"41539","Kimper","KY",37.504315,-82.32797
"41540","Lick Creek","KY",37.396574,-82.33349
"41542","Lookout","KY",37.314848,-82.464979
"41543","McAndrews","KY",37.553553,-82.28283
"41544","McCarr","KY",37.59865,-82.16836
"41546","McVeigh","KY",37.550374,-82.25703
"41547","Majestic","KY",37.544224,-82.06488
"41548","Mouthcard","KY",37.369612,-82.23523
"41549","Myra","KY",37.293386,-82.60019
"41553","Phelps","KY",37.506174,-82.15907
"41554","Phyllis","KY",37.445906,-82.32708
"41555","Pinsonfork","KY",37.52976,-82.26665
"41557","Raccoon","KY",37.514166,-82.43625
"41558","Ransom","KY",37.533643,-82.21145
"41559","Regina","KY",37.364548,-82.40573
"41560","Robinson Creek","KY",37.389786,-82.55812
"41561","Rockhouse","KY",37.33162,-82.462574
"41562","Shelbiana","KY",37.416995,-82.4571
"41563","Shelby Gap","KY",37.216465,-82.54639
"41564","Sidney","KY",37.610331,-82.36125
"41566","Steele","KY",37.417254,-82.18823
"41567","Stone","KY",37.560929,-82.28796
"41568","Stopover","KY",37.49947,-82.05643
"41569","Toler","KY",37.633524,-82.25408
"41571","Varney","KY",37.625031,-82.38704
"41572","Virgie","KY",37.322411,-82.61598
"41601","Allen","KY",37.611434,-82.72503
"41602","Auxier","KY",37.73696,-82.74012
"41603","Banner","KY",37.601078,-82.69496
"41604","Beaver","KY",37.370358,-82.66944
"41605","Betsy Layne","KY",37.554631,-82.63174
"41606","Bevinsville","KY",37.362943,-82.73277
"41607","Blue River","KY",37.617197,-82.85634
"41612","Bypro","KY",37.358509,-82.7207
"41615","Dana","KY",37.550496,-82.6933
"41616","David","KY",37.587133,-82.87272
"41619","Drift","KY",37.496608,-82.75942
"41621","Dwale","KY",37.623492,-82.72417
"41622","Eastern","KY",37.514748,-82.81097
"41630","Garrett","KY",37.470216,-82.8409
"41631","Grethel","KY",37.479754,-82.64922
"41632","Gunlock","KY",37.555846,-82.94995
"41635","Harold","KY",37.509291,-82.63494
"41636","Hi Hat","KY",37.398774,-82.73257
"41640","Hueysville","KY",37.493888,-82.94192
"41642","Ivel","KY",37.587011,-82.66028
"41643","Lackey","KY",37.470999,-82.829405
"41645","Langley","KY",37.544465,-82.80178
"41647","McDowell","KY",37.449076,-82.7264
"41649","Martin","KY",37.568873,-82.75937
"41650","Melvin","KY",37.351125,-82.69298
"41651","Minnie","KY",37.465744,-82.75492
"41653","Prestonsburg","KY",37.667872,-82.75876
"41655","Printer","KY",37.511126,-82.72053
"41659","Stanville","KY",37.569845,-82.62562
"41660","Teaberry","KY",37.428801,-82.64374
"41663","Tram","KY",37.568942,-82.64774
"41666","Wayland","KY",37.446983,-82.80852
"41667","Weeksbury","KY",37.322234,-82.69699
"41668","West Prestonsburg","KY",37.670986,-82.760975
"41669","Wheelwright","KY",37.331465,-82.71906
"41701","Hazard","KY",37.274854,-83.19061
"41702","Hazard","KY",37.320076,-83.206495
"41705","Fort Thomas","KY",39.08359,-84.450912
"41712","Ary","KY",37.373384,-83.15186
"41713","Avawam","KY",37.22539,-83.273609
"41714","Bear Branch","KY",37.163342,-83.51527
"41719","Bonnyman","KY",37.295365,-83.25414
"41721","Buckhorn","KY",37.325318,-83.49048
"41722","Bulan","KY",37.369312,-83.1156
"41723","Busy","KY",37.257714,-83.31253
"41725","Carrie","KY",37.33195,-83.02976
"41727","Chavies","KY",37.350689,-83.34049
"41729","Combs","KY",37.266633,-83.21226
"41730","Confluence","KY",37.263348,-83.39943
"41731","Cornettsville","KY",37.115385,-83.08501
"41735","Delphia","KY",37.029744,-83.08919
"41736","Dice","KY",37.370521,-83.23714
"41739","Dwarf","KY",37.348289,-83.11137
"41740","Emmalena","KY",37.348377,-83.04938
"41743","Fisty","KY",37.30636,-83.090441
"41745","Gays Creek","KY",37.328336,-83.4399
"41746","Happy","KY",37.204045,-83.09845
"41747","Hardburly","KY",37.300202,-83.122477
"41749","Hyden","KY",37.17621,-83.38301
"41751","Jeff","KY",37.207333,-83.13361
"41754","Krypton","KY",37.31629,-83.33267
"41759","Sassafras","KY",37.229381,-83.03409
"41760","Scuddy","KY",37.205562,-83.08055
"41762","Sizerock","KY",37.223635,-83.50599
"41763","Slemp","KY",37.04877,-83.13904
"41764","Smilax","KY",37.113248,-83.24326
"41766","Thousandsticks","KY",37.187088,-83.44978
"41772","Vest","KY",37.393894,-83.02313
"41773","Vicco","KY",37.221636,-83.05627
"41774","Viper","KY",37.158397,-83.13673
"41775","Wendover","KY",37.10014,-83.34647
"41776","Wooton","KY",37.167173,-83.2852
"41777","Yeaddiss","KY",37.065439,-83.22479
"41778","Yerkes","KY",37.279297,-83.3187
"41804","Blackey","KY",37.141017,-82.99081
"41810","Cromona","KY",37.185228,-82.69447
"41812","Deane","KY",37.241284,-82.75013
"41815","Ermine","KY",37.150537,-82.79468
"41817","Garner","KY",37.36778,-82.91535
"41819","Gordon","KY",36.98586,-83.06497
"41821","Hallie","KY",37.088069,-82.99728
"41822","Hindman","KY",37.333551,-82.97212
"41824","Isom","KY",37.194426,-82.88714
"41825","Jackhorn","KY",37.215305,-82.70468
"41826","Jeremiah","KY",37.164562,-82.93047
"41828","Kite","KY",37.303276,-82.77851
"41831","Leburn","KY",37.387358,-82.95633
"41832","Letcher","KY",37.148006,-82.95634
"41833","Linefork","KY",37.021403,-82.98159
"41834","Littcarr","KY",37.270358,-82.9403
"41835","McRoberts","KY",37.205961,-82.67347
"41836","Mallie","KY",37.245041,-82.8955
"41837","Mayking","KY",37.135518,-82.74606
"41838","Millstone","KY",37.168682,-82.75036
"41839","Mousie","KY",37.420362,-82.87543
"41840","Neon","KY",37.195448,-82.71232
"41843","Pine Top","KY",37.273854,-82.86011
"41844","Pippa Passes","KY",37.334629,-82.87549
"41845","Premium","KY",37.123583,-82.93216
"41847","Redfox","KY",37.21583,-82.95449
"41848","Roxana","KY",37.110216,-82.94073
"41849","Seco","KY",37.172969,-82.72934
"41855","Thornton","KY",37.156856,-82.76167
"41858","Whitesburg","KY",37.130559,-82.83185
"41859","Dema","KY",37.392257,-82.78204
"41861","Raven","KY",37.386051,-82.83138
"41862","Topmost","KY",37.357624,-82.79564
"42001","Paducah","KY",37.066543,-88.65687
"42002","Paducah","KY",37.085511,-88.71247
"42003","Paducah","KY",37.044233,-88.59046
"42011","Fredonia","KY",37.220735,-88.061294
"42020","Almo","KY",36.697107,-88.29836
"42021","Arlington","KY",36.796741,-88.997
"42022","Bandana","KY",37.149003,-88.94252
"42023","Bardwell","KY",36.881954,-88.98347
"42024","Barlow","KY",37.071352,-89.04326
"42025","Benton","KY",36.854812,-88.33515
"42027","Boaz","KY",36.92516,-88.63778
"42028","Burna","KY",37.24122,-88.33829
"42029","Calvert City","KY",37.013505,-88.37269
"42031","Clinton","KY",36.678217,-88.97559
"42032","Columbus","KY",36.755242,-89.10667
"42033","Crayne","KY",37.336533,-88.079607
"42035","Cunningham","KY",36.911107,-88.84412
"42036","Dexter","KY",36.731901,-88.24594
"42037","Dycusburg","KY",37.157866,-88.183598
"42038","Eddyville","KY",37.051386,-88.03613
"42039","Fancy Farm","KY",36.800353,-88.83224
"42040","Farmington","KY",36.614839,-88.5005
"42041","Fulton","KY",36.532059,-88.89132
"42044","Gilbertsville","KY",36.97877,-88.28273
"42045","Grand Rivers","KY",37.031683,-88.24498
"42046","Hamlin","KY",36.6033,-88.092285
"42047","Hampton","KY",37.2948,-88.41026
"42048","Hardin","KY",36.765893,-88.26527
"42049","Hazel","KY",36.511681,-88.32543
"42050","Hickman","KY",36.558598,-89.19789
"42051","Hickory","KY",36.852344,-88.63769
"42053","Kevil","KY",37.107447,-88.86061
"42054","Kirksey","KY",36.716315,-88.44499
"42055","Kuttawa","KY",37.058356,-88.14097
"42056","La Center","KY",37.08716,-88.97616
"42058","Ledbetter","KY",37.054715,-88.48043
"42060","Lovelaceville","KY",36.968906,-88.82817
"42061","Lowes","KY",36.885527,-88.77469
"42063","Lynnville","KY",36.723872,-88.652009
"42064","Marion","KY",37.331602,-88.06997
"42066","Mayfield","KY",36.733761,-88.63449
"42069","Melber","KY",36.921462,-88.75871
"42070","Milburn","KY",36.863147,-88.995991
"42071","Murray","KY",36.617443,-88.28746
"42076","New Concord","KY",36.540753,-88.06837
"42078","Salem","KY",37.282124,-88.24568
"42079","Sedalia","KY",36.574074,-88.56359
"42081","Smithland","KY",37.217493,-88.40884
"42082","Symsonia","KY",36.922652,-88.5104
"42083","Tiline","KY",37.150978,-88.29191
"42084","Tolu","KY",37.433695,-88.24498
"42085","Water Valley","KY",36.578907,-88.82074
"42086","West Paducah","KY",37.089948,-88.7597
"42087","Wickliffe","KY",36.96575,-89.0324
"42088","Wingo","KY",36.627427,-88.74845
"42101","Bowling Green","KY",37.010643,-86.46145
"42102","Bowling Green","KY",36.922292,-86.387046
"42103","Bowling Green","KY",36.969761,-86.38247
"42104","Bowling Green","KY",36.930527,-86.44751
"42109","Bowling Green","KY",36.961988,-86.450786
"42120","Adolphus","KY",36.661883,-86.25964
"42122","Alvaton","KY",36.86316,-86.35202
"42123","Austin","KY",36.820727,-86.00112
"42124","Beaumont","KY",36.857666,-85.649583
"42127","Cave City","KY",37.131203,-85.94633
"42128","Drake","KY",36.983441,-86.394012
"42129","Edmonton","KY",36.988613,-85.58534
"42130","Eighty Eight","KY",36.91297,-85.775282
"42131","Etoile","KY",36.82928,-85.90806
"42133","Fountain Run","KY",36.721319,-85.96139
"42134","Franklin","KY",36.718074,-86.58202
"42135","Franklin","KY",36.758166,-86.581957
"42140","Gamaliel","KY",36.655006,-85.80866
"42141","Glasgow","KY",36.970776,-85.91232
"42142","Glasgow","KY",36.946326,-85.957797
"42150","Halfway","KY",36.782131,-86.184088
"42151","Hestand","KY",36.63667,-85.55275
"42152","Hiseville","KY",37.098753,-85.816472
"42153","Holland","KY",36.665767,-86.04006
"42154","Knob Lick","KY",37.066581,-85.73482
"42156","Lucas","KY",36.840503,-85.995572
"42157","Mount Hermon","KY",36.778567,-85.81772
"42159","Oakland","KY",37.016847,-86.25187
"42160","Park City","KY",37.0896,-86.06474
"42163","Rocky Hill","KY",37.09425,-86.143188
"42164","Scottsville","KY",36.767969,-86.1813
"42166","Summer Shade","KY",36.86322,-85.71774
"42167","Tompkinsville","KY",36.712179,-85.67567
"42170","Woodburn","KY",36.832502,-86.554
"42171","Smiths Grove","KY",37.046968,-86.17181
"42201","Aberdeen","KY",37.279564,-86.670181
"42202","Adairville","KY",36.681441,-86.85365
"42203","Allegre","KY",36.929243,-87.219328
"42204","Allensville","KY",36.70996,-87.07105
"42206","Auburn","KY",36.881837,-86.71983
"42207","Bee Spring","KY",37.293315,-86.26557
"42209","Brooklyn","KY",37.197491,-86.67216
"42210","Brownsville","KY",37.215448,-86.29013
"42211","Cadiz","KY",36.846471,-87.86409
"42214","Center","KY",37.143908,-85.66945
"42215","Cerulean","KY",36.983293,-87.68273
"42216","Clifty","KY",37.004492,-87.152148
"42217","Crofton","KY",37.04413,-87.48219
"42219","Dunbar","KY",37.170909,-86.767822
"42220","Elkton","KY",36.887716,-87.18526
"42221","Fairview","KY",36.898071,-87.496529
"42223","Fort Campbell","KY",36.654943,-87.46188
"42232","Gracey","KY",36.847924,-87.6579
"42234","Guthrie","KY",36.673268,-87.18089
"42235","Hadley","KY",36.983441,-86.394012
"42236","Herndon","KY",36.705024,-87.59935
"42240","Hopkinsville","KY",36.866845,-87.47617
"42241","Hopkinsville","KY",36.898071,-87.496529
"42251","Huntsville","KY",37.157967,-86.885846
"42252","Jetson","KY",37.248326,-86.509271
"42253","Science Hill","KY",37.17925,-84.633915
"42254","La Fayette","KY",36.657405,-87.65633
"42256","Lewisburg","KY",37.020366,-86.94284
"42257","Lindseyville","KY",37.237211,-86.299361
"42259","Mammoth Cave","KY",37.274689,-86.19818
"42261","Morgantown","KY",37.219254,-86.67988
"42262","Oak Grove","KY",36.664334,-87.42789
"42265","Olmstead","KY",36.752802,-87.02003
"42266","Pembroke","KY",36.780906,-87.34305
"42267","Provo","KY",37.229645,-86.804803
"42270","Richardsville","KY",36.983441,-86.394012
"42273","Rochester","KY",37.196636,-86.87625
"42274","Rockfield","KY",36.931416,-86.62507
"42275","Roundhill","KY",37.223167,-86.44062
"42276","Russellville","KY",36.860612,-86.88171
"42280","Sharon Grove","KY",36.953559,-87.09887
"42283","South Union","KY",36.869206,-86.663225
"42285","Sweeden","KY",37.273726,-86.27499
"42286","Trenton","KY",36.727378,-87.26971
"42287","Welchs Creek","KY",37.311676,-86.52913
"42288","Woodbury","KY",37.197491,-86.67216
"42301","Owensboro","KY",37.753347,-87.17419
"42302","Owensboro","KY",37.745491,-87.112823
"42303","Owensboro","KY",37.758568,-87.08714
"42304","Owensboro","KY",37.745491,-87.112823
"42320","Beaver Dam","KY",37.377266,-86.88364
"42321","Beech Creek","KY",37.177839,-87.05761
"42322","Beech Grove","KY",37.615062,-87.406866
"42323","Beechmont","KY",37.172261,-87.03677
"42324","Belton","KY",37.150125,-87.00657
"42325","Bremen","KY",37.333802,-87.26807
"42326","Browder","KY",37.198074,-87.01403
"42327","Calhoun","KY",37.575772,-87.29499
"42328","Centertown","KY",37.410099,-87.03433
"42330","Central City","KY",37.299591,-87.12992
"42332","Cleaton","KY",37.251296,-87.09071
"42333","Cromwell","KY",37.349023,-86.76565
"42334","Curdsville","KY",37.745491,-87.112823
"42337","Drakesboro","KY",37.227223,-87.01349
"42338","Dundee","KY",37.559872,-86.77254
"42339","Dunmor","KY",37.094139,-86.9746
"42343","Fordsville","KY",37.655016,-86.69303
"42344","Graham","KY",37.240117,-87.29396
"42345","Greenville","KY",37.166299,-87.18333
"42347","Hartford","KY",37.471839,-86.9063
"42348","Hawesville","KY",37.882498,-86.76297
"42349","Horse Branch","KY",37.433703,-86.66952
"42350","Island","KY",37.456942,-87.17107
"42351","Lewisport","KY",37.918157,-86.89243
"42352","Livermore","KY",37.502836,-87.11162
"42354","McHenry","KY",37.3799,-86.9258
"42355","Maceo","KY",37.86975,-86.99535
"42356","Maple Mount","KY",37.693229,-87.323841
"42361","Olaton","KY",37.517388,-86.6846
"42364","Pellville","KY",37.827235,-86.804814
"42365","Penrod","KY",37.114594,-87.00175
"42366","Philpot","KY",37.729714,-86.92838
"42367","Powderly","KY",37.242948,-87.154898
"42368","Reynolds Station","KY",37.710929,-86.75487
"42369","Rockport","KY",37.337926,-86.99685
"42370","Rosine","KY",37.448681,-86.74121
"42371","Rumsey","KY",37.508047,-87.29293
"42372","Sacramento","KY",37.41277,-87.28063
"42374","South Carrollton","KY",37.33976,-87.14514
"42375","Stanley","KY",37.745491,-87.112823
"42376","Utica","KY",37.598406,-87.09113
"42377","West Louisville","KY",37.745491,-87.112823
"42378","Whitesville","KY",37.666515,-86.86454
"42400","Morganfield","KY",37.784577,-87.72406
"42402","Baskett","KY",37.778911,-87.60124
"42403","Blackford","KY",37.448198,-87.93391
"42404","Clay","KY",37.481719,-87.8394
"42406","Corydon","KY",37.743264,-87.73173
"42408","Dawson Springs","KY",37.183465,-87.68413
"42409","Dixon","KY",37.52165,-87.69701
"42410","Earlington","KY",37.275896,-87.51498
"42411","Fredonia","KY",37.216778,-88.01438
"42413","Hanson","KY",37.425687,-87.495
"42419","Henderson","KY",37.807173,-87.599052
"42420","Henderson","KY",37.825094,-87.56055
"42431","Madisonville","KY",37.330791,-87.50378
"42436","Manitou","KY",37.458645,-87.54828
"42437","Morganfield","KY",37.67416,-87.90199
"42440","Mortons Gap","KY",37.238785,-87.46986
"42441","Nebo","KY",37.36327,-87.65307
"42442","Nortonville","KY",37.178627,-87.46702
"42444","Poole","KY",37.641689,-87.63786
"42445","Princeton","KY",37.12596,-87.87429
"42450","Providence","KY",37.396445,-87.76428
"42451","Reed","KY",37.859415,-87.37005
"42452","Robards","KY",37.674669,-87.54291
"42453","Saint Charles","KY",37.143686,-87.59662
"42455","Sebree","KY",37.600857,-87.52635
"42456","Slaughters","KY",37.514424,-87.49975
"42457","Smith Mills","KY",37.801347,-87.76586
"42458","Spottsville","KY",37.860142,-87.41866
"42459","Sturgis","KY",37.558719,-87.99632
"42460","Sullivan","KY",37.493997,-87.932773
"42461","Uniontown","KY",37.771573,-87.91614
"42462","Waverly","KY",37.729871,-87.81891
"42463","Wheatcroft","KY",37.488169,-87.8631
"42464","White Plains","KY",37.168568,-87.37879
"42501","Somerset","KY",37.075624,-84.54437
"42502","Somerset","KY",37.09325,-84.427729
"42503","Somerset","KY",37.112274,-84.588
"42516","Bethelridge","KY",37.191504,-84.79832
"42518","Bronston","KY",36.94593,-84.63278
"42519","Burnside","KY",36.965123,-84.55458
"42528","Dunnville","KY",37.180186,-85.02396
"42533","Ferguson","KY",37.067452,-84.60301
"42539","Liberty","KY",37.305705,-84.94589
"42541","Middleburg","KY",37.3677,-84.80732
"42544","Nancy","KY",37.029286,-84.81365
"42553","Science Hill","KY",37.177577,-84.65481
"42558","Tateville","KY",36.94919,-84.581482
"42564","West Somerset","KY",37.111433,-84.592898
"42565","Windsor","KY",37.144759,-84.89524
"42566","Yosemite","KY",37.303038,-84.77674
"42567","Eubank","KY",37.250746,-84.61781
"42602","Albany","KY",36.72024,-85.13539
"42603","Alpha","KY",36.7703,-85.01043
"42629","Jamestown","KY",36.946642,-85.09981
"42631","Marshes Siding","KY",36.762748,-84.51036
"42632","Mill Springs","KY",36.932769,-84.7757
"42633","Monticello","KY",36.801922,-84.82841
"42634","Parkers Lake","KY",36.881682,-84.42143
"42635","Pine Knot","KY",36.663153,-84.41611
"42637","Monticello","KY",36.843563,-84.841004
"42638","Revelo","KY",36.673236,-84.47095
"42642","Russell Springs","KY",37.05401,-85.06142
"42647","Stearns","KY",36.710692,-84.55416
"42649","Strunk","KY",36.631706,-84.42183
"42653","Whitley City","KY",36.772507,-84.47785
"42701","Elizabethtown","KY",37.704287,-85.86403
"42702","Elizabethtown","KY",37.723474,-85.976854
"42711","Bakerton","KY",36.898169,-85.31056
"42712","Big Clifty","KY",37.581023,-86.15642
"42713","Bonnieville","KY",37.381189,-85.88175
"42715","Breeding","KY",36.954911,-85.39553
"42716","Buffalo","KY",37.47534,-85.60987
"42717","Burkesville","KY",36.765985,-85.39971
"42718","Campbellsville","KY",37.372314,-85.3549
"42719","Campbellsville","KY",37.337936,-85.330374
"42720","Cane Valley","KY",37.121145,-85.370926
"42721","Caneyville","KY",37.413211,-86.49884
"42722","Canmer","KY",37.271372,-85.72639
"42724","Cecilia","KY",37.668721,-86.02527
"42726","Clarkson","KY",37.429456,-86.16448
"42728","Columbia","KY",37.123196,-85.27561
"42729","Cub Run","KY",37.304661,-86.12987
"42731","Dubre","KY",36.8395,-85.55526
"42732","Eastview","KY",37.606543,-86.10413
"42733","Elk Horn","KY",37.353227,-85.1628
"42735","Fairplay","KY",37.045089,-85.29683
"42740","Glendale","KY",37.59641,-85.92294
"42741","Glens Fork","KY",36.98182,-85.22988
"42742","Gradyville","KY",37.098391,-85.50199
"42743","Greensburg","KY",37.234802,-85.51436
"42746","Hardyville","KY",37.199656,-85.73469
"42748","Hodgenville","KY",37.566527,-85.71452
"42749","Horse Cave","KY",37.176738,-85.88288
"42753","Knifley","KY",37.242258,-85.20271
"42754","Leitchfield","KY",37.479797,-86.30731
"42755","Leitchfield","KY",37.471943,-86.343941
"42757","Magnolia","KY",37.415382,-85.71597
"42758","Mannsville","KY",37.360392,-85.198031
"42759","Marrowbone","KY",36.824961,-85.50481
"42761","Milltown","KY",37.113189,-85.44177
"42762","Millwood","KY",37.443289,-86.40531
"42764","Mount Sherman","KY",37.463961,-85.639231
"42765","Munfordville","KY",37.291869,-85.90786
"42776","Sonora","KY",37.52025,-85.8807
"42782","Summersville","KY",37.349798,-85.64536
"42783","Summit","KY",37.567134,-86.085259
"42784","Upton","KY",37.456599,-85.90164
"42786","Waterview","KY",36.819839,-85.462435
"42788","White Mills","KY",37.55125,-86.03115
