"zip","city","state","latitude","longitude"
"48001","Algonac","MI",42.631359,-82.554
"48002","Allenton","MI",42.938385,-82.91582
"48003","Almont","MI",42.931178,-83.04585
"48004","Anchorville","MI",42.824095,-82.66522
"48005","Armada","MI",42.842554,-82.91471
"48006","Avoca","MI",43.062285,-82.69327
"48007","Troy","MI",42.606088,-83.297593
"48009","Birmingham","MI",42.544084,-83.21527
"48012","Birmingham","MI",42.604425,-83.292382
"48014","Capac","MI",43.01185,-82.93255
"48015","Center Line","MI",42.479137,-83.02449
"48017","Clawson","MI",42.535534,-83.15112
"48019","Rose","MI",42.755627,-83.612581
"48021","Eastpointe","MI",42.466086,-82.94641
"48022","Emmett","MI",43.013805,-82.79404
"48023","Fair Haven","MI",42.693915,-82.66859
"48025","Franklin","MI",42.524134,-83.25454
"48026","Fraser","MI",42.536402,-82.95044
"48027","Goodells","MI",42.952553,-82.68571
"48028","Harsens Island","MI",42.563129,-82.62325
"48030","Hazel Park","MI",42.459022,-83.09819
"48032","Jeddo","MI",43.125531,-82.59617
"48033","Southfield","MI",42.46,-83.28
"48034","Southfield","MI",42.474234,-83.29078
"48035","Clinton Township","MI",42.554134,-82.90786
"48036","Clinton Township","MI",42.587117,-82.89837
"48037","Southfield","MI",42.567543,-83.149978
"48038","Clinton Township","MI",42.603172,-82.94459
"48039","Marine City","MI",42.710445,-82.50811
"48040","Marysville","MI",42.910198,-82.47973
"48041","Memphis","MI",42.93281,-82.80345
"48042","Macomb","MI",42.68347,-82.92958
"48043","Mount Clemens","MI",42.596784,-82.88031
"48044","Macomb","MI",42.650265,-82.93416
"48045","Harrison Township","MI",42.582961,-82.83063
"48046","Mount Clemens","MI",42.672322,-82.903065
"48047","New Baltimore","MI",42.670932,-82.77754
"48048","New Haven","MI",42.739751,-82.79758
"48049","North Street","MI",43.03154,-82.59251
"48050","New Haven","MI",42.786198,-82.8092
"48051","New Baltimore","MI",42.682081,-82.83068
"48054","East China","MI",42.769956,-82.52595
"48059","Fort Gratiot","MI",43.088742,-82.48614
"48060","Port Huron","MI",42.978974,-82.44402
"48061","Port Huron","MI",42.824095,-82.66522
"48062","Richmond","MI",42.829226,-82.77538
"48063","Columbus","MI",42.85452,-82.68244
"48064","Casco","MI",42.773535,-82.67684
"48065","Romeo","MI",42.826805,-83.02963
"48066","Roseville","MI",42.503285,-82.93851
"48067","Royal Oak","MI",42.488735,-83.13752
"48068","Royal Oak","MI",42.660091,-83.3863
"48069","Pleasant Ridge","MI",42.472235,-83.14051
"48070","Huntington Woods","MI",42.482585,-83.16812
"48071","Madison Heights","MI",42.501385,-83.10474
"48072","Berkley","MI",42.497035,-83.18532
"48073","Royal Oak","MI",42.518635,-83.16357
"48074","Smiths Creek","MI",42.948521,-82.57049
"48075","Southfield","MI",42.465275,-83.2264
"48076","Southfield","MI",42.499335,-83.22829
"48079","Saint Clair","MI",42.833034,-82.50425
"48080","Saint Clair Shores","MI",42.462036,-82.90232
"48081","Saint Clair Shores","MI",42.497736,-82.89979
"48082","Saint Clair Shores","MI",42.526965,-82.88809
"48083","Troy","MI",42.556943,-83.11506
"48084","Troy","MI",42.563505,-83.18405
"48085","Troy","MI",42.597323,-83.116567
"48086","Southfield","MI",42.660091,-83.3863
"48088","Warren","MI",42.516851,-82.982757
"48089","Warren","MI",42.467086,-82.99866
"48090","Warren","MI",42.672322,-82.903065
"48091","Warren","MI",42.465886,-83.056
"48092","Warren","MI",42.511293,-83.0597
"48093","Warren","MI",42.514885,-82.99768
"48094","Washington","MI",42.727731,-83.03847
"48095","Washington","MI",42.779239,-83.02605
"48096","Ray","MI",42.753378,-82.91658
"48097","Yale","MI",43.131709,-82.81411
"48098","Troy","MI",42.599133,-83.15235
"48099","Troy","MI",42.587643,-83.173666
"48101","Allen Park","MI",42.254788,-83.21027
"48103","Ann Arbor","MI",42.280887,-83.79147
"48104","Ann Arbor","MI",42.266805,-83.72297
"48105","Ann Arbor","MI",42.307288,-83.70443
"48106","Ann Arbor","MI",42.253502,-83.836571
"48107","Ann Arbor","MI",42.253502,-83.836571
"48108","Ann Arbor","MI",42.232807,-83.72671
"48109","Ann Arbor","MI",42.291637,-83.71831
"48110","Azalia","MI",42.008164,-83.664277
"48111","Belleville","MI",42.194865,-83.49083
"48112","Belleville","MI",42.239933,-83.150823
"48113","Ann Arbor","MI",42.253502,-83.836571
"48114","Brighton","MI",42.566097,-83.75725
"48115","Bridgewater","MI",42.160216,-83.911693
"48116","Brighton","MI",42.509476,-83.77718
"48117","Carleton","MI",42.05589,-83.40605
"48118","Chelsea","MI",42.316922,-84.03445
"48120","Dearborn","MI",42.306288,-83.15863
"48121","Dearborn","MI",42.239933,-83.150823
"48122","Melvindale","MI",42.281638,-83.18188
"48123","Dearborn","MI",42.239933,-83.150823
"48124","Dearborn","MI",42.294987,-83.25049
"48125","Dearborn Heights","MI",42.277388,-83.25987
"48126","Dearborn","MI",42.333787,-83.18179
"48127","Dearborn Heights","MI",42.335687,-83.28332
"48128","Dearborn","MI",42.320237,-83.26872
"48130","Dexter","MI",42.344837,-83.89907
"48131","Dundee","MI",41.965806,-83.67133
"48133","Erie","MI",41.777302,-83.49818
"48134","Flat Rock","MI",42.107026,-83.28711
"48135","Garden City","MI",42.324338,-83.3382
"48136","Garden City","MI",42.239933,-83.150823
"48137","Gregory","MI",42.445724,-84.06078
"48138","Grosse Ile","MI",42.130091,-83.16017
"48139","Hamburg","MI",42.449117,-83.80332
"48140","Ida","MI",41.876895,-83.58184
"48141","Inkster","MI",42.292582,-83.31414
"48143","Lakeland","MI",42.454366,-83.83372
"48144","Lambertville","MI",41.754298,-83.63047
"48145","La Salle","MI",41.846349,-83.44652
"48146","Lincoln Park","MI",42.243488,-83.18097
"48150","Livonia","MI",42.365936,-83.36513
"48151","Livonia","MI",42.239933,-83.150823
"48152","Livonia","MI",42.427835,-83.36299
"48153","Livonia","MI",42.239933,-83.150823
"48154","Livonia","MI",42.396194,-83.37161
"48157","Luna Pier","MI",41.811196,-83.44141
"48158","Manchester","MI",42.14784,-84.03123
"48159","Maybee","MI",42.01968,-83.54756
"48160","Milan","MI",42.081363,-83.68414
"48161","Monroe","MI",41.904793,-83.41669
"48162","Monroe","MI",41.940898,-83.38515
"48164","New Boston","MI",42.128069,-83.38785
"48165","New Hudson","MI",42.501401,-83.62916
"48166","Newport","MI",41.988228,-83.29818
"48167","Northville","MI",42.425506,-83.48945
"48168","South Monroe","MI",41.885451,-83.418524
"48169","Pinckney","MI",42.455063,-83.93425
"48170","Plymouth","MI",42.370837,-83.4856
"48173","Rockwood","MI",42.073793,-83.21575
"48174","Romulus","MI",42.212372,-83.37223
"48175","Salem","MI",42.405636,-83.578088
"48176","Saline","MI",42.16489,-83.78387
"48177","Samaria","MI",41.807647,-83.579334
"48178","South Lyon","MI",42.45644,-83.66673
"48179","South Rockwood","MI",42.049534,-83.26128
"48180","Taylor","MI",42.231788,-83.26481
"48182","Temperance","MI",41.773203,-83.57793
"48183","Trenton","MI",42.137071,-83.21446
"48184","Wayne","MI",42.276688,-83.3786
"48185","Westland","MI",42.335937,-83.378
"48186","Westland","MI",42.293787,-83.37464
"48187","Canton","MI",42.33087,-83.47575
"48188","Canton","MI",42.289354,-83.47401
"48189","Whitmore Lake","MI",42.422746,-83.78009
"48190","Whittaker","MI",42.134658,-83.59684
"48191","Willis","MI",42.121345,-83.57071
"48192","Wyandotte","MI",42.199989,-83.17402
"48193","Riverview","MI",42.16,-83.21
"48195","Southgate","MI",42.205289,-83.19812
"48197","Ypsilanti","MI",42.223482,-83.63316
"48198","Ypsilanti","MI",42.247039,-83.58215
"48201","Detroit","MI",42.343787,-83.05879
"48202","Detroit","MI",42.375237,-83.07837
"48203","Highland Park","MI",42.421936,-83.09981
"48204","Detroit","MI",42.365337,-83.14254
"48205","Detroit","MI",42.433703,-82.98068
"48206","Detroit","MI",42.375787,-83.10849
"48207","Detroit","MI",42.352837,-83.02449
"48208","Detroit","MI",42.348937,-83.08994
"48209","Detroit","MI",42.307088,-83.11467
"48210","Detroit","MI",42.338137,-83.12785
"48211","Detroit","MI",42.379019,-83.04483
"48212","Hamtramck","MI",42.410037,-83.05826
"48213","Detroit","MI",42.395904,-82.99632
"48214","Detroit","MI",42.368137,-82.99314
"48215","Detroit","MI",42.378287,-82.95243
"48216","Detroit","MI",42.328338,-83.07805
"48217","Detroit","MI",42.277738,-83.1552
"48218","River Rouge","MI",42.269288,-83.13676
"48219","Detroit","MI",42.425236,-83.24902
"48220","Ferndale","MI",42.460986,-83.13398
"48221","Detroit","MI",42.426786,-83.14969
"48222","Detroit","MI",42.239933,-83.150823
"48223","Detroit","MI",42.394586,-83.24422
"48224","Detroit","MI",42.410487,-82.94348
"48225","Harper Woods","MI",42.438186,-82.9283
"48226","Detroit","MI",42.331821,-83.04888
"48227","Detroit","MI",42.388786,-83.1918
"48228","Detroit","MI",42.355437,-83.21722
"48229","Ecorse","MI",42.250505,-83.14829
"48230","Grosse Pointe","MI",42.386087,-82.92426
"48231","Detroit","MI",42.239933,-83.150823
"48232","Detroit","MI",42.239933,-83.150823
"48233","Detroit","MI",42.239933,-83.150823
"48234","Detroit","MI",42.432686,-83.04422
"48235","Detroit","MI",42.427636,-83.19547
"48236","Grosse Pointe","MI",42.425836,-82.90003
"48237","Oak Park","MI",42.467235,-83.17952
"48238","Detroit","MI",42.396736,-83.14152
"48239","Redford","MI",42.379436,-83.29105
"48240","Redford","MI",42.426285,-83.30197
"48242","Detroit","MI",42.20649,-83.35297
"48243","Detroit","MI",42.239933,-83.150823
"48244","Detroit","MI",42.239933,-83.150823
"48246","Independence","MI",42.712944,-83.348152
"48254","Detroit","MI",42.239933,-83.150823
"48255","Detroit","MI",42.239933,-83.150823
"48258","Detroit","MI",42.239933,-83.150823
"48260","Detroit","MI",42.239933,-83.150823
"48264","Detroit","MI",42.239933,-83.150823
"48265","Detroit","MI",42.239933,-83.150823
"48266","Detroit","MI",42.239933,-83.150823
"48267","Detroit","MI",42.239933,-83.150823
"48268","Detroit","MI",42.239933,-83.150823
"48269","Detroit","MI",42.239933,-83.150823
"48272","Detroit","MI",42.239933,-83.150823
"48274","Detroit","MI",42.239933,-83.150823
"48275","Detroit","MI",42.239933,-83.150823
"48277","Detroit","MI",42.239933,-83.150823
"48278","Detroit","MI",42.239933,-83.150823
"48279","Detroit","MI",42.239933,-83.150823
"48288","Detroit","MI",42.239933,-83.150823
"48295","Detroit","MI",42.239933,-83.150823
"48297","Detroit","MI",42.239933,-83.150823
"48299","Detroit","MI",42.239933,-83.150823
"48301","Bloomfield Hills","MI",42.546445,-83.28083
"48302","Bloomfield Hills","MI",42.5863,-83.29705
"48303","Bloomfield Hills","MI",42.660091,-83.3863
"48304","Bloomfield Hills","MI",42.586677,-83.22956
"48305","Clinton","MI",42.569278,-82.911243
"48306","Rochester","MI",42.708151,-83.16584
"48307","Rochester","MI",42.662293,-83.12781
"48308","Rochester","MI",42.638533,-83.131426
"48309","Rochester","MI",42.662732,-83.18111
"48310","Sterling Heights","MI",42.563644,-83.07158
"48311","Sterling Heights","MI",42.672322,-82.903065
"48312","Sterling Heights","MI",42.558151,-83.00446
"48313","Sterling Heights","MI",42.598734,-82.99938
"48314","Sterling Heights","MI",42.609789,-83.04844
"48315","Utica","MI",42.662902,-82.99392
"48316","Utica","MI",42.689632,-83.06154
"48317","Utica","MI",42.639777,-83.04255
"48318","Utica","MI",42.672322,-82.903065
"48320","Keego Harbor","MI",42.611783,-83.33757
"48321","Auburn Hills","MI",42.660091,-83.3863
"48322","West Bloomfield","MI",42.541268,-83.37551
"48323","West Bloomfield","MI",42.572442,-83.37159
"48324","West Bloomfield","MI",42.595233,-83.39974
"48325","West Bloomfield","MI",42.660091,-83.3863
"48326","Auburn Hills","MI",42.661129,-83.24571
"48327","Waterford","MI",42.642764,-83.40273
"48328","Waterford","MI",42.642302,-83.35133
"48329","Waterford","MI",42.68828,-83.38967
"48330","Drayton Plains","MI",42.675435,-83.363697
"48331","Farmington","MI",42.508809,-83.40875
"48332","Farmington","MI",42.660091,-83.3863
"48333","Farmington","MI",42.660091,-83.3863
"48334","Farmington","MI",42.5065,-83.35363
"48335","Farmington","MI",42.465142,-83.39853
"48336","Farmington","MI",42.458502,-83.3464
"48340","Pontiac","MI",42.668532,-83.29585
"48341","Pontiac","MI",42.626947,-83.30243
"48342","Pontiac","MI",42.644581,-83.28211
"48343","Pontiac","MI",42.660091,-83.3863
"48346","Clarkston","MI",42.720966,-83.4044
"48347","Clarkston","MI",42.660091,-83.3863
"48348","Clarkston","MI",42.768373,-83.37805
"48350","Davisburg","MI",42.747677,-83.52283
"48353","Hartland","MI",42.644709,-83.71792
"48356","Highland","MI",42.66415,-83.58982
"48357","Highland","MI",42.656281,-83.63297
"48359","Lake Orion","MI",42.722932,-83.28537
"48360","Lake Orion","MI",42.74628,-83.2612
"48361","Lake Orion","MI",42.660091,-83.3863
"48362","Lake Orion","MI",42.783379,-83.2471
"48363","Oakland","MI",42.765582,-83.17281
"48366","Lakeville","MI",42.803277,-83.18412
"48367","Leonard","MI",42.838438,-83.14416
"48370","Oxford","MI",42.820082,-83.20932
"48371","Oxford","MI",42.823968,-83.27921
"48374","Novi","MI",42.467945,-83.51766
"48375","Novi","MI",42.462734,-83.45865
"48376","Novi","MI",42.470984,-83.474785
"48377","Novi","MI",42.511766,-83.47314
"48380","Milford","MI",42.586597,-83.66826
"48381","Milford","MI",42.571402,-83.59318
"48382","Commerce Township","MI",42.593035,-83.48997
"48383","White Lake","MI",42.657361,-83.54529
"48386","White Lake","MI",42.642431,-83.47193
"48387","Union Lake","MI",42.7253,-83.311605
"48390","Walled Lake","MI",42.549483,-83.47969
"48391","Walled Lake","MI",42.660091,-83.3863
"48393","Wixom","MI",42.532251,-83.53378
"48396","Wixom","MI",42.523233,-83.537887
"48397","Warren","MI",42.491736,-83.040222
"48398","Clawson","MI",42.660091,-83.3863
"48401","Applegate","MI",43.357999,-82.65433
"48410","Argyle","MI",43.558856,-82.945483
"48411","Atlas","MI",42.940019,-83.536923
"48412","Attica","MI",43.053648,-83.16651
"48413","Bad Axe","MI",43.803691,-83.00181
"48414","Bancroft","MI",42.869478,-84.0761
"48415","Birch Run","MI",43.268788,-83.79486
"48416","Brown City","MI",43.214645,-82.98356
"48417","Burt","MI",43.262162,-83.93995
"48418","Byron","MI",42.816358,-83.95884
"48419","Carsonville","MI",43.420791,-82.6415
"48420","Clio","MI",43.176375,-83.726
"48421","Columbiaville","MI",43.154173,-83.3933
"48422","Croswell","MI",43.263998,-82.64573
"48423","Davison","MI",43.029526,-83.5218
"48426","Decker","MI",43.50461,-83.06289
"48427","Deckerville","MI",43.519997,-82.71234
"48428","Dryden","MI",42.936145,-83.13471
"48429","Durand","MI",42.918766,-83.99148
"48430","Fenton","MI",42.78459,-83.74074
"48432","Filion","MI",43.89867,-83.01232
"48433","Flushing","MI",43.072177,-83.84883
"48434","Forestville","MI",43.66139,-82.60984
"48435","Fostoria","MI",43.239123,-83.36195
"48436","Gaines","MI",42.870299,-83.89144
"48437","Genesee","MI",43.111009,-83.62016
"48438","Goodrich","MI",42.911611,-83.48421
"48439","Grand Blanc","MI",42.925677,-83.63585
"48440","Hadley","MI",42.952899,-83.40536
"48441","Harbor Beach","MI",43.812371,-82.69274
"48442","Holly","MI",42.800191,-83.5968
"48444","Imlay City","MI",43.038967,-83.06067
"48445","Kinde","MI",43.952534,-83.02017
"48446","Lapeer","MI",43.048777,-83.33073
"48448","Sciota","MI",42.955783,-84.300929
"48449","Lennon","MI",42.988946,-83.94468
"48450","Lexington","MI",43.243891,-82.52701
"48451","Linden","MI",42.800911,-83.81366
"48453","Marlette","MI",43.336126,-83.03213
"48454","Melvin","MI",43.198014,-82.82558
"48455","Metamora","MI",42.938891,-83.29409
"48456","Minden City","MI",43.660079,-82.74685
"48457","Montrose","MI",43.182851,-83.89507
"48458","Mount Morris","MI",43.116959,-83.69025
"48460","New Lothrop","MI",43.131102,-83.98443
"48461","North Branch","MI",43.210744,-83.20549
"48462","Ortonville","MI",42.84391,-83.43109
"48463","Otisville","MI",43.167457,-83.52542
"48464","Otter Lake","MI",43.219132,-83.42227
"48465","Palms","MI",43.618879,-82.6874
"48466","Peck","MI",43.264205,-82.81674
"48467","Port Austin","MI",44.023181,-83.00241
"48468","Port Hope","MI",43.938529,-82.77514
"48469","Port Sanilac","MI",43.452038,-82.54948
"48470","Ruth","MI",43.736207,-82.75005
"48471","Sandusky","MI",43.418054,-82.83687
"48472","Snover","MI",43.512287,-82.9635
"48473","Swartz Creek","MI",42.950128,-83.82612
"48475","Ubly","MI",43.673699,-82.9257
"48476","Vernon","MI",42.939379,-84.03166
"48480","Grand Blanc","MI",42.92,-83.63
"48501","Flint","MI",42.965926,-83.780835
"48502","Flint","MI",43.014077,-83.69012
"48503","Flint","MI",43.011227,-83.69291
"48504","Flint","MI",43.043627,-83.73126
"48505","Flint","MI",43.062076,-83.69728
"48506","Flint","MI",43.047826,-83.64688
"48507","Flint","MI",42.973263,-83.70142
"48509","Burton","MI",43.020176,-83.60433
"48519","Burton","MI",42.984777,-83.61155
"48529","Burton","MI",42.972477,-83.67085
"48531","Flint","MI",43.002,-83.692507
"48532","Flint","MI",43.005477,-83.76098
"48550","Flint","MI",43.034927,-83.688706
"48551","Flint","MI",42.978995,-83.713124
"48552","Flint","MI",42.977895,-83.713074
"48553","Flint","MI",42.973627,-83.720306
"48554","Flint","MI",42.972244,-83.79463
"48555","Flint","MI",43.011277,-83.710756
"48556","Flint","MI",43.032677,-83.646255
"48557","Flint","MI",43.080578,-83.783675
"48559","Flint","MI",43.002,-83.692507
"48563","Markey","MI",44.407339,-84.695963
"48567","Flint","MI",42.993102,-83.655654
"48601","Saginaw","MI",43.413975,-83.91427
"48602","Saginaw","MI",43.423925,-83.97142
"48603","Saginaw","MI",43.441975,-84.01177
"48604","Saginaw","MI",43.473075,-83.94479
"48605","Saginaw","MI",43.458776,-84.051827
"48606","Saginaw","MI",43.348535,-84.032612
"48607","Saginaw","MI",43.431375,-83.93267
"48608","Saginaw","MI",43.348535,-84.032612
"48609","Saginaw","MI",43.40153,-84.09438
"48610","Alger","MI",44.142282,-84.14497
"48611","Auburn","MI",43.617796,-84.07918
"48612","Beaverton","MI",43.87787,-84.42078
"48613","Bentley","MI",43.93724,-84.12889
"48614","Brant","MI",43.25118,-84.29816
"48615","Breckenridge","MI",43.422568,-84.47433
"48616","Chesaning","MI",43.190239,-84.11987
"48617","Clare","MI",43.828266,-84.74219
"48618","Coleman","MI",43.747084,-84.55669
"48619","Comins","MI",44.825431,-84.04695
"48620","Edenville","MI",43.807728,-84.37785
"48621","Fairview","MI",44.718279,-83.98795
"48622","Farwell","MI",43.840787,-84.86734
"48623","Freeland","MI",43.518309,-84.1337
"48624","Gladwin","MI",44.041529,-84.46503
"48625","Harrison","MI",44.052759,-84.83959
"48626","Hemlock","MI",43.416335,-84.22384
"48627","Higgins Lake","MI",44.462149,-84.747
"48628","Hope","MI",43.807162,-84.33789
"48629","Houghton Lake","MI",44.305812,-84.75589
"48630","Houghton Lake Heights","MI",44.327064,-84.77405
"48631","Kawkawlin","MI",43.67579,-83.97973
"48632","Lake","MI",43.864435,-85.00864
"48633","Lake George","MI",43.959478,-84.93861
"48634","Linwood","MI",43.748816,-84.01217
"48635","Lupton","MI",44.399711,-83.99444
"48636","Luzerne","MI",44.616344,-84.27784
"48637","Merrill","MI",43.410627,-84.33926
"48638","Saginaw","MI",43.41,-84.02
"48640","Midland","MI",43.605457,-84.27234
"48641","Midland","MI",43.538252,-84.387753
"48642","Midland","MI",43.652404,-84.21671
"48647","Mio","MI",44.654024,-84.10388
"48649","Oakley","MI",43.150386,-84.1976
"48650","Pinconning","MI",43.851276,-83.97901
"48651","Prudenville","MI",44.258616,-84.646
"48652","Rhodes","MI",43.862479,-84.19641
"48653","Roscommon","MI",44.484145,-84.66089
"48654","Rose City","MI",44.468977,-84.19608
"48655","Saint Charles","MI",43.297082,-84.14652
"48656","Saint Helen","MI",44.360384,-84.43815
"48657","Sanford","MI",43.69784,-84.39169
"48658","Standish","MI",43.985129,-83.93628
"48659","Sterling","MI",44.080925,-84.02506
"48661","West Branch","MI",44.288158,-84.21162
"48662","Wheeler","MI",43.400958,-84.41672
"48663","Saginaw","MI",43.467315,-83.975475
"48667","Midland","MI",43.647297,-84.387331
"48670","Midland","MI",43.637471,-84.256758
"48674","Midland","MI",43.612884,-84.197125
"48686","Midland","MI",43.647297,-84.387331
"48701","Akron","MI",43.587817,-83.53468
"48703","Au Gres","MI",44.06434,-83.65821
"48705","Barton City","MI",44.708179,-83.63681
"48706","Bay City","MI",43.607523,-83.9162
"48707","Bay City","MI",43.737798,-83.933337
"48708","Bay City","MI",43.583323,-83.87869
"48710","University Center","MI",43.556574,-83.994328
"48720","Bay Port","MI",43.831509,-83.34887
"48721","Black River","MI",44.79652,-83.32907
"48722","Bridgeport","MI",43.346632,-83.84636
"48723","Caro","MI",43.490117,-83.3881
"48724","Carrollton","MI",43.460075,-83.92772
"48725","Caseville","MI",43.944466,-83.23974
"48726","Cass City","MI",43.604819,-83.17889
"48727","Clifford","MI",43.314176,-83.18115
"48728","Curran","MI",44.746486,-83.83882
"48729","Deford","MI",43.492259,-83.17874
"48730","East Tawas","MI",44.335904,-83.48516
"48731","Elkton","MI",43.83014,-83.16143
"48732","Essexville","MI",43.605861,-83.81298
"48733","Fairgrove","MI",43.542822,-83.61267
"48734","Frankenmuth","MI",43.340413,-83.74123
"48735","Gagetown","MI",43.664593,-83.26005
"48736","Gilford","MI",43.49442,-83.624431
"48737","Glennie","MI",44.54684,-83.70977
"48738","Greenbush","MI",44.563997,-83.32459
"48739","Hale","MI",44.379147,-83.83539
"48740","Harrisville","MI",44.663477,-83.3516
"48741","Kingston","MI",43.410781,-83.17248
"48742","Lincoln","MI",44.725546,-83.43887
"48743","Long Lake","MI",44.442563,-83.87538
"48744","Mayville","MI",43.34896,-83.35883
"48745","Mikado","MI",44.580133,-83.49441
"48746","Millington","MI",43.274498,-83.53822
"48747","Munger","MI",43.519522,-83.76529
"48748","National City","MI",44.328794,-83.66579
"48749","Omer","MI",44.046475,-83.87572
"48750","Oscoda","MI",44.447318,-83.41927
"48754","Owendale","MI",43.736747,-83.24746
"48755","Pigeon","MI",43.85672,-83.28557
"48756","Prescott","MI",44.206123,-83.99306
"48757","Reese","MI",43.462775,-83.68564
"48758","Richville","MI",43.407321,-83.676156
"48759","Sebewaing","MI",43.737971,-83.43007
"48760","Silverwood","MI",43.331961,-83.25403
"48761","South Branch","MI",44.54106,-83.91915
"48762","Spruce","MI",44.821813,-83.50181
"48763","Tawas City","MI",44.250144,-83.55805
"48764","Tawas City","MI",44.266549,-83.519166
"48765","Turner","MI",44.147192,-83.73723
"48766","Twining","MI",44.127342,-83.84369
"48767","Unionville","MI",43.645608,-83.46527
"48768","Vassar","MI",43.370434,-83.57917
"48769","Tuscola","MI",43.327048,-83.657355
"48770","Whittemore","MI",44.246004,-83.81849
"48787","Frankenmuth","MI",43.334958,-83.749418
"48801","Alma","MI",43.377113,-84.66256
"48802","Alma","MI",43.389262,-84.666661
"48803","Troy","MI",42.581148,-83.09901
"48804","Mount Pleasant","MI",43.640574,-84.847417
"48805","Okemos","MI",42.599184,-84.371973
"48806","Ashley","MI",43.179346,-84.50765
"48807","Bannister","MI",43.145475,-84.41579
"48808","Bath","MI",42.821233,-84.46099
"48809","Belding","MI",43.085313,-85.24478
"48811","Carson City","MI",43.184647,-84.84871
"48812","Cedar Lake","MI",43.413761,-84.975271
"48813","Charlotte","MI",42.580076,-84.8228
"48815","Clarksville","MI",42.841491,-85.25046
"48816","Cohoctah","MI",42.757633,-83.938967
"48817","Corunna","MI",43.000193,-84.0634
"48818","Crystal","MI",43.272279,-84.90913
"48819","Dansville","MI",42.552218,-84.27674
"48820","Dewitt","MI",42.842438,-84.58612
"48821","Dimondale","MI",42.645985,-84.64772
"48822","Eagle","MI",42.8288,-84.76379
"48823","East Lansing","MI",42.747922,-84.47143
"48824","East Lansing","MI",42.725884,-84.4792
"48825","East Lansing","MI",42.723784,-84.464775
"48826","East Lansing","MI",42.599184,-84.371973
"48827","Eaton Rapids","MI",42.507093,-84.6579
"48829","Edmore","MI",43.404412,-85.03033
"48830","Elm Hall","MI",43.362879,-84.83662
"48831","Elsie","MI",43.098253,-84.37722
"48832","Elwell","MI",43.411924,-84.77657
"48833","Eureka","MI",42.944209,-84.600723
"48834","Fenwick","MI",43.141649,-85.04948
"48835","Fowler","MI",43.011103,-84.74589
"48836","Fowlerville","MI",42.666646,-84.07542
"48837","Grand Ledge","MI",42.749774,-84.7503
"48838","Greenville","MI",43.1791,-85.26533
"48840","Haslett","MI",42.760217,-84.39027
"48841","Henderson","MI",43.104499,-84.23568
"48842","Holt","MI",42.639235,-84.52702
"48843","Howell","MI",42.612243,-83.91835
"48844","Howell","MI",42.603479,-83.911173
"48845","Hubbardston","MI",43.096466,-84.84627
"48846","Ionia","MI",42.981932,-85.06679
"48847","Ithaca","MI",43.269967,-84.59181
"48848","Laingsburg","MI",42.884921,-84.3569
"48849","Lake Odessa","MI",42.788151,-85.13565
"48850","Lakeview","MI",43.447625,-85.25628
"48851","Lyons","MI",42.962965,-84.94611
"48852","Mcbrides","MI",43.355304,-85.04326
"48853","Maple Rapids","MI",43.102399,-84.69278
"48854","Mason","MI",42.582902,-84.44738
"48855","Howell","MI",42.678059,-83.915592
"48856","Middleton","MI",43.197414,-84.73336
"48857","Morrice","MI",42.845703,-84.16581
"48858","Mount Pleasant","MI",43.60616,-84.78306
"48859","Mount Pleasant","MI",43.564736,-84.847297
"48860","Muir","MI",43.026842,-84.92633
"48861","Mulliken","MI",42.733673,-84.92575
"48862","North Star","MI",43.356518,-84.497138
"48863","Oak Grove","MI",42.603479,-83.911173
"48864","Okemos","MI",42.702128,-84.41946
"48865","Orleans","MI",43.090038,-85.11754
"48866","Ovid","MI",42.997636,-84.37643
"48867","Owosso","MI",42.99605,-84.17896
"48870","Palo","MI",43.113587,-85.007665
"48871","Perrinton","MI",43.160914,-84.68397
"48872","Perry","MI",42.807435,-84.22291
"48873","Pewamo","MI",42.987795,-84.84263
"48874","Pompeii","MI",43.184467,-84.6032
"48875","Portland","MI",42.864338,-84.91289
"48876","Potterville","MI",42.640719,-84.73826
"48877","Riverdale","MI",43.403224,-84.84062
"48878","Rosebush","MI",43.713365,-84.77731
"48879","Saint Johns","MI",42.998998,-84.57704
"48880","Saint Louis","MI",43.422397,-84.60041
"48881","Saranac","MI",42.929829,-85.20938
"48882","Shaftsburg","MI",42.803973,-84.295949
"48883","Shepherd","MI",43.534764,-84.68228
"48884","Sheridan","MI",43.21107,-85.04772
"48885","Sidney","MI",43.247555,-85.16587
"48886","Six Lakes","MI",43.426703,-85.14998
"48887","Smyrna","MI",42.944929,-85.074665
"48888","Stanton","MI",43.297366,-85.10506
"48889","Sumner","MI",43.293977,-84.79415
"48890","Sunfield","MI",42.759217,-84.98054
"48891","Vestaburg","MI",43.402185,-84.92216
"48892","Webberville","MI",42.643684,-84.17011
"48893","Weidman","MI",43.662482,-84.98244
"48894","Westphalia","MI",42.928735,-84.7996
"48895","Williamston","MI",42.68669,-84.27844
"48896","Winn","MI",43.523617,-84.90307
"48897","Woodland","MI",42.705285,-85.12449
"48901","Lansing","MI",42.599184,-84.371973
"48906","Lansing","MI",42.764167,-84.56153
"48907","Lansing","MI",42.596071,-84.838206
"48908","Lansing","MI",42.596071,-84.838206
"48909","Lansing","MI",42.599184,-84.371973
"48910","Lansing","MI",42.704435,-84.54915
"48911","Lansing","MI",42.677335,-84.56913
"48912","Lansing","MI",42.734434,-84.52497
"48913","Lansing","MI",42.599184,-84.371973
"48915","Lansing","MI",42.737701,-84.57106
"48916","Lansing","MI",42.599184,-84.371973
"48917","Lansing","MI",42.735535,-84.62698
"48918","Lansing","MI",42.599184,-84.371973
"48919","Lansing","MI",42.728585,-84.551728
"48921","Lansing","MI",42.723735,-84.555629
"48922","Lansing","MI",42.732535,-84.558679
"48924","Lansing","MI",42.599184,-84.371973
"48929","Lansing","MI",42.732535,-84.558679
"48930","Lansing","MI",42.732535,-84.558679
"48933","Lansing","MI",42.731885,-84.55492
"48937","Lansing","MI",42.748734,-84.559029
"48950","Lansing","MI",42.599184,-84.371973
"48951","Lansing","MI",42.72,-84.56
"48956","Lansing","MI",42.732535,-84.558679
"48980","Lansing","MI",42.599184,-84.371973
"49001","Kalamazoo","MI",42.278891,-85.55107
"49002","Portage","MI",42.210792,-85.55958
"49003","Kalamazoo","MI",42.245412,-85.529858
"49004","Kalamazoo","MI",42.330089,-85.56635
"49005","Kalamazoo","MI",42.323045,-85.493232
"49006","Kalamazoo","MI",42.295005,-85.62247
"49007","Kalamazoo","MI",42.29714,-85.58573
"49008","Kalamazoo","MI",42.26549,-85.61098
"49009","Kalamazoo","MI",42.272538,-85.69255
"49010","Allegan","MI",42.531244,-85.87438
"49011","Athens","MI",42.089314,-85.23333
"49012","Augusta","MI",42.347289,-85.35242
"49013","Bangor","MI",42.308798,-86.12201
"49014","Battle Creek","MI",42.311089,-85.13845
"49015","Battle Creek","MI",42.30244,-85.22294
"49016","Battle Creek","MI",42.34381,-85.29136
"49017","Battle Creek","MI",42.35714,-85.20257
"49018","Battle Creek","MI",42.246402,-85.004511
"49019","Kalamazoo","MI",42.245412,-85.529858
"49020","Bedford","MI",42.246402,-85.004511
"49021","Bellevue","MI",42.447038,-85.04264
"49022","Benton Harbor","MI",42.10809,-86.41801
"49023","Benton Harbor","MI",42.001551,-86.715294
"49024","Portage","MI",42.216541,-85.61773
"49026","Bloomingdale","MI",42.371729,-85.9679
"49027","Breedsville","MI",42.345815,-86.0795
"49028","Bronson","MI",41.850631,-85.18987
"49029","Burlington","MI",42.142445,-85.09728
"49030","Burr Oak","MI",41.854639,-85.32984
"49031","Cassopolis","MI",41.907837,-85.98937
"49032","Centreville","MI",41.924331,-85.51068
"49033","Ceresco","MI",42.239592,-85.09307
"49034","Climax","MI",42.239393,-85.33499
"49035","Cloverdale","MI",42.595121,-85.308555
"49036","Coldwater","MI",41.912776,-85.0142
"49037","Battle Creek","MI",42.32,-85.26
"49038","Coloma","MI",42.209307,-86.3337
"49039","Hagar Shores","MI",42.224757,-86.372276
"49040","Colon","MI",41.960856,-85.33059
"49041","Comstock","MI",42.245412,-85.529858
"49042","Constantine","MI",41.847413,-85.66411
"49043","Covert","MI",42.296105,-86.26647
"49045","Decatur","MI",42.105719,-85.99417
"49046","Delton","MI",42.504149,-85.39257
"49047","Dowagiac","MI",42.004729,-86.1208
"49048","Kalamazoo","MI",42.292335,-85.525359
"49050","Dowling","MI",42.504137,-85.24582
"49051","East Leroy","MI",42.184303,-85.24228
"49052","Fulton","MI",42.111949,-85.31673
"49053","Galesburg","MI",42.289991,-85.41657
"49055","Gobles","MI",42.37346,-85.85725
"49056","Grand Junction","MI",42.395965,-86.0545
"49057","Hartford","MI",42.19923,-86.16943
"49058","Hastings","MI",42.64275,-85.29296
"49060","Hickory Corners","MI",42.424387,-85.4055
"49061","Jones","MI",41.878312,-85.81527
"49062","Kendall","MI",42.36175,-85.814072
"49063","Lacota","MI",42.393586,-86.209904
"49064","Lawrence","MI",42.215357,-86.04822
"49065","Lawton","MI",42.144087,-85.84205
"49066","Leonidas","MI",42.037422,-85.35683
"49067","Marcellus","MI",42.026876,-85.8033
"49068","Marshall","MI",42.277837,-84.94869
"49069","Marshall","MI",42.204494,-84.949919
"49070","Martin","MI",42.540492,-85.63686
"49071","Mattawan","MI",42.234417,-85.7807
"49072","Mendon","MI",42.005815,-85.46428
"49073","Nashville","MI",42.588988,-85.124
"49074","Nazareth","MI",42.245412,-85.529858
"49075","Nottawa","MI",41.916374,-85.45029
"49076","Olivet","MI",42.439324,-84.91041
"49077","Oshtemo","MI",42.245412,-85.529858
"49078","Otsego","MI",42.459989,-85.71069
"49079","Paw Paw","MI",42.22514,-85.90002
"49080","Plainwell","MI",42.462935,-85.61256
"49081","Portage","MI",42.171777,-85.617824
"49082","Quincy","MI",41.943472,-84.87559
"49083","Richland","MI",42.379689,-85.45022
"49084","Riverside","MI",42.178035,-86.38557
"49085","Saint Joseph","MI",42.074435,-86.47935
"49087","Schoolcraft","MI",42.117421,-85.67594
"49088","Scotts","MI",42.187577,-85.42621
"49089","Sherwood","MI",42.010485,-85.23198
"49090","South Haven","MI",42.403593,-86.24912
"49091","Sturgis","MI",41.822244,-85.43234
"49092","Tekonsha","MI",42.09724,-84.97543
"49093","Three Rivers","MI",41.958306,-85.63829
"49094","Union City","MI",42.06137,-85.11971
"49095","Vandalia","MI",41.916613,-85.89022
"49096","Vermontville","MI",42.63222,-85.01188
"49097","Vicksburg","MI",42.117028,-85.5073
"49098","Watervliet","MI",42.186679,-86.25718
"49099","White Pigeon","MI",41.792628,-85.67233
"49101","Baroda","MI",41.944869,-86.48827
"49102","Berrien Center","MI",41.949244,-86.26909
"49103","Berrien Springs","MI",41.944691,-86.34979
"49104","Berrien Springs","MI",42.001551,-86.715294
"49106","Bridgman","MI",41.94263,-86.55586
"49107","Buchanan","MI",41.830012,-86.38349
"49111","Eau Claire","MI",42.022092,-86.29071
"49112","Edwardsburg","MI",41.797792,-86.02616
"49113","Galien","MI",41.801264,-86.50367
"49115","Harbert","MI",41.876483,-86.63715
"49116","Lakeside","MI",41.848782,-86.67044
"49117","New Buffalo","MI",41.784691,-86.75519
"49119","New Troy","MI",41.875968,-86.54919
"49120","Niles","MI",41.828055,-86.23981
"49121","Niles","MI",42.001551,-86.715294
"49125","Sawyer","MI",41.890521,-86.59362
"49126","Sodus","MI",42.036334,-86.37416
"49127","Stevensville","MI",42.015092,-86.51351
"49128","Three Oaks","MI",41.820452,-86.61984
"49129","Union Pier","MI",41.827718,-86.69237
"49130","Union","MI",41.787096,-85.83605
"49137","Lyndon","MI",42.424092,-84.102395
"49157","Richland","MI",44.21551,-85.298079
"49169","Dickson","MI",44.30476,-86.015026
"49201","Jackson","MI",42.252268,-84.38842
"49202","Jackson","MI",42.262135,-84.41052
"49203","Jackson","MI",42.227536,-84.40913
"49204","Jackson","MI",42.252847,-84.213755
"49220","Addison","MI",41.992765,-84.3329
"49221","Adrian","MI",41.900927,-84.04585
"49224","Albion","MI",42.261257,-84.75151
"49226","Bloomingdale","MI",42.379469,-85.976841
"49227","Allen","MI",41.956743,-84.76598
"49228","Blissfield","MI",41.821595,-83.87435
"49229","Britton","MI",41.991654,-83.82631
"49230","Brooklyn","MI",42.089891,-84.22768
"49232","Camden","MI",41.731009,-84.65993
"49233","Cement City","MI",42.071196,-84.3494
"49234","Clarklake","MI",42.121774,-84.36382
"49235","Clayton","MI",41.853441,-84.20769
"49236","Clinton","MI",42.067837,-83.95779
"49237","Concord","MI",42.177223,-84.651
"49238","Deerfield","MI",41.910884,-83.78699
"49239","Frontier","MI",41.782499,-84.604662
"49240","Grass Lake","MI",42.284771,-84.18971
"49241","Hanover","MI",42.107907,-84.60334
"49242","Hillsdale","MI",41.89958,-84.62624
"49245","Homer","MI",42.147222,-84.80789
"49246","Horton","MI",42.118019,-84.49338
"49247","Hudson","MI",41.857385,-84.34907
"49248","Jasper","MI",41.766891,-84.01395
"49249","Jerome","MI",42.048979,-84.4396
"49250","Jonesville","MI",42.018585,-84.64548
"49251","Leslie","MI",42.464769,-84.41116
"49252","Litchfield","MI",42.034427,-84.77046
"49253","Manitou Beach","MI",41.974999,-84.27972
"49254","Michigan Center","MI",42.230336,-84.32597
"49255","Montgomery","MI",41.776287,-84.8376
"49256","Morenci","MI",41.746349,-84.21557
"49257","Moscow","MI",42.054795,-84.503905
"49258","Mosherville","MI",41.884795,-84.593491
"49259","Munith","MI",42.371819,-84.25886
"49261","Napoleon","MI",42.164338,-84.24575
"49262","North Adams","MI",41.963683,-84.46824
"49263","Norvell","MI",42.158739,-84.18274
"49264","Onondaga","MI",42.443387,-84.56022
"49265","Onsted","MI",42.020199,-84.16796
"49266","Osseo","MI",41.844894,-84.55244
"49267","Ottawa Lake","MI",41.757599,-83.70951
"49268","Palmyra","MI",41.869086,-83.93858
"49269","Parma","MI",42.285987,-84.59305
"49270","Petersburg","MI",41.886364,-83.69556
"49271","Pittsford","MI",41.832213,-84.45404
"49272","Pleasant Lake","MI",42.398355,-84.34471
"49274","Reading","MI",41.843254,-84.75263
"49275","Ridgeway","MI",41.988026,-83.865674
"49276","Riga","MI",41.798043,-83.79433
"49277","Rives Junction","MI",42.395023,-84.46144
"49278","Rollin","MI",41.912292,-84.32652
"49279","Sand Creek","MI",41.791959,-84.10866
"49280","Seneca","MI",41.79583,-84.186608
"49281","Somerset","MI",42.050744,-84.37762
"49282","Somerset Center","MI",42.050628,-84.39902
"49283","Spring Arbor","MI",42.203838,-84.55243
"49284","Springport","MI",42.38806,-84.70868
"49285","Stockbridge","MI",42.458785,-84.19374
"49286","Tecumseh","MI",42.012268,-83.93878
"49287","Tipton","MI",42.035005,-84.09154
"49288","Waldron","MI",41.733173,-84.44772
"49289","Weston","MI",41.770793,-84.09996
"49301","Ada","MI",42.97252,-85.47798
"49302","Alto","MI",42.834137,-85.41889
"49303","Bailey","MI",43.271422,-85.84023
"49304","Baldwin","MI",43.895264,-85.88157
"49305","Barryton","MI",43.747406,-85.16304
"49306","Belmont","MI",43.078615,-85.59318
"49307","Big Rapids","MI",43.697651,-85.47815
"49309","Bitely","MI",43.747881,-85.86094
"49310","Blanchard","MI",43.523037,-85.04876
"49311","Bradley","MI",42.633006,-85.643043
"49312","Brohman","MI",43.693086,-85.81962
"49314","Burnips","MI",42.731193,-85.840372
"49315","Byron Center","MI",42.802932,-85.72542
"49316","Caledonia","MI",42.794914,-85.55091
"49317","Cannonsburg","MI",43.071201,-85.480856
"49318","Casnovia","MI",43.22724,-85.82054
"49319","Cedar Springs","MI",43.224155,-85.54811
"49320","Chippewa Lake","MI",43.755335,-85.278303
"49321","Comstock Park","MI",43.059661,-85.67384
"49322","Coral","MI",43.368957,-85.37282
"49323","Dorr","MI",42.721597,-85.77879
"49325","Freeport","MI",42.763599,-85.31026
"49326","Gowen","MI",43.244538,-85.34217
"49327","Grant","MI",43.34022,-85.82566
"49328","Hopkins","MI",42.634199,-85.75809
"49329","Howard City","MI",43.405689,-85.47744
"49330","Kent City","MI",43.231933,-85.73768
"49331","Lowell","MI",42.944838,-85.34928
"49332","Mecosta","MI",43.623053,-85.25883
"49333","Middleville","MI",42.689437,-85.46466
"49335","Moline","MI",42.739942,-85.66543
"49336","Morley","MI",43.494361,-85.43184
"49337","Newaygo","MI",43.430588,-85.73515
"49338","Paris","MI",43.764906,-85.57223
"49339","Pierson","MI",43.335474,-85.49536
"49340","Remus","MI",43.617313,-85.09604
"49341","Rockford","MI",43.117214,-85.5189
"49342","Rodney","MI",43.696188,-85.30996
"49343","Sand Lake","MI",43.291089,-85.50812
"49344","Shelbyville","MI",42.588087,-85.5824
"49345","Sparta","MI",43.161106,-85.69952
"49346","Stanwood","MI",43.587286,-85.37833
"49347","Trufant","MI",43.3157,-85.35285
"49348","Wayland","MI",42.681969,-85.62761
"49349","White Cloud","MI",43.57219,-85.76662
"49351","Rockford","MI",43.031413,-85.550267
"49355","Ada","MI",43.031413,-85.550267
"49356","Ada","MI",43.031413,-85.550267
"49357","Ada","MI",43.031413,-85.550267
"49368","Slagle","MI",44.321979,-85.713857
"49394","Lincoln","MI",43.60034,-85.82081
"49401","Allendale","MI",42.973667,-85.9318
"49402","Branch","MI",43.930995,-86.05421
"49403","Conklin","MI",43.125652,-85.84983
"49404","Coopersville","MI",43.06507,-85.94516
"49405","Custer","MI",43.907681,-86.19014
"49406","Douglas","MI",42.643315,-86.20404
"49408","Fennville","MI",42.575519,-86.12461
"49409","Ferrysburg","MI",43.080865,-86.215413
"49410","Fountain","MI",44.016249,-86.14028
"49411","Free Soil","MI",44.100701,-86.2662
"49412","Fremont","MI",43.464943,-85.95005
"49413","Fremont","MI",43.554311,-85.800884
"49415","Fruitport","MI",43.135994,-86.13348
"49416","Glenn","MI",42.630533,-86.072032
"49417","Grand Haven","MI",43.04117,-86.19013
"49418","Grandville","MI",42.891709,-85.76466
"49419","Hamilton","MI",42.679762,-85.98996
"49420","Hart","MI",43.708002,-86.30604
"49421","Hesperia","MI",43.595939,-86.0865
"49422","Holland","MI",42.985596,-86.444751
"49423","Holland","MI",42.765918,-86.10544
"49424","Holland","MI",42.823232,-86.12726
"49425","Holton","MI",43.443787,-86.10895
"49426","Hudsonville","MI",42.873302,-85.87861
"49427","Jamestown","MI",42.826676,-85.844378
"49428","Jenison","MI",42.904275,-85.82314
"49429","Jenison","MI",42.985596,-86.444751
"49430","Lamont","MI",43.010337,-85.89754
"49431","Ludington","MI",43.967306,-86.43044
"49434","Macatawa","MI",42.768619,-86.20597
"49435","Marne","MI",43.032323,-85.83015
"49436","Mears","MI",43.678258,-86.46576
"49437","Montague","MI",43.436692,-86.37093
"49440","Muskegon","MI",43.234014,-86.25131
"49441","Muskegon","MI",43.199364,-86.2668
"49442","Muskegon","MI",43.232615,-86.1955
"49443","Muskegon","MI",43.295493,-86.468853
"49444","Muskegon","MI",43.198048,-86.22774
"49445","Muskegon","MI",43.278021,-86.2682
"49446","New Era","MI",43.551783,-86.40265
"49448","Nunica","MI",43.091183,-86.07346
"49449","Pentwater","MI",43.791699,-86.40276
"49450","Pullman","MI",42.484769,-86.07944
"49451","Ravenna","MI",43.200998,-85.96376
"49452","Rothbury","MI",43.520576,-86.27335
"49453","Saugatuck","MI",42.668174,-86.18724
"49454","Scottville","MI",43.946244,-86.28427
"49455","Shelby","MI",43.607628,-86.37004
"49456","Spring Lake","MI",43.08767,-86.19345
"49457","Twin Lake","MI",43.360182,-86.18835
"49458","Walhalla","MI",43.945299,-86.11684
"49459","Walkerville","MI",43.733491,-86.11462
"49460","West Olive","MI",42.935483,-86.14141
"49461","Whitehall","MI",43.389775,-86.34028
"49463","Wabaningo","MI",43.295493,-86.468853
"49464","Zeeland","MI",42.829252,-85.99621
"49468","Grandville","MI",43.031413,-85.550267
"49501","Grand Rapids","MI",42.984226,-85.629101
"49502","Grand Rapids","MI",43.031413,-85.550267
"49503","Grand Rapids","MI",42.964176,-85.65885
"49504","Grand Rapids","MI",42.977925,-85.69733
"49505","Grand Rapids","MI",43.000076,-85.64785
"49506","Grand Rapids","MI",42.945727,-85.61899
"49507","Grand Rapids","MI",42.933077,-85.65435
"49508","Grand Rapids","MI",42.876661,-85.62856
"49509","Grand Rapids","MI",42.905877,-85.70392
"49510","Grand Rapids","MI",43.031413,-85.550267
"49512","Grand Rapids","MI",42.888821,-85.5616
"49514","Grand Rapids","MI",43.031413,-85.550267
"49515","Grand Rapids","MI",43.031413,-85.550267
"49516","Grand Rapids","MI",43.031413,-85.550267
"49518","Grand Rapids","MI",43.031413,-85.550267
"49519","Wyoming","MI",42.89,-85.72
"49523","Grand Rapids","MI",43.031413,-85.550267
"49525","Grand Rapids","MI",43.022199,-85.61168
"49528","Grand Rapids","MI",42.9,-85.67
"49530","Grand Rapids","MI",43.031413,-85.550267
"49534","Grand Rapids","MI",42.97,-85.77
"49544","Grand Rapids","MI",42.999561,-85.75371
"49546","Grand Rapids","MI",42.927801,-85.54582
"49548","Grand Rapids","MI",42.868228,-85.66391
"49550","Grand Rapids","MI",43.031413,-85.550267
"49555","Grand Rapids","MI",43.031413,-85.550267
"49560","Grand Rapids","MI",43.031413,-85.550267
"49564","Glen Arbor","MI",44.933988,-85.950661
"49565","Newkirk","MI",44.115429,-85.78338
"49582","Colfax","MI",44.544624,-85.832785
"49588","Grand Rapids","MI",43.031413,-85.550267
"49590","Whitewater","MI",44.851771,-85.394202
"49599","Grand Rapids","MI",43.031413,-85.550267
"49601","Cadillac","MI",44.243788,-85.46006
"49610","Acme","MI",44.789382,-85.488449
"49611","Alba","MI",44.976915,-84.97282
"49612","Alden","MI",44.877741,-85.24163
"49613","Arcadia","MI",44.494139,-86.21509
"49614","Bear Lake","MI",44.433903,-86.12625
"49615","Bellaire","MI",44.970267,-85.21448
"49616","Benzonia","MI",44.592766,-86.08323
"49617","Beulah","MI",44.643593,-86.04382
"49618","Boon","MI",44.306885,-85.60119
"49619","Brethren","MI",44.306548,-86.00977
"49620","Buckley","MI",44.516368,-85.68623
"49621","Cedar","MI",44.872464,-85.78716
"49622","Central Lake","MI",45.074263,-85.26929
"49623","Chase","MI",43.889404,-85.67131
"49625","Copemish","MI",44.44905,-85.88908
"49626","Eastlake","MI",44.245509,-86.29477
"49627","Eastport","MI",45.107683,-85.36212
"49628","Elberta","MI",44.617592,-86.22663
"49629","Elk Rapids","MI",44.900873,-85.40671
"49630","Empire","MI",44.845213,-86.02479
"49631","Evart","MI",43.893894,-85.26394
"49632","Falmouth","MI",44.233529,-84.97463
"49633","Fife Lake","MI",44.555245,-85.22931
"49634","Filer City","MI",44.215959,-86.29048
"49635","Frankfort","MI",44.631,-86.21484
"49636","Glen Arbor","MI",44.884904,-85.98588
"49637","Grawn","MI",44.647716,-85.70649
"49638","Harrietta","MI",44.30192,-85.75597
"49639","Hersey","MI",43.84716,-85.40908
"49640","Honor","MI",44.701761,-86.05033
"49642","Idlewild","MI",43.880898,-85.78999
"49643","Interlochen","MI",44.634131,-85.8079
"49644","Irons","MI",44.105814,-85.92846
"49645","Kaleva","MI",44.371587,-86.0122
"49646","Kalkaska","MI",44.743834,-85.08986
"49647","Paradise","MI",44.515487,-85.527652
"49648","Kewadin","MI",45.000254,-85.3651
"49649","Kingsley","MI",44.561602,-85.52611
"49650","Lake Ann","MI",44.725887,-85.85676
"49651","Lake City","MI",44.382889,-85.14305
"49652","Yates","MI",43.867421,-85.772312
"49653","Lake Leelanau","MI",44.975051,-85.72325
"49654","Leland","MI",45.023384,-85.75697
"49655","Leroy","MI",44.023714,-85.44877
"49656","Luther","MI",44.05505,-85.69759
"49657","McBain","MI",44.204505,-85.1771
"49659","Mancelona","MI",44.905437,-85.03401
"49660","Manistee","MI",44.234322,-86.27234
"49663","Manton","MI",44.426913,-85.37836
"49664","Maple City","MI",44.888566,-85.89914
"49665","Marion","MI",44.095357,-85.11843
"49666","Mayfield","MI",44.635328,-85.5614
"49667","Merritt","MI",44.335387,-84.91649
"49668","Mesick","MI",44.405334,-85.71981
"49670","Northport","MI",45.107479,-85.62347
"49673","Old Mission","MI",44.955872,-85.490005
"49674","Omena","MI",45.066568,-85.597374
"49675","Onekama","MI",44.365757,-86.21149
"49676","Rapid City","MI",44.829056,-85.27959
"49677","Reed City","MI",43.906666,-85.5155
"49679","Sears","MI",43.878924,-85.15802
"49680","South Boardman","MI",44.654872,-85.26096
"49682","Suttons Bay","MI",44.993085,-85.63635
"49683","Thompsonville","MI",44.531456,-85.9334
"49684","Traverse City","MI",44.74136,-85.67316
"49685","Traverse City","MI",44.816178,-85.575147
"49686","Traverse City","MI",44.735559,-85.54511
"49688","Tustin","MI",44.117243,-85.43612
"49689","Wellston","MI",44.209541,-85.9109
"49690","Williamsburg","MI",44.774285,-85.41696
"49695","Custer","MI",44.918887,-85.131606
"49696","Traverse City","MI",44.816178,-85.575147
"49701","Mackinaw City","MI",45.773926,-84.72714
"49705","Afton","MI",45.355074,-84.47898
"49706","Alanson","MI",45.431122,-84.77654
"49707","Alpena","MI",45.08583,-83.46411
"49709","Atlanta","MI",45.016358,-84.14518
"49710","Barbeau","MI",46.274091,-84.17164
"49711","Bay Shore","MI",45.523425,-85.332038
"49712","Boyne City","MI",45.215511,-85.00995
"49713","Boyne Falls","MI",45.206973,-84.86185
"49715","Brimley","MI",46.411782,-84.66502
"49716","Brutus","MI",45.515594,-84.72353
"49717","Burt Lake","MI",45.430705,-84.691207
"49718","Carp Lake","MI",45.714093,-84.79969
"49719","Cedarville","MI",45.998074,-84.32615
"49720","Charlevoix","MI",45.294169,-85.24516
"49721","Cheboygan","MI",45.589694,-84.4625
"49722","Conway","MI",45.416693,-84.86646
"49723","Cross Village","MI",45.625353,-85.041872
"49724","Dafter","MI",46.33614,-84.43525
"49725","De Tour Village","MI",45.992931,-83.98087
"49726","Drummond Island","MI",45.994672,-83.75198
"49727","East Jordan","MI",45.1379,-85.12252
"49728","Eckerman","MI",46.355548,-84.99249
"49729","Ellsworth","MI",45.160264,-85.26699
"49730","Elmira","MI",45.039542,-84.86774
"49732","Forest","MI",45.354266,-84.301497
"49733","Frederic","MI",44.809476,-84.71727
"49734","Gaylord","MI",45.028411,-84.612207
"49735","Gaylord","MI",44.989608,-84.67492
"49736","Goetzville","MI",46.064734,-84.15477
"49737","Good Hart","MI",45.580183,-85.113678
"49738","Grayling","MI",44.683274,-84.6253
"49739","Grayling","MI",44.682996,-84.610441
"49740","Harbor Springs","MI",45.502308,-84.99025
"49743","Hawks","MI",45.282088,-83.93526
"49744","Herron","MI",44.993111,-83.65723
"49745","Hessel","MI",46.01207,-84.45048
"49746","Hillman","MI",45.068394,-83.96071
"49747","Hubbard Lake","MI",44.827421,-83.61368
"49748","Hulbert","MI",46.340461,-85.16591
"49749","Indian River","MI",45.418813,-84.59578
"49750","Lewiston","MI",44.884763,-84.35977
"49751","Johannesburg","MI",44.963659,-84.43175
"49752","Kinross","MI",46.250359,-84.48228
"49753","Lachine","MI",44.99718,-83.7918
"49755","Levering","MI",45.631602,-84.79103
"49756","Lewiston","MI",44.839929,-84.30787
"49757","Mackinac Island","MI",45.856777,-84.62643
"49758","Greenwood","MI",44.682965,-84.287698
"49759","Millersburg","MI",45.433394,-84.09811
"49760","Moran","MI",46.048831,-84.94734
"49761","Mullett Lake","MI",45.563799,-84.52405
"49762","Naubinway","MI",46.142357,-85.29284
"49764","Oden","MI",45.423768,-84.82611
"49765","Onaway","MI",45.354463,-84.23956
"49766","Ossineke","MI",44.920907,-83.45125
"49768","Paradise","MI",46.659548,-85.09913
"49769","Pellston","MI",45.567787,-84.81464
"49770","Petoskey","MI",45.360111,-84.93774
"49774","Pickford","MI",46.165132,-84.33219
"49775","Pointe Aux Pins","MI",45.758378,-84.46507
"49776","Posen","MI",45.248956,-83.69012
"49777","Presque Isle","MI",45.311011,-83.49878
"49778","Brimley","MI",46.410777,-84.336519
"49779","Rogers City","MI",45.413252,-83.83626
"49780","Rudyard","MI",46.204512,-84.73671
"49781","Saint Ignace","MI",45.923952,-84.7255
"49782","Beaver Island","MI",45.739114,-85.55339
"49783","Sault Sainte Marie","MI",46.460895,-84.32485
"49784","Kincheloe","MI",46.410777,-84.336519
"49785","Kincheloe","MI",46.181451,-84.405367
"49786","Kincheloe","MI",46.410777,-84.336519
"49788","Kincheloe","MI",46.267303,-84.45633
"49790","Strongs","MI",46.387377,-84.966792
"49791","Topinabee","MI",45.48586,-84.59227
"49792","Tower","MI",45.354677,-84.30074
"49793","Trout Lake","MI",46.199197,-85.05287
"49795","Vanderbilt","MI",45.169729,-84.60248
"49796","Walloon Lake","MI",45.269001,-84.9475
"49797","Waters","MI",44.870234,-84.659847
"49799","Wolverine","MI",45.268255,-84.60141
"49801","Iron Mountain","MI",45.87178,-87.99717
"49802","Kingsford","MI",45.800687,-88.08323
"49805","Allouez","MI",47.322703,-88.40806
"49806","Au Train","MI",46.436663,-86.88541
"49807","Bark River","MI",45.770006,-87.34617
"49808","Big Bay","MI",46.650313,-87.86241
"49812","Carney","MI",45.59232,-87.50316
"49813","Cedar River","MI",45.435313,-87.37679
"49814","Champion","MI",46.501074,-87.92354
"49815","Channing","MI",46.186913,-88.04546
"49816","Chatham","MI",46.323845,-86.90766
"49817","Cooks","MI",45.921508,-86.45869
"49818","Cornell","MI",45.936883,-87.26197
"49819","Arnold","MI",46.604141,-87.614805
"49820","Curtis","MI",46.191702,-85.72148
"49821","Daggett","MI",45.521574,-87.61977
"49822","Deerton","MI",46.470986,-87.06843
"49825","Eben Junction","MI",46.364487,-86.98096
"49826","Rumely","MI",46.364395,-86.99621
"49827","Engadine","MI",46.156073,-85.57069
"49829","Escanaba","MI",45.751671,-87.08951
"49831","Felch","MI",45.994849,-87.81615
"49833","Little Lake","MI",46.291233,-87.33355
"49834","Foster City","MI",45.947706,-87.77089
"49835","Garden","MI",45.769159,-86.55894
"49836","Germfask","MI",46.180416,-85.90176
"49837","Gladstone","MI",45.847136,-87.04529
"49838","Gould City","MI",46.095949,-85.71737
"49839","Grand Marais","MI",46.655567,-85.95837
"49840","Gulliver","MI",46.000666,-85.9963
"49841","Gwinn","MI",46.299186,-87.43312
"49845","Harris","MI",45.692178,-87.351342
"49847","Hermansville","MI",45.709804,-87.61054
"49848","Ingalls","MI",45.376503,-87.63243
"49849","Ishpeming","MI",46.458207,-87.72709
"49852","Loretto","MI",45.781167,-87.81759
"49853","McMillan","MI",46.301265,-85.72321
"49854","Manistique","MI",46.042121,-86.33946
"49855","Marquette","MI",46.554402,-87.42223
"49858","Menominee","MI",45.1431,-87.60897
"49861","Michigamme","MI",46.54081,-88.14742
"49862","Munising","MI",46.37503,-86.70615
"49863","Nadeau","MI",45.610678,-87.55411
"49864","Nahma","MI",45.840744,-86.66216
"49865","National Mine","MI",46.604141,-87.614805
"49866","Negaunee","MI",46.517192,-87.58245
"49868","Newberry","MI",46.434201,-85.54758
"49869","Wells","MI",46.07199,-87.533429
"49870","Norway","MI",45.792399,-87.90824
"49871","Palmer","MI",46.440274,-87.58988
"49872","Perkins","MI",45.987113,-87.0742
"49873","Perronville","MI",45.889823,-87.50716
"49874","Powers","MI",45.693128,-87.50966
"49876","Quinnesec","MI",45.80007,-87.99141
"49877","Ralph","MI",46.108829,-87.78294
"49878","Rapid River","MI",45.926298,-86.90898
"49879","Republic","MI",46.345957,-88.01972
"49880","Rock","MI",46.086125,-87.20146
"49881","Sagola","MI",46.085875,-87.99607
"49883","Seney","MI",46.460628,-85.98878
"49884","Shingleton","MI",46.399545,-86.43315
"49885","Skandia","MI",46.356104,-87.25211
"49886","Spalding","MI",45.695551,-87.50457
"49887","Stephenson","MI",45.417184,-87.6281
"49891","Trenary","MI",46.229173,-87.01715
"49892","Vulcan","MI",45.755894,-87.78838
"49893","Wallace","MI",45.314014,-87.63114
"49894","Wells","MI",45.778066,-87.07647
"49895","Wetmore","MI",46.191294,-86.64901
"49896","Wilson","MI",45.685664,-87.37748
"49901","Ahmeek","MI",47.297841,-88.39491
"49902","Alpha","MI",46.045407,-88.37681
"49903","Amasa","MI",46.234686,-88.45043
"49905","Atlantic Mine","MI",47.101109,-88.71833
"49908","Baraga","MI",46.795417,-88.52645
"49910","Bergland","MI",46.576653,-89.57618
"49911","Bessemer","MI",46.480948,-90.05138
"49912","Bruce Crossing","MI",46.46077,-89.15645
"49913","Calumet","MI",47.239083,-88.46121
"49915","Caspian","MI",46.063428,-88.62738
"49916","Chassell","MI",47.010896,-88.54077
"49917","Copper City","MI",47.283086,-88.38434
"49918","Copper Harbor","MI",47.467597,-87.88212
"49919","Covington","MI",46.559834,-88.52201
"49920","Crystal Falls","MI",46.12624,-88.35677
"49921","Dodgeville","MI",47.093922,-88.57894
"49922","Dollar Bay","MI",47.122751,-88.4818
"49924","Houghton","MI",47.414054,-88.297959
"49925","Ewen","MI",46.555946,-89.34434
"49927","Gaastra","MI",46.056611,-88.59396
"49929","Greenland","MI",46.780926,-89.09762
"49930","Hancock","MI",47.145007,-88.57829
"49931","Houghton","MI",47.11929,-88.57259
"49934","Hubbell","MI",47.170691,-88.43396
"49935","Iron River","MI",46.108022,-88.70073
"49938","Ironwood","MI",46.47351,-90.15732
"49942","Kearsarge","MI",47.269659,-88.41589
"49943","Iron River","MI",46.421861,-88.879139
"49945","Lake Linden","MI",47.17583,-88.32904
"49946","Lanse","MI",46.766303,-88.37867
"49947","Marenisco","MI",46.420235,-89.66518
"49948","Mass City","MI",46.730077,-89.02038
"49950","Mohawk","MI",47.400603,-88.14768
"49952","Nisula","MI",46.7596,-88.84928
"49953","Ontonagon","MI",46.846455,-89.35119
"49955","Painesdale","MI",47.034828,-88.6719
"49958","Pelkie","MI",46.830728,-88.65751
"49959","Ramsay","MI",46.470746,-89.99603
"49960","Rockland","MI",46.739853,-89.18126
"49961","Sidnaw","MI",46.469552,-88.73659
"49962","Skanee","MI",46.877,-88.17166
"49963","South Range","MI",47.069257,-88.63936
"49964","Stambaugh","MI",46.081472,-88.62806
"49965","Toivola","MI",47.001469,-88.88179
"49967","Trout Creek","MI",46.459705,-89.0028
"49968","Wakefield","MI",46.466645,-89.91876
"49969","Watersmeet","MI",46.258959,-89.26594
"49970","Watton","MI",46.53227,-88.60459
"49971","White Pine","MI",46.754237,-89.57925
"49974","Pickford","MI",46.158139,-84.361116
"49990","Alpha","MI",46.045288,-88.375199
