"zip","city","state","latitude","longitude"
"63001","Allenton","MO",38.638318,-90.427118
"63005","Chesterfield","MO",38.646981,-90.63155
"63006","Chesterfield","MO",38.638318,-90.427118
"63010","Arnold","MO",38.42727,-90.38515
"63011","Ballwin","MO",38.601403,-90.55209
"63012","Barnhart","MO",38.337458,-90.42316
"63013","Beaufort","MO",38.415995,-91.1603
"63014","Berger","MO",38.654011,-91.33928
"63015","Catawissa","MO",38.401406,-90.74276
"63016","Cedar Hill","MO",38.352825,-90.63595
"63017","Chesterfield","MO",38.647023,-90.53918
"63019","Crystal City","MO",38.226997,-90.38215
"63020","De Soto","MO",38.120303,-90.55426
"63021","Ballwin","MO",38.576253,-90.53117
"63022","Ballwin","MO",38.638318,-90.427118
"63023","Dittmer","MO",38.280328,-90.70519
"63024","Ballwin","MO",38.638318,-90.427118
"63025","Eureka","MO",38.494203,-90.61304
"63026","Fenton","MO",38.502854,-90.46088
"63028","Festus","MO",38.187767,-90.4077
"63030","Fletcher","MO",38.129238,-90.74342
"63031","Florissant","MO",38.8016,-90.33662
"63032","Florissant","MO",38.638318,-90.427118
"63033","Florissant","MO",38.79505,-90.28578
"63034","Florissant","MO",38.832863,-90.29051
"63036","French Village","MO",37.97861,-90.34637
"63037","Gerald","MO",38.412764,-91.3246
"63038","Glencoe","MO",38.578703,-90.66508
"63039","Gray Summit","MO",38.499489,-90.83398
"63040","Grover","MO",38.575835,-90.61878
"63041","Grubville","MO",38.262811,-90.77513
"63042","Hazelwood","MO",38.7785,-90.37005
"63043","Maryland Heights","MO",38.725331,-90.44451
"63044","Bridgeton","MO",38.757318,-90.42335
"63045","Earth City","MO",38.638318,-90.427118
"63047","Hematite","MO",38.194104,-90.472495
"63048","Herculaneum","MO",38.261863,-90.3902
"63049","High Ridge","MO",38.473921,-90.52696
"63050","Hillsboro","MO",38.259946,-90.5666
"63051","House Springs","MO",38.405287,-90.57059
"63052","Imperial","MO",38.385265,-90.40339
"63053","Kimmswick","MO",38.252726,-90.514875
"63055","Labadie","MO",38.535934,-90.84698
"63056","Leslie","MO",38.404826,-91.22652
"63057","Liguori","MO",38.341918,-90.408223
"63060","Lonedell","MO",38.247062,-90.85642
"63061","Luebbering","MO",38.257711,-90.80694
"63065","Mapaville","MO",38.252726,-90.514875
"63066","Morse Mill","MO",38.280943,-90.652057
"63068","New Haven","MO",38.558836,-91.24469
"63069","Pacific","MO",38.482353,-90.73892
"63070","Pevely","MO",38.279016,-90.40862
"63071","Richwoods","MO",38.137345,-90.83168
"63072","Robertsville","MO",38.369435,-90.81792
"63073","Saint Albans","MO",38.527729,-91.017274
"63074","Saint Ann","MO",38.727184,-90.38551
"63077","Saint Clair","MO",38.336093,-90.98902
"63079","Stanton","MO",38.274398,-91.085533
"63080","Sullivan","MO",38.200244,-91.14089
"63084","Union","MO",38.434806,-91.00353
"63087","Valles Mines","MO",38.024849,-90.44667
"63088","Valley Park","MO",38.553253,-90.49157
"63089","Villa Ridge","MO",38.46292,-90.88421
"63090","Washington","MO",38.535499,-91.02348
"63091","Rosebud","MO",38.387446,-91.39332
"63099","Fenton","MO",38.638318,-90.427118
"63101","Saint Louis","MO",38.631551,-90.193
"63102","Saint Louis","MO",38.6352,-90.18702
"63103","Saint Louis","MO",38.631451,-90.21415
"63104","Saint Louis","MO",38.610701,-90.21362
"63105","Saint Louis","MO",38.645484,-90.32888
"63106","Saint Louis","MO",38.644451,-90.20636
"63107","Saint Louis","MO",38.6628,-90.20949
"63108","Saint Louis","MO",38.646201,-90.25435
"63109","Saint Louis","MO",38.586052,-90.2941
"63110","Saint Louis","MO",38.622601,-90.26182
"63111","Saint Louis","MO",38.559302,-90.25174
"63112","Saint Louis","MO",38.661351,-90.28434
"63113","Saint Louis","MO",38.656701,-90.24397
"63114","Saint Louis","MO",38.702651,-90.36109
"63115","Saint Louis","MO",38.676851,-90.24009
"63116","Saint Louis","MO",38.580552,-90.26307
"63117","Saint Louis","MO",38.628402,-90.32636
"63118","Saint Louis","MO",38.594901,-90.2278
"63119","Saint Louis","MO",38.590652,-90.35168
"63120","Saint Louis","MO",38.691901,-90.25992
"63121","Saint Louis","MO",38.706301,-90.29609
"63122","Saint Louis","MO",38.582702,-90.40966
"63123","Saint Louis","MO",38.549452,-90.32525
"63124","Saint Louis","MO",38.645802,-90.37687
"63125","Saint Louis","MO",38.524066,-90.2895
"63126","Saint Louis","MO",38.552303,-90.37921
"63127","Saint Louis","MO",38.53987,-90.40024
"63128","Saint Louis","MO",38.500734,-90.37113
"63129","Saint Louis","MO",38.469953,-90.32161
"63130","Saint Louis","MO",38.663951,-90.32348
"63131","Saint Louis","MO",38.618582,-90.43643
"63132","Saint Louis","MO",38.675784,-90.37463
"63133","Saint Louis","MO",38.679684,-90.30186
"63134","Saint Louis","MO",38.738217,-90.33904
"63135","Saint Louis","MO",38.74785,-90.30258
"63136","Saint Louis","MO",38.73835,-90.26154
"63137","Saint Louis","MO",38.748183,-90.21864
"63138","Saint Louis","MO",38.787849,-90.21041
"63139","Saint Louis","MO",38.610901,-90.29174
"63140","Saint Louis","MO",38.73965,-90.32178
"63141","Saint Louis","MO",38.662302,-90.45363
"63143","Saint Louis","MO",38.612452,-90.31822
"63144","Saint Louis","MO",38.619152,-90.34964
"63145","Saint Louis","MO",38.638318,-90.427118
"63146","Saint Louis","MO",38.688585,-90.44689
"63147","Saint Louis","MO",38.692861,-90.21905
"63150","Saint Louis","MO",38.6531,-90.243462
"63151","Saint Louis","MO",38.638318,-90.427118
"63153","Saint Louis","MO",38.6531,-90.243462
"63155","Saint Louis","MO",38.6531,-90.243462
"63156","Saint Louis","MO",38.6531,-90.243462
"63157","Saint Louis","MO",38.6531,-90.243462
"63158","Saint Louis","MO",38.6531,-90.243462
"63160","Saint Louis","MO",38.6531,-90.243462
"63163","Saint Louis","MO",38.6531,-90.243462
"63164","Saint Louis","MO",38.6531,-90.243462
"63166","Saint Louis","MO",38.6531,-90.243462
"63167","Saint Louis","MO",38.638318,-90.427118
"63169","Saint Louis","MO",38.6531,-90.243462
"63171","Saint Louis","MO",38.6531,-90.243462
"63177","Saint Louis","MO",38.6531,-90.243462
"63178","Saint Louis","MO",38.6531,-90.243462
"63179","Saint Louis","MO",38.6531,-90.243462
"63180","Saint Louis","MO",38.6531,-90.243462
"63182","Saint Louis","MO",38.6531,-90.243462
"63188","Saint Louis","MO",38.6531,-90.243462
"63190","Saint Louis","MO",38.62,-90.19
"63195","Saint Louis","MO",38.6531,-90.243462
"63196","Saint Louis","MO",38.6531,-90.243462
"63197","Saint Louis","MO",38.6531,-90.243462
"63198","Saint Louis","MO",38.638318,-90.427118
"63199","Saint Louis","MO",38.6531,-90.243462
"63301","Saint Charles","MO",38.808583,-90.50687
"63302","Saint Charles","MO",38.581299,-90.872987
"63303","Saint Charles","MO",38.762715,-90.53903
"63304","Saint Charles","MO",38.72926,-90.65332
"63330","Annada","MO",39.257008,-90.82317
"63332","Augusta","MO",38.590155,-90.89093
"63333","Bellflower","MO",39.03288,-91.32983
"63334","Bowling Green","MO",39.318552,-91.18265
"63336","Clarksville","MO",39.354092,-90.93137
"63338","Cottleville","MO",38.750949,-90.536784
"63339","Curryville","MO",39.334216,-91.37684
"63341","Defiance","MO",38.68879,-90.78593
"63342","Dutzow","MO",38.605967,-90.996216
"63343","Elsberry","MO",39.151543,-90.8136
"63344","Eolia","MO",39.239548,-91.01577
"63345","Farber","MO",39.267199,-91.56669
"63346","Flinthill","MO",38.750949,-90.536784
"63347","Foley","MO",39.069965,-90.75875
"63348","Foristell","MO",38.814432,-90.94433
"63349","Hawk Point","MO",38.96624,-91.14919
"63350","High Hill","MO",38.898823,-91.3682
"63351","Jonesburg","MO",38.862422,-91.31284
"63352","Laddonia","MO",39.249616,-91.64872
"63353","Louisiana","MO",39.449012,-91.07518
"63357","Marthasville","MO",38.647611,-91.09159
"63359","Middletown","MO",39.151911,-91.34909
"63361","Montgomery City","MO",38.973583,-91.53556
"63362","Moscow Mills","MO",38.952724,-90.89199
"63363","New Florence","MO",38.881628,-91.44852
"63365","New Melle","MO",38.716287,-90.875127
"63366","O Fallon","MO",38.786335,-90.72121
"63367","Lake Saint Louis","MO",38.796601,-90.78525
"63368","O Fallon","MO",38.78,-90.7
"63369","Old Monroe","MO",38.935776,-90.77801
"63370","Olney","MO",39.085749,-91.2243
"63371","Paynesville","MO",39.25597,-90.883751
"63373","Portage Des Sioux","MO",38.935496,-90.3683
"63375","Perryville","MO",37.73473,-89.856609
"63376","Saint Peters","MO",38.778579,-90.62045
"63377","Silex","MO",39.110908,-91.08017
"63378","Treloar","MO",38.770187,-91.188586
"63379","Troy","MO",38.991916,-90.98649
"63381","Truxton","MO",38.995145,-91.2336
"63382","Vandalia","MO",39.310099,-91.48862
"63383","Warrenton","MO",38.818852,-91.17
"63384","Wellsville","MO",39.081392,-91.56266
"63385","Wentzville","MO",38.808884,-90.85922
"63386","West Alton","MO",38.876781,-90.23706
"63387","Whiteside","MO",39.184054,-91.02078
"63388","Williamsburg","MO",38.886456,-91.76344
"63389","Winfield","MO",39.00006,-90.77209
"63390","Wright City","MO",38.797388,-91.03468
"63401","Hannibal","MO",39.695798,-91.40084
"63430","Alexandria","MO",40.381613,-91.50598
"63431","Anabel","MO",39.753475,-92.3224
"63432","Arbela","MO",40.497304,-91.9947
"63433","Ashburn","MO",39.549602,-91.18155
"63434","Bethel","MO",39.906312,-91.96806
"63435","Canton","MO",40.178309,-91.57389
"63436","Center","MO",39.501697,-91.5367
"63437","Clarence","MO",39.742551,-92.24825
"63438","Durham","MO",39.952258,-91.69953
"63439","Emden","MO",39.788052,-91.85812
"63440","Ewing","MO",39.98803,-91.73595
"63441","Frankford","MO",39.484069,-91.32296
"63442","Granger","MO",40.453333,-92.1474
"63443","Hunnewell","MO",39.677082,-91.8584
"63445","Kahoka","MO",40.415683,-91.71817
"63446","Knox City","MO",40.14036,-92.01104
"63447","La Belle","MO",40.109412,-91.91078
"63448","La Grange","MO",40.044294,-91.51803
"63450","Lentner","MO",39.650093,-92.14536
"63451","Leonard","MO",39.922732,-92.19521
"63452","Lewistown","MO",40.101973,-91.79502
"63453","Luray","MO",40.489269,-91.87248
"63454","Maywood","MO",39.93264,-91.63745
"63456","Monroe City","MO",39.645523,-91.72967
"63457","Monticello","MO",40.143679,-91.7066
"63458","Newark","MO",39.98354,-91.99255
"63459","New London","MO",39.584889,-91.38258
"63460","Novelty","MO",40.011886,-92.20242
"63461","Palmyra","MO",39.793879,-91.54631
"63462","Perry","MO",39.430693,-91.68647
"63463","Philadelphia","MO",39.814354,-91.74251
"63464","Plevna","MO",39.972337,-92.06553
"63465","Revere","MO",40.526542,-91.68075
"63466","Saint Patrick","MO",40.431201,-91.685103
"63467","Saverton","MO",39.650045,-91.270502
"63468","Shelbina","MO",39.677131,-92.01662
"63469","Shelbyville","MO",39.820466,-92.03371
"63471","Taylor","MO",39.925941,-91.49636
"63472","Wayland","MO",40.396289,-91.58325
"63473","Williamstown","MO",40.246729,-91.77368
"63474","Wyaconda","MO",40.354422,-91.91063
"63477","La Belle","MO",40.114109,-91.912383
"63501","Kirksville","MO",40.183335,-92.58341
"63530","Atlanta","MO",39.911723,-92.46408
"63531","Baring","MO",40.281881,-92.23595
"63532","Bevier","MO",39.75496,-92.57057
"63533","Brashear","MO",40.181653,-92.39699
"63534","Callao","MO",39.7418,-92.63582
"63535","Coatsville","MO",40.569026,-92.64152
"63536","Downing","MO",40.486993,-92.36284
"63537","Edina","MO",40.164349,-92.1671
"63538","Elmer","MO",39.952779,-92.68007
"63539","Ethel","MO",39.893011,-92.74503
"63540","Gibbs","MO",40.096431,-92.41809
"63541","Glenwood","MO",40.513638,-92.60818
"63543","Gorin","MO",40.361121,-92.01979
"63544","Green Castle","MO",40.244242,-92.85127
"63545","Green City","MO",40.256611,-92.98277
"63546","Greentop","MO",40.335091,-92.52631
"63547","Hurdland","MO",40.145396,-92.30285
"63548","Lancaster","MO",40.524127,-92.51071
"63549","La Plata","MO",40.018881,-92.50308
"63551","Livonia","MO",40.496773,-92.72414
"63552","Macon","MO",39.747736,-92.46878
"63555","Memphis","MO",40.469438,-92.18031
"63556","Milan","MO",40.184189,-93.12043
"63557","New Boston","MO",39.963355,-92.88684
"63558","New Cambria","MO",39.728897,-92.74979
"63559","Novinger","MO",40.228235,-92.72531
"63560","Pollock","MO",40.367584,-93.11823
"63561","Queen City","MO",40.410297,-92.55728
"63563","Rutledge","MO",40.303327,-92.07913
"63565","Unionville","MO",40.472841,-92.97298
"63566","Winigan","MO",40.031642,-92.9641
"63567","Worthington","MO",40.411635,-92.69113
"63588","Clay","MO",36.018996,-90.159327
"63601","Park Hills","MO",37.844197,-90.53
"63620","Annapolis","MO",37.383001,-90.6596
"63621","Arcadia","MO",37.520078,-90.61694
"63622","Belgrade","MO",37.790928,-90.89305
"63623","Belleview","MO",37.682669,-90.88172
"63624","Bismarck","MO",37.740163,-90.63962
"63625","Black","MO",37.538148,-90.96827
"63626","Blackwell","MO",38.053566,-90.64229
"63627","Bloomsdale","MO",38.051824,-90.25527
"63628","Bonne Terre","MO",37.929597,-90.5614
"63629","Bunker","MO",37.416192,-91.22224
"63630","Cadet","MO",38.020743,-90.74557
"63631","Caledonia","MO",37.753408,-90.78593
"63632","Cascade","MO",37.119566,-90.444953
"63633","Centerville","MO",37.442703,-91.02077
"63636","Des Arc","MO",37.292529,-90.60432
"63637","Doe Run","MO",37.73411,-90.51428
"63638","Ellington","MO",37.210461,-91.00798
"63640","Farmington","MO",37.779206,-90.41404
"63645","Fredericktown","MO",37.54834,-90.30599
"63646","Glover","MO",37.505462,-90.845047
"63648","Irondale","MO",37.827126,-90.68325
"63650","Ironton","MO",37.614822,-90.63284
"63651","Knob Lick","MO",37.675442,-90.367713
"63653","Leadwood","MO",37.863193,-90.58935
"63654","Lesterville","MO",37.478054,-90.83766
"63655","Marquand","MO",37.416023,-90.18886
"63656","Middle Brook","MO",37.611019,-90.77656
"63660","Mineral Point","MO",37.913799,-90.71264
"63661","New Offenburg","MO",37.89872,-90.191972
"63662","Patton","MO",37.513967,-90.02477
"63663","Pilot Knob","MO",37.624572,-90.64526
"63664","Potosi","MO",37.91496,-90.86797
"63665","Redford","MO",37.313752,-90.84892
"63666","Reynolds","MO",37.327153,-91.024337
"63670","Sainte Genevieve","MO",37.91259,-90.15155
"63673","Saint Mary","MO",37.833644,-89.98417
"63674","Tiff","MO",38.038731,-90.65623
"63675","Vulcan","MO",37.326021,-90.68542
"63701","Cape Girardeau","MO",37.32564,-89.5659
"63702","Cape Girardeau","MO",37.350624,-89.509405
"63703","Cape Girardeau","MO",37.291432,-89.54065
"63705","Cape Girardeau","MO",37.366166,-89.643941
"63730","Advance","MO",37.101789,-89.91359
"63732","Altenburg","MO",37.584014,-89.6032
"63735","Bell City","MO",36.992718,-89.78369
"63736","Benton","MO",37.093104,-89.53997
"63737","Brazeau","MO",37.663253,-89.652912
"63738","Brownwood","MO",37.082526,-89.95595
"63739","Burfordville","MO",37.360527,-89.79907
"63740","Chaffee","MO",37.182556,-89.68379
"63742","Commerce","MO",37.157131,-89.44651
"63743","Daisy","MO",37.522361,-89.81419
"63744","Delta","MO",37.197279,-89.739429
"63745","Dutchtown","MO",37.24237,-89.69768
"63746","Farrar","MO",37.734776,-89.811616
"63747","Friedheim","MO",37.555405,-89.80068
"63748","Frohna","MO",37.671971,-89.61644
"63750","Gipsy","MO",37.146953,-90.1887
"63751","Glenallen","MO",37.332487,-90.08675
"63752","Gordonville","MO",37.30925,-89.69889
"63753","Grassy","MO",37.212218,-90.13105
"63755","Jackson","MO",37.413716,-89.65428
"63758","Kelso","MO",37.189843,-89.549
"63760","Leopold","MO",37.247942,-89.88904
"63763","McGee","MO",37.052849,-90.16705
"63764","Marble Hill","MO",37.309447,-89.98127
"63766","Millersville","MO",37.437077,-89.85836
"63767","Morley","MO",37.043378,-89.61264
"63769","Oak Ridge","MO",37.509022,-89.76337
"63770","Old Appleton","MO",37.593256,-89.70949
"63771","Oran","MO",37.076536,-89.67823
"63772","Painton","MO",37.04613,-89.779248
"63774","Perkins","MO",37.094857,-89.77451
"63775","Perryville","MO",37.716811,-89.87601
"63776","McBride","MO",37.734776,-89.811616
"63779","Pocahontas","MO",37.500656,-89.639595
"63780","Scott City","MO",37.21183,-89.52687
"63781","Sedgewickville","MO",37.527341,-89.92735
"63782","Sturdivant","MO",37.101911,-90.0292
"63783","Uniontown","MO",37.605626,-89.6774
"63784","Vanduser","MO",36.990215,-89.6911
"63785","Whitewater","MO",37.265867,-89.82401
"63787","Zalma","MO",37.115431,-90.10392
"63801","Sikeston","MO",36.891163,-89.58355
"63804","Blodgett","MO",37.005572,-89.525934
"63820","Anniston","MO",36.824596,-89.32516
"63821","Arbyrd","MO",36.048279,-90.23343
"63822","Bernie","MO",36.662399,-90.00768
"63823","Bertrand","MO",36.905584,-89.44945
"63824","Blodgett","MO",37.00384,-89.52535
"63825","Bloomfield","MO",36.91732,-89.93679
"63826","Braggadocio","MO",36.180226,-89.84072
"63827","Bragg City","MO",36.27471,-89.87346
"63828","Canalou","MO",36.754415,-89.68706
"63829","Cardwell","MO",36.041645,-90.29776
"63830","Caruthersville","MO",36.174029,-89.67548
"63832","Wyatt","MO",36.916675,-89.222096
"63833","Catron","MO",36.642019,-89.73149
"63834","Charleston","MO",36.915335,-89.31308
"63837","Clarkton","MO",36.450404,-89.97623
"63838","Conran","MO",36.603844,-89.650005
"63839","Cooter","MO",36.053078,-89.81679
"63840","Deering","MO",36.213318,-89.748102
"63841","Dexter","MO",36.784453,-89.97428
"63845","East Prairie","MO",36.74432,-89.36142
"63846","Essex","MO",36.818652,-89.81622
"63847","Gibson","MO",36.442124,-90.03097
"63848","Gideon","MO",36.449337,-89.89562
"63849","Gobler","MO",36.124101,-89.99144
"63850","Grayridge","MO",36.822129,-89.7817
"63851","Hayti","MO",36.235881,-89.74861
"63852","Holcomb","MO",36.37451,-90.00544
"63853","Holland","MO",36.058612,-89.87038
"63855","Hornersville","MO",36.048254,-90.08539
"63857","Kennett","MO",36.237128,-90.04866
"63859","Independence","MO",36.267961,-90.031801
"63860","Kewanee","MO",36.67088,-89.57338
"63862","Lilbourn","MO",36.588424,-89.63377
"63863","Malden","MO",36.569283,-89.97423
"63866","Marston","MO",36.521724,-89.6073
"63867","Matthews","MO",36.751798,-89.55184
"63868","Morehouse","MO",36.845481,-89.69113
"63869","New Madrid","MO",36.59793,-89.54435
"63870","Parma","MO",36.611902,-89.83489
"63871","Pascola","MO",36.267825,-89.822514
"63872","Clay","MO",36.101239,-90.114179
"63873","Portageville","MO",36.436042,-89.68851
"63874","Risco","MO",36.550379,-89.81874
"63875","Rives","MO",36.313319,-90.165758
"63876","Senath","MO",36.131733,-90.17023
"63877","Steele","MO",36.079378,-89.84896
"63878","Tallapoosa","MO",36.507559,-89.81877
"63879","Wardell","MO",36.349977,-89.80605
"63880","Whiteoak","MO",36.330522,-90.0261
"63881","Wolf Island","MO",36.779519,-89.206329
"63882","Wyatt","MO",36.911648,-89.22208
"63901","Poplar Bluff","MO",36.759357,-90.41689
"63902","Poplar Bluff","MO",36.712451,-90.407013
"63931","Briar","MO",36.66101,-90.850785
"63932","Broseley","MO",36.687259,-90.23594
"63933","Campbell","MO",36.509916,-90.09694
"63934","Clubb","MO",37.20739,-90.38829
"63935","Doniphan","MO",36.624115,-90.8615
"63936","Dudley","MO",36.808827,-90.12915
"63937","Ellsinore","MO",36.936583,-90.75026
"63938","Fagus","MO",36.512944,-90.26609
"63939","Fairdealing","MO",36.647754,-90.68117
"63940","Fisk","MO",36.772841,-90.21801
"63941","Fremont","MO",36.918139,-91.1528
"63942","Gatewood","MO",36.546354,-91.05402
"63943","Grandin","MO",36.828561,-90.81359
"63944","Greenville","MO",37.068349,-90.42152
"63945","Harviell","MO",36.637085,-90.52687
"63947","Hiram","MO",37.19068,-90.2507
"63950","Lodi","MO",37.119566,-90.444953
"63951","Lowndes","MO",37.124019,-90.27247
"63952","Mill Spring","MO",37.028626,-90.65619
"63953","Naylor","MO",36.585908,-90.61875
"63954","Neelyville","MO",36.559031,-90.48646
"63955","Oxly","MO",36.604837,-90.68582
"63956","Patterson","MO",37.199631,-90.52353
"63957","Piedmont","MO",37.151397,-90.69685
"63960","Puxico","MO",36.956662,-90.13128
"63961","Qulin","MO",36.58479,-90.25221
"63962","Rombauer","MO",36.712451,-90.407013
"63963","Shook","MO",37.072189,-90.30884
"63964","Silva","MO",37.248929,-90.42887
"63965","Van Buren","MO",36.985902,-90.99852
"63966","Wappapello","MO",36.947396,-90.28499
"63967","Williamsville","MO",36.944333,-90.48271
"64001","Alma","MO",39.10223,-93.53531
"64002","Lees Summit","MO",38.91,-94.38
"64011","Bates City","MO",38.980527,-94.07705
"64012","Belton","MO",38.810856,-94.53201
"64013","Blue Springs","MO",38.964518,-94.370275
"64014","Blue Springs","MO",39.017559,-94.25767
"64015","Blue Springs","MO",39.016612,-94.2987
"64016","Buckner","MO",39.118608,-94.20783
"64017","Camden","MO",39.203641,-94.03213
"64018","Camden Point","MO",39.446161,-94.73858
"64019","Centerview","MO",38.763144,-93.86635
"64020","Concordia","MO",38.97688,-93.5895
"64021","Corder","MO",39.116219,-93.63663
"64022","Dover","MO",39.192552,-93.68661
"64024","Excelsior Springs","MO",39.340332,-94.22601
"64028","Farley","MO",39.283928,-94.830159
"64029","Grain Valley","MO",39.012404,-94.21156
"64030","Grandview","MO",38.883548,-94.52503
"64034","Greenwood","MO",38.843576,-94.34213
"64035","Hardin","MO",39.29596,-93.82164
"64036","Henrietta","MO",39.214233,-93.9294
"64037","Higginsville","MO",39.058604,-93.73366
"64040","Holden","MO",38.712465,-93.9882
"64048","Holt","MO",39.44609,-94.35335
"64050","Independence","MO",39.09888,-94.41447
"64051","Independence","MO",39.080369,-94.387956
"64052","Independence","MO",39.076405,-94.44943
"64053","Independence","MO",39.107845,-94.46556
"64054","Independence","MO",39.108704,-94.44115
"64055","Independence","MO",39.053255,-94.4061
"64056","Independence","MO",39.115776,-94.34846
"64057","Independence","MO",39.069165,-94.35087
"64058","Independence","MO",39.150754,-94.34502
"64060","Kearney","MO",39.365318,-94.3578
"64061","Kingsville","MO",38.765972,-94.09708
"64062","Lawson","MO",39.443609,-94.17063
"64063","Lees Summit","MO",38.913857,-94.36397
"64064","Lees Summit","MO",38.98861,-94.36474
"64065","Lees Summit","MO",38.966641,-94.392885
"64066","Levasy","MO",39.134657,-94.13247
"64067","Lexington","MO",39.176165,-93.86963
"64068","Liberty","MO",39.246179,-94.41763
"64069","Liberty","MO",39.282869,-94.408998
"64070","Lone Jack","MO",38.895469,-94.15315
"64071","Mayview","MO",39.049517,-93.8359
"64072","Missouri City","MO",39.237332,-94.29621
"64073","Mosby","MO",39.314899,-94.293888
"64074","Napoleon","MO",39.093759,-94.0858
"64075","Oak Grove","MO",38.99535,-94.14225
"64076","Odessa","MO",38.98915,-93.95373
"64077","Orrick","MO",39.22471,-94.13971
"64078","Peculiar","MO",38.706077,-94.46049
"64079","Platte City","MO",39.356596,-94.78814
"64080","Pleasant Hill","MO",38.776782,-94.26207
"64081","Lees Summit","MO",38.908657,-94.40285
"64082","Lees Summit","MO",38.850243,-94.3957
"64083","Raymore","MO",38.803528,-94.45103
"64084","Rayville","MO",39.378901,-94.07822
"64085","Richmond","MO",39.311978,-93.96947
"64086","Lees Summit","MO",38.92811,-94.32392
"64087","Liberty","MO",39.282869,-94.408998
"64088","Sibley","MO",39.15207,-94.18355
"64089","Smithville","MO",39.389339,-94.56774
"64090","Strasburg","MO",38.760865,-94.16376
"64092","Waldron","MO",39.228875,-94.805673
"64093","Warrensburg","MO",38.772117,-93.73519
"64096","Waverly","MO",39.214193,-93.53825
"64097","Wellington","MO",39.120155,-93.96495
"64098","Weston","MO",39.445387,-94.89833
"64101","Kansas City","MO",39.103037,-94.60066
"64102","Kansas City","MO",39.093854,-94.60411
"64105","Kansas City","MO",39.104204,-94.58868
"64106","Kansas City","MO",39.103704,-94.57311
"64108","Kansas City","MO",39.084554,-94.58296
"64109","Kansas City","MO",39.065954,-94.56643
"64110","Kansas City","MO",39.033505,-94.57286
"64111","Kansas City","MO",39.056505,-94.59439
"64112","Kansas City","MO",39.037605,-94.59537
"64113","Kansas City","MO",39.013638,-94.59471
"64114","Kansas City","MO",38.966056,-94.59641
"64116","Kansas City","MO",39.14912,-94.57314
"64117","Kansas City","MO",39.165253,-94.53158
"64118","Kansas City","MO",39.213082,-94.57248
"64119","Kansas City","MO",39.202654,-94.51816
"64120","Kansas City","MO",39.125304,-94.53234
"64121","Kansas City","MO",39.035038,-94.356728
"64123","Kansas City","MO",39.113604,-94.52287
"64124","Kansas City","MO",39.107304,-94.53985
"64125","Kansas City","MO",39.104887,-94.49541
"64126","Kansas City","MO",39.092304,-94.49948
"64127","Kansas City","MO",39.089704,-94.53968
"64128","Kansas City","MO",39.066754,-94.5365
"64129","Kansas City","MO",39.051455,-94.4966
"64130","Kansas City","MO",39.034838,-94.54507
"64131","Kansas City","MO",38.972473,-94.57656
"64132","Kansas City","MO",38.991406,-94.551
"64133","Kansas City","MO",39.013905,-94.4591
"64134","Kansas City","MO",38.928206,-94.49832
"64136","Kansas City","MO",39.01543,-94.39967
"64137","Kansas City","MO",38.929356,-94.53932
"64138","Kansas City","MO",38.969806,-94.47256
"64139","Kansas City","MO",38.959277,-94.40868
"64141","Kansas City","MO",39.035038,-94.356728
"64142","Kansas City","MO",39.035038,-94.356728
"64144","Kansas City","MO",39.282869,-94.408998
"64145","Kansas City","MO",38.896407,-94.59666
"64146","Kansas City","MO",38.899843,-94.57323
"64147","Kansas City","MO",38.849841,-94.54555
"64148","Kansas City","MO",39.035038,-94.356728
"64149","Kansas City","MO",38.872285,-94.46712
"64150","Riverside","MO",39.174903,-94.62241
"64151","Kansas City","MO",39.215652,-94.63021
"64152","Kansas City","MO",39.216635,-94.69991
"64153","Kansas City","MO",39.281602,-94.71439
"64154","Kansas City","MO",39.261679,-94.63353
"64155","Kansas City","MO",39.276828,-94.57344
"64156","Kansas City","MO",39.281486,-94.51296
"64157","Kansas City","MO",39.283535,-94.4705
"64158","Kansas City","MO",39.230259,-94.47794
"64160","Kansas City","MO",39.282869,-94.408998
"64161","Kansas City","MO",39.164953,-94.4669
"64163","Kansas City","MO",39.31835,-94.67635
"64164","Kansas City","MO",39.335365,-94.62462
"64165","Kansas City","MO",39.317974,-94.57545
"64166","Kansas City","MO",39.322849,-94.50755
"64167","Kansas City","MO",39.3173,-94.48655
"64168","Kansas City","MO",39.343225,-94.85161
"64170","Kansas City","MO",39.035038,-94.356728
"64171","Kansas City","MO",39.035038,-94.356728
"64172","Kansas City","MO",39.035038,-94.356728
"64173","Kansas City","MO",39.035038,-94.356728
"64179","Kansas City","MO",39.035038,-94.356728
"64180","Kansas City","MO",39.035038,-94.356728
"64183","Kansas City","MO",39.035038,-94.356728
"64184","Kansas City","MO",39.035038,-94.356728
"64185","Kansas City","MO",39.035038,-94.356728
"64187","Kansas City","MO",39.035038,-94.356728
"64188","Kansas City","MO",39.035038,-94.356728
"64189","Kansas City","MO",39.035038,-94.356728
"64190","Kansas City","MO",39.343225,-94.85161
"64191","Kansas City","MO",39.035038,-94.356728
"64192","Kansas City","MO",38.953942,-94.5237
"64193","Kansas City","MO",39.035038,-94.356728
"64194","Kansas City","MO",39.035038,-94.356728
"64195","Kansas City","MO",39.343225,-94.85161
"64196","Kansas City","MO",39.035038,-94.356728
"64197","Kansas City","MO",39.035038,-94.356728
"64198","Kansas City","MO",39.035038,-94.356728
"64199","Kansas City","MO",39.035038,-94.356728
"64401","Agency","MO",39.627397,-94.72215
"64402","Albany","MO",40.247423,-94.33216
"64420","Allendale","MO",40.478118,-94.423294
"64421","Amazonia","MO",39.90444,-94.92726
"64422","Amity","MO",39.898708,-94.47948
"64423","Barnard","MO",40.192991,-94.85162
"64424","Bethany","MO",40.266201,-94.0304
"64426","Blythedale","MO",40.528127,-93.8743
"64427","Bolckow","MO",40.115496,-94.85573
"64428","Burlington Junction","MO",40.44627,-95.06768
"64429","Cameron","MO",39.743859,-94.23378
"64430","Clarksdale","MO",39.827889,-94.56785
"64431","Clearmont","MO",40.527919,-94.9968
"64432","Clyde","MO",40.266289,-94.66893
"64433","Conception","MO",40.242954,-94.68406
"64434","Conception Junction","MO",40.264258,-94.73379
"64436","Cosby","MO",39.850535,-94.69403
"64437","Craig","MO",40.135643,-95.33869
"64438","Darlington","MO",40.183995,-94.40163
"64439","Dearborn","MO",39.527667,-94.76577
"64440","De Kalb","MO",39.585185,-94.90957
"64441","Denver","MO",40.386181,-94.28975
"64442","Eagleville","MO",40.481133,-93.99079
"64443","Easton","MO",39.742355,-94.65253
"64444","Edgerton","MO",39.493351,-94.62989
"64445","Elmo","MO",40.527275,-95.12039
"64446","Fairfax","MO",40.321432,-95.41748
"64447","Fairport","MO",39.892645,-94.404415
"64448","Faucett","MO",39.599578,-94.81076
"64449","Fillmore","MO",40.041181,-94.9786
"64451","Forest City","MO",39.982831,-95.18778
"64453","Gentry","MO",40.33816,-94.44985
"64454","Gower","MO",39.61222,-94.5929
"64455","Graham","MO",40.187914,-95.02142
"64456","Grant City","MO",40.496954,-94.38993
"64457","Guilford","MO",40.162731,-94.68236
"64458","Hatfield","MO",40.527055,-94.15484
"64459","Helena","MO",39.917997,-94.64152
"64461","Hopkins","MO",40.521372,-94.8073
"64463","King City","MO",40.057066,-94.49898
"64464","Polk","MO",40.024499,-94.551058
"64465","Lathrop","MO",39.535467,-94.30633
"64466","Maitland","MO",40.17606,-95.08755
"64467","Martinsville","MO",40.390465,-94.15285
"64468","Maryville","MO",40.341716,-94.87498
"64469","Maysville","MO",39.91125,-94.35231
"64470","Mound City","MO",40.148933,-95.23256
"64471","New Hampton","MO",40.264749,-94.19587
"64473","Oregon","MO",39.986725,-95.09514
"64474","Osborn","MO",39.771525,-94.38471
"64475","Parnell","MO",40.43702,-94.6186
"64476","Pickering","MO",40.447373,-94.84243
"64477","Plattsburg","MO",39.571712,-94.4603
"64478","Quitman","MO",40.287996,-95.082241
"64479","Ravenwood","MO",40.351697,-94.67399
"64480","Rea","MO",40.061613,-94.71818
"64481","Ridgeway","MO",40.358817,-93.90776
"64482","Rock Port","MO",40.437038,-95.53297
"64483","Rosendale","MO",40.03722,-94.83935
"64484","Rushville","MO",39.544889,-95.03076
"64485","Savannah","MO",39.94728,-94.8358
"64486","Sheridan","MO",40.530798,-94.62495
"64487","Skidmore","MO",40.30191,-95.09462
"64489","Stanberry","MO",40.218842,-94.5455
"64490","Stewartsville","MO",39.74226,-94.51483
"64491","Tarkio","MO",40.452497,-95.3661
"64492","Trimble","MO",39.474988,-94.54614
"64493","Turney","MO",39.634086,-94.31921
"64494","Union Star","MO",39.981974,-94.60288
"64496","Watson","MO",40.497797,-95.63121
"64497","Weatherby","MO",39.933989,-94.22274
"64498","Westboro","MO",40.554988,-95.34418
"64499","Worth","MO",40.402118,-94.44024
"64501","Saint Joseph","MO",39.766144,-94.84504
"64502","Saint Joseph","MO",39.676333,-94.857364
"64503","Saint Joseph","MO",39.741794,-94.83237
"64504","Saint Joseph","MO",39.707694,-94.87354
"64505","Saint Joseph","MO",39.812344,-94.84286
"64506","Saint Joseph","MO",39.787394,-94.80941
"64507","Saint Joseph","MO",39.748827,-94.80299
"64508","Saint Joseph","MO",39.676333,-94.857364
"64600","Blue Mound","MO",39.689033,-93.555456
"64601","Chillicothe","MO",39.790132,-93.54803
"64620","Altamont","MO",39.900508,-94.08876
"64621","Fairview","MO",39.630482,-93.478696
"64622","Bogard","MO",39.48743,-93.5483
"64623","Bosworth","MO",39.470242,-93.3395
"64624","Braymer","MO",39.581772,-93.79569
"64625","Breckenridge","MO",39.757364,-93.80512
"64628","Brookfield","MO",39.792042,-93.04973
"64629","Braymer","MO",39.591141,-93.792393
"64630","Browning","MO",40.037077,-93.17023
"64631","Bucklin","MO",39.79373,-92.88165
"64632","Cainsville","MO",40.448528,-93.77349
"64633","Carrollton","MO",39.355424,-93.48123
"64635","Chula","MO",39.931666,-93.45736
"64636","Coffey","MO",40.109791,-93.98136
"64637","Cowgill","MO",39.575445,-93.91742
"64638","Dawn","MO",39.616309,-93.62076
"64639","De Witt","MO",39.382255,-93.22876
"64640","Gallatin","MO",39.912973,-93.96536
"64641","Galt","MO",40.165088,-93.39425
"64642","Gilman City","MO",40.154895,-93.8395
"64643","Hale","MO",39.610631,-93.35686
"64644","Hamilton","MO",39.731689,-93.99009
"64645","Harris","MO",40.299574,-93.33273
"64646","Humphreys","MO",40.115577,-93.31489
"64647","Jameson","MO",40.036453,-93.97143
"64648","Jamesport","MO",39.977935,-93.80694
"64649","Kidder","MO",39.780045,-94.09563
"64650","Kingston","MO",39.637805,-94.04897
"64651","Laclede","MO",39.785731,-93.17676
"64652","Laredo","MO",40.025913,-93.43981
"64653","Linneus","MO",39.884096,-93.19234
"64654","Lock Springs","MO",39.96054,-93.988865
"64655","Lucerne","MO",40.448227,-93.25995
"64656","Ludlow","MO",39.671985,-93.67718
"64657","McFall","MO",40.130633,-94.21671
"64658","Marceline","MO",39.668998,-92.92916
"64659","Meadville","MO",39.78583,-93.30007
"64660","Mendon","MO",39.57756,-93.09683
"64661","Mercer","MO",40.522402,-93.54965
"64664","Mooresville","MO",39.743993,-93.71189
"64665","Mount Moriah","MO",40.30922,-93.794818
"64667","Newtown","MO",40.385432,-93.33102
"64668","Norborne","MO",39.344835,-93.69201
"64670","Pattonsburg","MO",40.051163,-94.12713
"64671","Polo","MO",39.541896,-94.05158
"64672","Powersville","MO",40.542119,-93.25234
"64673","Princeton","MO",40.391564,-93.58237
"64674","Purdin","MO",39.958661,-93.16074
"64676","Rothville","MO",39.657285,-93.07282
"64677","Purdin","MO",39.869353,-93.00865
"64679","Spickard","MO",40.230884,-93.56742
"64680","Stet","MO",39.410971,-93.431928
"64681","Sumner","MO",39.647537,-93.23128
"64682","Tina","MO",39.542571,-93.46006
"64683","Trenton","MO",40.07823,-93.61143
"64686","Utica","MO",39.743,-93.62835
"64687","Wakenda","MO",39.315544,-93.377455
"64688","Wheeling","MO",39.808311,-93.37642
"64689","Winston","MO",39.868966,-94.14693
"64701","Harrisonville","MO",38.641509,-94.34126
"64720","Adrian","MO",38.40388,-94.34512
"64722","Amoret","MO",38.266148,-94.55686
"64723","Amsterdam","MO",38.363183,-94.57551
"64724","Appleton City","MO",38.171591,-94.02233
"64725","Archie","MO",38.493639,-94.35764
"64726","Blairstown","MO",38.526134,-93.93112
"64728","Bronaugh","MO",37.692776,-94.50225
"64730","Butler","MO",38.259528,-94.32317
"64733","Chilhowee","MO",38.581879,-93.82496
"64734","Cleveland","MO",38.671517,-94.57953
"64735","Clinton","MO",38.364214,-93.76042
"64738","Collins","MO",37.899548,-93.65335
"64739","Creighton","MO",38.506491,-94.09323
"64740","Deepwater","MO",38.250989,-93.7365
"64741","Deerfield","MO",37.825966,-94.55673
"64742","Drexel","MO",38.505786,-94.56078
"64743","East Lynne","MO",38.668901,-94.22863
"64744","El Dorado Springs","MO",37.853003,-94.00271
"64745","Foster","MO",38.164781,-94.50955
"64746","Freeman","MO",38.616741,-94.49465
"64747","Garden City","MO",38.575037,-94.18376
"64748","Golden City","MO",37.371365,-94.09057
"64750","Harwood","MO",37.943914,-94.12773
"64751","Horton","MO",37.946913,-94.42222
"64752","Hume","MO",38.081874,-94.5645
"64755","Jasper","MO",37.326648,-94.31032
"64756","Jerico Springs","MO",37.621338,-94.01643
"64759","Lamar","MO",37.507321,-94.2761
"64761","Leeton","MO",38.585719,-93.68518
"64762","Liberal","MO",37.555366,-94.51496
"64763","Lowry City","MO",38.137769,-93.73225
"64765","Metz","MO",37.849889,-94.338133
"64766","Milford","MO",37.501451,-94.345591
"64767","Milo","MO",37.747201,-94.22416
"64769","Mindenmines","MO",37.499513,-94.57635
"64770","Montrose","MO",38.277754,-93.98973
"64771","Moundville","MO",37.766787,-94.45313
"64772","Nevada","MO",37.838563,-94.35075
"64776","Osceola","MO",38.039239,-93.67676
"64777","Passaic","MO",38.251879,-94.331993
"64778","Richards","MO",37.906353,-94.53424
"64779","Rich Hill","MO",38.086255,-94.38241
"64780","Rockville","MO",38.054666,-94.07515
"64781","Roscoe","MO",37.981824,-93.80721
"64783","Schell City","MO",38.005777,-94.10004
"64784","Sheldon","MO",37.665823,-94.26399
"64788","Urich","MO",38.429061,-94.00494
"64789","Vista","MO",38.024133,-93.781478
"64790","Walker","MO",37.903772,-94.21822
"64801","Joplin","MO",37.09416,-94.50169
"64802","Joplin","MO",37.206219,-94.335453
"64803","Joplin","MO",37.206219,-94.335453
"64804","Joplin","MO",37.047161,-94.51124
"64810","Goodman","MO",36.739448,-94.405903
"64830","Alba","MO",37.236623,-94.42087
"64831","Anderson","MO",36.658583,-94.44972
"64832","Asbury","MO",37.292467,-94.5856
"64833","Avilla","MO",37.195692,-94.12946
"64834","Carl Junction","MO",37.174256,-94.55543
"64835","Carterville","MO",37.149458,-94.44019
"64836","Carthage","MO",37.168985,-94.31164
"64840","Diamond","MO",37.002574,-94.32419
"64841","Duenweg","MO",37.081103,-94.41181
"64842","Fairview","MO",36.799869,-94.10161
"64843","Goodman","MO",36.734769,-94.42691
"64844","Granby","MO",36.913607,-94.24731
"64847","Lanagan","MO",36.61041,-94.4509
"64848","La Russell","MO",37.172786,-94.00043
"64849","Neck City","MO",37.256327,-94.44382
"64850","Neosho","MO",36.86429,-94.39016
"64853","Newtonia","MO",36.828416,-94.152072
"64854","Noel","MO",36.547736,-94.47579
"64855","Oronogo","MO",37.260443,-94.48079
"64856","Pineville","MO",36.571849,-94.28956
"64857","Purcell","MO",37.241939,-94.43498
"64858","Racine","MO",36.898694,-94.52788
"64859","Reeds","MO",37.146249,-94.16048
"64861","Rocky Comfort","MO",36.712525,-94.14484
"64862","Sarcoxie","MO",37.086771,-94.12545
"64863","South West City","MO",36.530266,-94.60271
"64864","Saginaw","MO",36.902332,-94.338957
"64865","Seneca","MO",36.833365,-94.59415
"64866","Stark City","MO",36.871373,-94.15805
"64867","Stella","MO",36.73901,-94.22947
"64868","Tiff City","MO",36.632573,-94.342802
"64869","Waco","MO",37.206219,-94.335453
"64870","Webb City","MO",37.155108,-94.47465
"64873","Wentworth","MO",37.011487,-94.05116
"64874","Wheaton","MO",36.760347,-94.05456
"64930","Washington","MO",39.781173,-94.600647
"64944","Kansas City","MO",39.035038,-94.356728
"64999","Kansas City","MO",39.035038,-94.356728
"65001","Argyle","MO",38.287405,-92.02352
"65010","Ashland","MO",38.784123,-92.24395
"65011","Barnett","MO",38.361276,-92.72167
"65013","Belle","MO",38.279787,-91.74108
"65014","Bland","MO",38.31417,-91.62432
"65016","Bonnots Mill","MO",38.575173,-91.90722
"65017","Brumley","MO",38.084663,-92.49693
"65018","California","MO",38.624862,-92.56443
"65020","Camdenton","MO",38.032648,-92.78269
"65022","Cedar City","MO",38.599175,-92.178057
"65023","Centertown","MO",38.630396,-92.39311
"65024","Chamois","MO",38.633533,-91.78052
"65025","Clarksburg","MO",38.662989,-92.67253
"65026","Eldon","MO",38.311355,-92.58395
"65031","Etterville","MO",38.223649,-92.438629
"65032","Eugene","MO",38.351597,-92.3956
"65034","Fortuna","MO",38.561436,-92.80171
"65035","Freeburg","MO",38.341076,-91.92629
"65036","Gasconade","MO",38.675775,-91.58968
"65037","Gravois Mills","MO",38.232201,-92.82494
"65038","Laurie","MO",38.196429,-92.867804
"65039","Hartsburg","MO",38.692923,-92.28803
"65040","Henley","MO",38.35222,-92.31857
"65041","Hermann","MO",38.659798,-91.47293
"65042","High Point","MO",38.674914,-92.610941
"65043","Holts Summit","MO",38.632055,-92.11831
"65046","Jamestown","MO",38.77066,-92.48206
"65047","Kaiser","MO",38.14008,-92.58331
"65048","Koeltztown","MO",38.364291,-92.00546
"65049","Lake Ozark","MO",38.192972,-92.67262
"65050","Latham","MO",38.543408,-92.69655
"65051","Linn","MO",38.477953,-91.81695
"65052","Linn Creek","MO",38.058473,-92.6855
"65053","Lohman","MO",38.543762,-92.35461
"65054","Loose Creek","MO",38.483274,-91.95135
"65055","McGirk","MO",38.674914,-92.610941
"65058","Meta","MO",38.280617,-92.166
"65059","Mokane","MO",38.674735,-91.8776
"65061","Morrison","MO",38.607257,-91.64049
"65062","Mount Sterling","MO",38.493511,-91.65954
"65063","New Bloomfield","MO",38.723957,-92.08132
"65064","Olean","MO",38.407056,-92.48693
"65065","Osage Beach","MO",38.130807,-92.66935
"65066","Owensville","MO",38.33895,-91.49522
"65067","Portland","MO",38.751905,-91.69826
"65068","Prairie Home","MO",38.798727,-92.6068
"65069","Rhineland","MO",38.748204,-91.57242
"65072","Rocky Mount","MO",38.248494,-92.71511
"65074","Russellville","MO",38.485815,-92.46675
"65075","Saint Elizabeth","MO",38.259655,-92.25872
"65076","Saint Thomas","MO",38.36528,-92.19491
"65077","Steedman","MO",38.78615,-91.80921
"65078","Stover","MO",38.364491,-93.00645
"65079","Sunrise Beach","MO",38.156071,-92.75899
"65080","Tebbetts","MO",38.634516,-91.9766
"65081","Tipton","MO",38.642614,-92.79811
"65082","Tuscumbia","MO",38.217129,-92.43221
"65083","Ulman","MO",38.142363,-92.43502
"65084","Versailles","MO",38.428609,-92.84968
"65085","Westphalia","MO",38.417602,-92.02791
"65101","Jefferson City","MO",38.535897,-92.13905
"65102","Jefferson City","MO",38.530921,-92.249342
"65103","Jefferson City","MO",38.530921,-92.249342
"65104","Jefferson City","MO",38.530921,-92.249342
"65105","Jefferson City","MO",38.530921,-92.249342
"65106","Jefferson City","MO",38.530921,-92.249342
"65107","Jefferson City","MO",38.530921,-92.249342
"65108","Jefferson City","MO",38.530921,-92.249342
"65109","Jefferson City","MO",38.568287,-92.25329
"65110","Jefferson City","MO",38.530921,-92.249342
"65111","Jefferson City","MO",38.530921,-92.249342
"65201","Columbia","MO",38.926838,-92.29003
"65202","Columbia","MO",39.00234,-92.30033
"65203","Columbia","MO",38.925204,-92.36887
"65205","Columbia","MO",39.044719,-92.349574
"65211","Columbia","MO",38.903318,-92.102153
"65212","Columbia","MO",38.937608,-92.33043
"65215","Columbia","MO",38.953238,-92.320783
"65216","Columbia","MO",38.903318,-92.102153
"65217","Columbia","MO",38.903318,-92.102153
"65218","Columbia","MO",38.903318,-92.102153
"65230","Armstrong","MO",39.29161,-92.70579
"65231","Auxvasse","MO",39.0159,-91.8983
"65232","Benton City","MO",39.168227,-91.75007
"65233","Boonville","MO",38.935305,-92.73932
"65236","Brunswick","MO",39.436768,-93.11175
"65237","Bunceton","MO",38.782638,-92.81139
"65239","Cairo","MO",39.522573,-92.43041
"65240","Centralia","MO",39.212252,-92.13684
"65243","Clark","MO",39.278949,-92.36456
"65244","Clifton Hill","MO",39.487134,-92.67946
"65246","Dalton","MO",39.370265,-92.99396
"65247","Excello","MO",39.626821,-92.4927
"65248","Fayette","MO",39.148876,-92.67027
"65250","Franklin","MO",39.024196,-92.81278
"65251","Fulton","MO",38.852436,-91.95808
"65254","Glasgow","MO",39.235444,-92.84612
"65255","Hallsville","MO",39.104503,-92.23452
"65256","Harrisburg","MO",39.137047,-92.45914
"65257","Higbee","MO",39.286571,-92.53612
"65258","Holliday","MO",39.516668,-92.13198
"65259","Huntsville","MO",39.442539,-92.55356
"65260","Jacksonville","MO",39.580455,-92.41023
"65261","Keytesville","MO",39.500486,-92.9155
"65262","Kingdom City","MO",38.959191,-91.92948
"65263","Madison","MO",39.460422,-92.22005
"65264","Martinsburg","MO",39.09551,-91.67592
"65265","Mexico","MO",39.179316,-91.88404
"65270","Moberly","MO",39.420353,-92.4344
"65274","New Franklin","MO",39.015654,-92.68811
"65275","Paris","MO",39.463743,-92.00144
"65276","Pilot Grove","MO",38.849336,-92.93735
"65278","Renick","MO",39.342316,-92.41251
"65279","Rocheport","MO",39.014478,-92.53946
"65280","Rush Hill","MO",39.213975,-91.73545
"65281","Salisbury","MO",39.461414,-92.80488
"65282","Santa Fe","MO",39.369471,-91.81864
"65283","Stoutsville","MO",39.539711,-91.86679
"65284","Sturgeon","MO",39.208685,-92.29136
"65285","Thompson","MO",39.199784,-91.99901
"65286","Triplett","MO",39.506878,-93.20442
"65287","Wooldridge","MO",38.884926,-92.52188
"65299","Mid Missouri","MO",38.903318,-92.102153
"65301","Sedalia","MO",38.702964,-93.23231
"65302","Sedalia","MO",38.724577,-93.281672
"65305","Whiteman Air Force Base","MO",38.732758,-93.55485
"65320","Arrow Rock","MO",39.070941,-92.94664
"65321","Blackburn","MO",39.093236,-93.46794
"65322","Blackwater","MO",38.975799,-92.96
"65323","Calhoun","MO",38.459369,-93.62914
"65324","Climax Springs","MO",38.151604,-92.99055
"65325","Cole Camp","MO",38.451021,-93.19156
"65326","Edwards","MO",38.203621,-93.14236
"65327","Emma","MO",38.972563,-93.49429
"65329","Florence","MO",38.609313,-92.97655
"65330","Gilliam","MO",39.226389,-92.96214
"65332","Green Ridge","MO",38.61917,-93.41123
"65333","Houstonia","MO",38.901528,-93.32101
"65334","Hughesville","MO",38.825456,-93.25182
"65335","Ionia","MO",38.503623,-93.33085
"65336","Knob Noster","MO",38.76699,-93.56712
"65337","La Monte","MO",38.780854,-93.4275
"65338","Lincoln","MO",38.34463,-93.26634
"65339","Malta Bend","MO",39.180956,-93.37889
"65340","Marshall","MO",39.10518,-93.18783
"65344","Miami","MO",39.310853,-93.22589
"65345","Mora","MO",38.55338,-93.11417
"65347","Nelson","MO",38.99158,-93.04083
"65348","Otterville","MO",38.708894,-92.99077
"65349","Slater","MO",39.221658,-93.06252
"65350","Smithton","MO",38.671012,-93.09353
"65351","Sweet Springs","MO",38.982222,-93.40798
"65354","Syracuse","MO",38.675515,-92.9168
"65355","Warsaw","MO",38.242861,-93.36354
"65360","Windsor","MO",38.525725,-93.51705
"65401","Rolla","MO",37.94384,-91.77105
"65402","Rolla","MO",37.963208,-91.817936
"65409","Rolla","MO",37.876191,-91.777182
"65432","Cuba","MO",38.062095,-91.391848
"65433","Bendavis","MO",37.309426,-92.214372
"65436","Beulah","MO",37.624096,-91.96543
"65438","Birch Tree","MO",36.95653,-91.49134
"65439","Bixby","MO",37.672965,-91.1097
"65440","Boss","MO",37.615344,-91.1704
"65441","Bourbon","MO",38.126316,-91.20688
"65443","Brinktown","MO",38.125349,-92.08435
"65444","Bucyrus","MO",37.365975,-92.07367
"65446","Cherryville","MO",37.817055,-91.26828
"65449","Cook Station","MO",37.85017,-91.49431
"65452","Crocker","MO",37.95348,-92.26091
"65453","Cuba","MO",38.092097,-91.4163
"65456","Davisville","MO",37.780711,-91.19197
"65457","Devils Elbow","MO",37.829068,-92.05671
"65459","Dixon","MO",37.990962,-92.09833
"65461","Duke","MO",37.68574,-92.04337
"65462","Edgar Springs","MO",37.693916,-91.83904
"65463","Eldridge","MO",37.84762,-92.7831
"65464","Elk Creek","MO",37.191845,-91.91627
"65466","Eminence","MO",37.165828,-91.36574
"65468","Eunice","MO",37.260073,-91.79134
"65470","Falcon","MO",37.532445,-92.39099
"65473","Fort Leonard Wood","MO",37.737264,-92.12685
"65479","Hartshorn","MO",37.353209,-91.63376
"65483","Houston","MO",37.316088,-91.95471
"65484","Huggins","MO",37.366219,-92.20608
"65486","Iberia","MO",38.10273,-92.30496
"65495","Dixon","MO",37.995489,-92.101845
"65501","Jadwin","MO",37.464282,-91.54342
"65529","Jerome","MO",37.926116,-91.98054
"65530","Gilliam","MO",39.235169,-93.001374
"65532","Lake Spring","MO",37.782433,-91.67142
"65534","Laquey","MO",37.689335,-92.28363
"65535","Leasburg","MO",38.091816,-91.29375
"65536","Lebanon","MO",37.678528,-92.64733
"65540","Lecoma","MO",37.767937,-91.75234
"65541","Lenox","MO",37.622778,-91.76321
"65542","Licking","MO",37.489718,-91.87351
"65543","Lynchburg","MO",37.47449,-92.2971
"65546","Montier","MO",37.153294,-91.337506
"65548","Mountain View","MO",36.996408,-91.71697
"65550","Newburg","MO",37.862197,-91.93811
"65552","Plato","MO",37.545213,-92.17323
"65555","Raymondville","MO",37.37815,-91.78576
"65556","Richland","MO",37.828549,-92.40512
"65557","Roby","MO",37.508599,-92.09108
"65559","Saint James","MO",38.011872,-91.61179
"65560","Salem","MO",37.630896,-91.51423
"65564","Solo","MO",37.241589,-91.97203
"65565","Steelville","MO",37.919808,-91.25495
"65566","Viburnum","MO",37.716972,-91.13438
"65567","Stoutland","MO",37.840129,-92.5161
"65570","Success","MO",37.465392,-92.09651
"65571","Summersville","MO",37.184223,-91.65064
"65572","Swedeborg","MO",37.81186,-92.217391
"65573","Teresita","MO",37.153294,-91.337506
"65575","West Plains","MO",36.741969,-91.851732
"65580","Vichy","MO",38.10675,-91.7742
"65582","Vienna","MO",38.175146,-91.94655
"65583","Waynesville","MO",37.820367,-92.19165
"65584","St. Robert","MO",37.827415,-92.135741
"65586","Wesco","MO",37.858464,-91.426693
"65587","Waynesville","MO",37.805756,-92.22218
"65588","Winona","MO",36.996441,-91.30515
"65589","Yukon","MO",37.246525,-91.82976
"65590","Long Lane","MO",37.61082,-92.94184
"65591","Montreal","MO",37.97957,-92.59117
"65601","Aldrich","MO",37.537425,-93.57069
"65602","Springfield","MO",37.859361,-92.705545
"65603","Arcola","MO",37.557203,-93.86589
"65604","Ash Grove","MO",37.270684,-93.59815
"65605","Aurora","MO",36.918018,-93.71063
"65606","Alton","MO",36.679742,-91.36286
"65607","Caplinger Mills","MO",37.736871,-93.842468
"65608","Ava","MO",36.921199,-92.66205
"65609","Bakersfield","MO",36.527558,-92.14776
"65610","Billings","MO",37.042293,-93.52526
"65611","Blue Eye","MO",36.54602,-93.34364
"65612","Bois D Arc","MO",37.218244,-93.53629
"65613","Bolivar","MO",37.616822,-93.40072
"65614","Bradleyville","MO",36.734544,-92.89942
"65615","Branson","MO",36.660981,-93.235798
"65616","Branson","MO",36.64417,-93.25668
"65617","Brighton","MO",37.436062,-93.34884
"65618","Brixey","MO",36.755168,-92.38351
"65619","Brookline Station","MO",37.134829,-93.38497
"65620","Bruner","MO",37.020827,-92.94999
"65622","Buffalo","MO",37.630577,-93.10129
"65623","Butterfield","MO",36.749457,-93.90647
"65624","Cape Fair","MO",36.725025,-93.50573
"65625","Cassville","MO",36.681589,-93.85105
"65626","Caulfield","MO",36.610463,-92.14245
"65627","Cedarcreek","MO",36.569847,-93.01139
"65629","Chadwick","MO",36.897807,-93.00082
"65630","Chestnutridge","MO",36.829356,-93.20341
"65631","Clever","MO",37.015404,-93.43738
"65632","Conway","MO",37.494752,-92.83345
"65633","Crane","MO",36.901929,-93.53989
"65634","Cross Timbers","MO",38.015379,-93.195
"65635","Dadeville","MO",37.508827,-93.70554
"65636","Diggins","MO",37.277247,-92.877874
"65637","Dora","MO",36.753498,-92.17819
"65638","Drury","MO",36.851944,-92.33081
"65640","Dunnegan","MO",37.707827,-93.5614
"65641","Eagle Rock","MO",36.536324,-93.73134
"65644","Elkland","MO",37.509611,-93.03846
"65645","Eudora","MO",37.476695,-93.539707
"65646","Everton","MO",37.339631,-93.70745
"65647","Exeter","MO",36.690297,-93.98011
"65648","Fair Grove","MO",37.391275,-93.16252
"65649","Fair Play","MO",37.618579,-93.61158
"65650","Flemington","MO",37.802535,-93.44334
"65652","Fordland","MO",37.145969,-92.94888
"65653","Forsyth","MO",36.706492,-93.11171
"65654","Freistatt","MO",37.021147,-93.897434
"65655","Gainesville","MO",36.606281,-92.43342
"65656","Galena","MO",36.771898,-93.48394
"65657","Garrison","MO",36.839078,-93.00809
"65658","Golden","MO",36.557301,-93.64371
"65659","Goodson","MO",37.746461,-93.2482
"65660","Graff","MO",37.330625,-92.27211
"65661","Greenfield","MO",37.439717,-93.83934
"65662","Grovespring","MO",37.465808,-92.58794
"65663","Half Way","MO",37.586048,-93.23617
"65664","Halltown","MO",37.193688,-93.62758
"65666","Hardenville","MO",36.651607,-92.442341
"65667","Hartville","MO",37.302013,-92.50741
"65668","Hermitage","MO",37.913567,-93.30305
"65669","Highlandville","MO",36.923067,-93.30696
"65672","Hollister","MO",36.600309,-93.23552
"65673","Hollister","MO",36.617892,-93.216187
"65674","Humansville","MO",37.793322,-93.59877
"65675","Hurley","MO",36.930861,-93.49861
"65676","Isabella","MO",36.569901,-92.62804
"65679","Kirbyville","MO",36.603318,-93.11007
"65680","Kissee Mills","MO",36.660582,-93.01608
"65681","Lampe","MO",36.561455,-93.46715
"65682","Lockwood","MO",37.411943,-93.96162
"65684","Morris","MO",37.298292,-92.162456
"65685","Louisburg","MO",37.751804,-93.16513
"65686","Kimberling City","MO",36.63101,-93.43392
"65688","Brandsville","MO",36.648817,-91.697596
"65689","Cabool","MO",37.132577,-92.09857
"65690","Couch","MO",36.58466,-91.30687
"65692","Koshkonong","MO",36.602467,-91.64615
"65701","McClurg","MO",36.79589,-92.77286
"65702","Macomb","MO",37.073473,-92.4949
"65704","Mansfield","MO",37.128682,-92.5821
"65705","Marionville","MO",37.007586,-93.61839
"65706","Marshfield","MO",37.330958,-92.90929
"65707","Miller","MO",37.220289,-93.84181
"65708","Monett","MO",36.91816,-93.91488
"65710","Morrisville","MO",37.487034,-93.42709
"65711","Mountain Grove","MO",37.176376,-92.27609
"65712","Mount Vernon","MO",37.101742,-93.80738
"65713","Niangua","MO",37.412437,-92.76311
"65714","Nixa","MO",37.045593,-93.30563
"65715","Noble","MO",36.733415,-92.58195
"65717","Norwood","MO",37.093694,-92.41231
"65720","Oldfield","MO",36.935499,-92.93715
"65721","Ozark","MO",37.021086,-93.21541
"65722","Phillipsburg","MO",37.582527,-92.76541
"65723","Pierce City","MO",36.956471,-94.02134
"65724","Pittsburg","MO",37.85245,-93.31817
"65725","Pleasant Hope","MO",37.43378,-93.26457
"65726","Point Lookout","MO",36.616515,-93.241839
"65727","Polk","MO",37.789907,-93.27802
"65728","Ponce De Leon","MO",36.87478,-93.34371
"65729","Pontiac","MO",36.525433,-92.59234
"65730","Powell","MO",36.618869,-94.156
"65731","Powersite","MO",36.655356,-93.12274
"65732","Preston","MO",37.93345,-93.17887
"65734","Purdy","MO",36.795164,-93.94164
"65735","Quincy","MO",38.059763,-93.48502
"65737","Reeds Spring","MO",36.693007,-93.37153
"65738","Republic","MO",37.124302,-93.47407
"65739","Ridgedale","MO",36.531361,-93.28199
"65740","Rockaway Beach","MO",36.713014,-93.16335
"65741","Rockbridge","MO",36.651607,-92.442341
"65742","Rogersville","MO",37.122896,-93.0784
"65744","Rueter","MO",36.614975,-92.89513
"65745","Seligman","MO",36.530992,-93.95233
"65746","Seymour","MO",37.157055,-92.78857
"65747","Shell Knob","MO",36.587559,-93.58793
"65752","South Greenfield","MO",37.343226,-93.82877
"65753","Sparta","MO",37.000766,-93.07945
"65754","Spokane","MO",36.850549,-93.30942
"65755","Squires","MO",36.802445,-92.62563
"65756","Stotts City","MO",37.103672,-93.95502
"65757","Strafford","MO",37.281619,-93.10971
"65759","Taneyville","MO",36.739739,-93.02965
"65760","Tecumseh","MO",36.606892,-92.26753
"65762","Thornfield","MO",36.681335,-92.66205
"65764","Tunas","MO",37.827158,-92.98423
"65765","Turners","MO",37.25807,-93.343673
"65766","Udall","MO",36.545211,-92.25803
"65767","Urbana","MO",37.844753,-93.17456
"65768","Vanzant","MO",36.919476,-92.25917
"65769","Verona","MO",36.935443,-93.78328
"65770","Walnut Grove","MO",37.410221,-93.54065
"65771","Walnut Shade","MO",36.773538,-93.21227
"65772","Washburn","MO",36.619334,-94.01825
"65773","Wasola","MO",36.757025,-92.53414
"65774","Weaubleau","MO",37.914579,-93.49803
"65775","West Plains","MO",36.719145,-91.87408
"65776","South Fork","MO",36.629135,-91.986785
"65777","Moody","MO",36.524268,-91.98863
"65778","Myrtle","MO",36.531635,-91.29933
"65779","Wheatland","MO",37.939779,-93.38237
"65781","Willard","MO",37.340995,-93.4179
"65783","Windyville","MO",37.715074,-92.92425
"65784","Zanoni","MO",36.695557,-92.32949
"65785","Stockton","MO",37.703022,-93.80653
"65786","Macks Creek","MO",37.968547,-92.9428
"65787","Roach","MO",38.067095,-92.88033
"65788","Peace Valley","MO",36.801103,-91.70972
"65789","Pomona","MO",36.857128,-91.88978
"65790","Pottersville","MO",36.679277,-92.10602
"65791","Thayer","MO",36.543362,-91.52391
"65793","Willow Springs","MO",36.996755,-91.95796
"65801","Springfield","MO",37.25807,-93.343673
"65802","Springfield","MO",37.212639,-93.31817
"65803","Springfield","MO",37.257053,-93.29015
"65804","Springfield","MO",37.161299,-93.2519
"65805","Springfield","MO",37.25807,-93.343673
"65806","Springfield","MO",37.206624,-93.29923
"65807","Springfield","MO",37.168435,-93.31297
"65808","Springfield","MO",37.25807,-93.343673
"65809","Springfield","MO",37.167282,-93.20199
"65810","Springfield","MO",37.120301,-93.31461
"65814","Springfield","MO",37.25807,-93.343673
"65817","Springfield","MO",37.25807,-93.343673
"65890","Springfield","MO",37.25807,-93.343673
"65897","Springfield","MO",37.19,-93.27
"65898","Springfield","MO",37.180349,-93.295137
"65899","Springfield","MO",37.181498,-93.259586
