"zip","city","state","latitude","longitude"
"00501","Holtsville","NY",40.922326,-72.637078
"00544","Holtsville","NY",40.922326,-72.637078
"06390","Fishers Island","NY",41.261936,-72.00708
"10001","New York","NY",40.750742,-73.99653
"10002","New York","NY",40.71704,-73.987
"10003","New York","NY",40.732509,-73.98935
"10005","New York","NY",40.706019,-74.00858
"10006","New York","NY",40.707904,-74.01342
"10007","New York","NY",40.714754,-74.00721
"10008","New York","NY",40.780751,-73.977182
"10009","New York","NY",40.727093,-73.97864
"10010","New York","NY",40.739022,-73.98205
"10011","New York","NY",40.741012,-74.00012
"10012","New York","NY",40.72596,-73.99834
"10013","New York","NY",40.720666,-74.00526
"10014","New York","NY",40.734718,-74.00532
"10015","New York","NY",40.780751,-73.977182
"10016","New York","NY",40.74618,-73.97759
"10017","New York","NY",40.752159,-73.97231
"10018","New York","NY",40.755101,-73.99337
"10019","New York","NY",40.765714,-73.9856
"10020","New York","NY",40.758667,-73.98024
"10021","New York","NY",40.76842,-73.96045
"10022","New York","NY",40.759015,-73.96732
"10023","New York","NY",40.776099,-73.98285
"10024","New York","NY",40.786387,-73.97709
"10025","New York","NY",40.798502,-73.96811
"10026","New York","NY",40.802853,-73.95471
"10027","New York","NY",40.812665,-73.95499
"10028","New York","NY",40.776777,-73.9541
"10029","New York","NY",40.791586,-73.94575
"10030","New York","NY",40.818151,-73.94351
"10031","New York","NY",40.826201,-73.94879
"10032","New York","NY",40.840686,-73.94154
"10033","New York","NY",40.848764,-73.93496
"10034","New York","NY",40.867653,-73.92
"10035","New York","NY",40.802395,-73.93359
"10036","New York","NY",40.759511,-73.99019
"10037","New York","NY",40.813385,-73.93616
"10038","New York","NY",40.709677,-74.00365
"10039","New York","NY",40.826181,-73.9371
"10040","New York","NY",40.858704,-73.92853
"10041","New York","NY",40.703042,-74.01009
"10043","New York","NY",40.780751,-73.977182
"10044","New York","NY",40.762174,-73.94917
"10045","New York","NY",40.70859,-74.008687
"10046","New York","NY",40.780751,-73.977182
"10047","New York","NY",40.780751,-73.977182
"10048","New York","NY",40.712086,-74.01227
"10055","New York","NY",40.780751,-73.977182
"10060","New York","NY",40.780751,-73.977182
"10065","New York","NY",40.76,-73.96
"10069","New York","NY",40.775477,-73.9905
"10072","New York","NY",40.780751,-73.977182
"10075","New York","NY",40.77,-73.95
"10079","New York","NY",40.780751,-73.977182
"10080","New York","NY",40.780751,-73.977182
"10081","New York","NY",40.780751,-73.977182
"10082","New York","NY",40.780751,-73.977182
"10087","New York","NY",40.780751,-73.977182
"10090","New York","NY",40.780751,-73.977182
"10094","New York","NY",40.780751,-73.977182
"10095","New York","NY",40.748181,-73.988421
"10096","New York","NY",40.780751,-73.977182
"10098","New York","NY",40.748181,-73.988421
"10099","New York","NY",40.780751,-73.977182
"10101","New York","NY",40.780751,-73.977182
"10102","New York","NY",40.780751,-73.977182
"10103","New York","NY",40.760915,-73.97785
"10104","New York","NY",40.760943,-73.979908
"10105","New York","NY",40.762808,-73.978534
"10106","New York","NY",40.765243,-73.980438
"10107","New York","NY",40.766429,-73.982728
"10108","New York","NY",40.780751,-73.977182
"10109","New York","NY",40.780751,-73.977182
"10110","New York","NY",40.753987,-73.980811
"10111","New York","NY",40.759235,-73.97775
"10112","New York","NY",40.759291,-73.97979
"10113","New York","NY",40.780751,-73.977182
"10114","New York","NY",40.780751,-73.977182
"10115","New York","NY",40.810906,-73.96375
"10116","New York","NY",40.780751,-73.977182
"10117","New York","NY",40.780751,-73.977182
"10118","New York","NY",40.748998,-73.986467
"10119","New York","NY",40.750824,-73.99289
"10120","New York","NY",40.750629,-73.989426
"10121","New York","NY",40.74964,-73.991889
"10122","New York","NY",40.751757,-73.992171
"10123","New York","NY",40.751489,-73.990537
"10124","New York","NY",40.780751,-73.977182
"10125","New York","NY",40.780751,-73.977182
"10126","New York","NY",40.780751,-73.977182
"10128","New York","NY",40.781894,-73.95039
"10129","New York","NY",40.780751,-73.977182
"10130","New York","NY",40.780751,-73.977182
"10131","New York","NY",40.780751,-73.977182
"10132","New York","NY",40.780751,-73.977182
"10133","New York","NY",40.780751,-73.977182
"10138","New York","NY",40.780751,-73.977182
"10149","New York","NY",40.780751,-73.977182
"10150","New York","NY",40.780751,-73.977182
"10151","New York","NY",40.763419,-73.973971
"10152","New York","NY",40.758611,-73.97223
"10153","New York","NY",40.763742,-73.97268
"10154","New York","NY",40.757986,-73.97267
"10155","New York","NY",40.761104,-73.968036
"10156","New York","NY",40.780751,-73.977182
"10157","New York","NY",40.780751,-73.977182
"10158","New York","NY",40.749435,-73.9758
"10159","New York","NY",40.780751,-73.977182
"10160","New York","NY",40.780751,-73.977182
"10161","New York","NY",40.780751,-73.977182
"10162","New York","NY",40.769334,-73.94893
"10163","New York","NY",40.780751,-73.977182
"10164","New York","NY",40.780751,-73.977182
"10165","New York","NY",40.752354,-73.9789
"10166","New York","NY",40.754591,-73.976238
"10167","New York","NY",40.754862,-73.97495
"10168","New York","NY",40.751933,-73.976794
"10169","New York","NY",40.754463,-73.97606
"10170","New York","NY",40.752859,-73.97608
"10171","New York","NY",40.756099,-73.97401
"10172","New York","NY",40.755494,-73.97447
"10173","New York","NY",40.754302,-73.97955
"10174","New York","NY",40.751656,-73.97516
"10175","New York","NY",40.754305,-73.979782
"10176","New York","NY",40.75557,-73.978877
"10177","New York","NY",40.755345,-73.97609
"10178","New York","NY",40.751378,-73.978507
"10179","New York","NY",40.780751,-73.977182
"10184","New York","NY",40.780751,-73.977182
"10185","New York","NY",40.780751,-73.977182
"10196","New York","NY",40.780751,-73.977182
"10197","New York","NY",40.780751,-73.977182
"10199","New York","NY",40.750308,-74.00058
"10200","New York","NY",40.77,73.95
"10203","New York","NY",40.780751,-73.977182
"10211","New York","NY",40.780751,-73.977182
"10212","New York","NY",40.780751,-73.977182
"10213","New York","NY",40.780751,-73.977182
"10242","New York","NY",40.780751,-73.977182
"10249","New York","NY",40.780751,-73.977182
"10250","New York","NY",40.709387,-74.016529
"10256","New York","NY",40.780751,-73.977182
"10257","New York","NY",40.780751,-73.977182
"10258","New York","NY",40.780751,-73.977182
"10259","New York","NY",40.780751,-73.977182
"10260","New York","NY",40.780751,-73.977182
"10261","New York","NY",40.780751,-73.977182
"10265","New York","NY",40.780751,-73.977182
"10268","New York","NY",40.780751,-73.977182
"10269","New York","NY",40.780751,-73.977182
"10270","New York","NY",40.706925,-74.008154
"10271","New York","NY",40.708669,-74.01043
"10272","New York","NY",40.780751,-73.977182
"10273","New York","NY",40.780751,-73.977182
"10274","New York","NY",40.780751,-73.977182
"10275","New York","NY",40.780751,-73.977182
"10276","New York","NY",40.780751,-73.977182
"10277","New York","NY",40.780751,-73.977182
"10278","New York","NY",40.715721,-74.00395
"10279","New York","NY",40.713062,-74.00857
"10280","New York","NY",40.707467,-74.0178
"10281","New York","NY",40.714643,-74.014958
"10282","New York","NY",40.717179,-74.01433
"10285","New York","NY",40.71533,-74.016306
"10286","New York","NY",40.714231,-74.011895
"10292","New York","NY",40.780751,-73.977182
"10301","Staten Island","NY",40.631775,-74.09432
"10302","Staten Island","NY",40.631127,-74.13715
"10303","Staten Island","NY",40.629448,-74.16239
"10304","Staten Island","NY",40.60787,-74.08991
"10305","Staten Island","NY",40.599021,-74.07503
"10306","Staten Island","NY",40.569394,-74.11785
"10307","Staten Island","NY",40.508274,-74.24387
"10308","Staten Island","NY",40.551353,-74.15098
"10309","Staten Island","NY",40.529749,-74.21304
"10310","Staten Island","NY",40.63212,-74.11551
"10311","Staten Island","NY",40.605245,-74.179485
"10312","Staten Island","NY",40.543117,-74.17628
"10313","Staten Island","NY",40.564393,-74.146836
"10314","Staten Island","NY",40.606337,-74.14513
"10422","New York","NY",40.828279,-73.869454
"10451","Bronx","NY",40.819729,-73.9223
"10452","Bronx","NY",40.838745,-73.92234
"10453","Bronx","NY",40.853017,-73.91214
"10454","Bronx","NY",40.805968,-73.91628
"10455","Bronx","NY",40.815559,-73.90771
"10456","Bronx","NY",40.829676,-73.90856
"10457","Bronx","NY",40.846745,-73.89861
"10458","Bronx","NY",40.864166,-73.88881
"10459","Bronx","NY",40.825432,-73.89327
"10460","Bronx","NY",40.84095,-73.88036
"10461","Bronx","NY",40.842917,-73.83819
"10462","Bronx","NY",40.842173,-73.85862
"10463","Bronx","NY",40.881086,-73.90749
"10464","Bronx","NY",40.857017,-73.78903
"10465","Bronx","NY",40.825727,-73.81752
"10466","Bronx","NY",40.89095,-73.84702
"10467","Bronx","NY",40.872265,-73.86937
"10468","Bronx","NY",40.867107,-73.89916
"10469","Bronx","NY",40.868643,-73.84735
"10470","Bronx","NY",40.900629,-73.86072
"10471","Bronx","NY",40.900819,-73.90347
"10472","Bronx","NY",40.830409,-73.86845
"10473","Bronx","NY",40.818514,-73.85893
"10474","Bronx","NY",40.81321,-73.88755
"10475","Bronx","NY",40.878522,-73.82541
"10499","Bronx","NY",40.851549,-73.840908
"10501","Amawalk","NY",41.289939,-73.76493
"10502","Ardsley","NY",41.011324,-73.84152
"10503","Ardsley On Hudson","NY",41.024855,-73.87513
"10504","Armonk","NY",41.129908,-73.70352
"10505","Baldwin Place","NY",41.33431,-73.749244
"10506","Bedford","NY",41.195778,-73.62777
"10507","Bedford Hills","NY",41.236931,-73.69018
"10509","Brewster","NY",41.41362,-73.59556
"10510","Briarcliff Manor","NY",41.146297,-73.83311
"10511","Buchanan","NY",41.260283,-73.94033
"10512","Carmel","NY",41.444833,-73.6845
"10514","Chappaqua","NY",41.167455,-73.77597
"10516","Cold Spring","NY",41.440695,-73.9314
"10517","Crompond","NY",41.300561,-73.861217
"10518","Cross River","NY",41.269072,-73.60493
"10519","Croton Falls","NY",41.34598,-73.66199
"10520","Croton On Hudson","NY",41.215541,-73.88543
"10521","Croton On Hudson","NY",41.234256,-73.926165
"10522","Dobbs Ferry","NY",41.012729,-73.86602
"10523","Elmsford","NY",41.057089,-73.81658
"10524","Garrison","NY",41.363063,-73.92154
"10526","Goldens Bridge","NY",41.294561,-73.66701
"10527","Granite Springs","NY",41.319026,-73.7576
"10528","Harrison","NY",40.972667,-73.71886
"10530","Hartsdale","NY",41.025114,-73.80635
"10532","Hawthorne","NY",41.103664,-73.7958
"10533","Irvington","NY",41.039005,-73.8635
"10535","Jefferson Valley","NY",41.331173,-73.80208
"10536","Katonah","NY",41.265478,-73.68512
"10537","Lake Peekskill","NY",41.337335,-73.88689
"10538","Larchmont","NY",40.933089,-73.75615
"10540","Lincolndale","NY",41.333398,-73.724257
"10541","Mahopac","NY",41.372419,-73.75367
"10542","Mahopac Falls","NY",41.372581,-73.760132
"10543","Mamaroneck","NY",40.952892,-73.7346
"10545","Maryknoll","NY",41.119008,-73.732996
"10546","Millwood","NY",41.199502,-73.79269
"10547","Mohegan Lake","NY",41.314676,-73.85118
"10548","Montrose","NY",41.248359,-73.94147
"10549","Mount Kisco","NY",41.204027,-73.73045
"10550","Mount Vernon","NY",40.907607,-73.83709
"10551","Mount Vernon","NY",41.119008,-73.732996
"10552","Mount Vernon","NY",40.924195,-73.82614
"10553","Mount Vernon","NY",40.909288,-73.8215
"10557","Mount Vernon","NY",41.119008,-73.732996
"10558","Mount Vernon","NY",41.119008,-73.732996
"10559","Mount Vernon","NY",41.119008,-73.732996
"10560","North Salem","NY",41.32797,-73.61306
"10562","Ossining","NY",41.176837,-73.84741
"10566","Peekskill","NY",41.288258,-73.91928
"10567","Cortlandt Manor","NY",41.300813,-73.8908
"10570","Pleasantville","NY",41.132367,-73.78922
"10571","Pleasantville","NY",41.119008,-73.732996
"10572","Pleasantville","NY",41.119008,-73.732996
"10573","Port Chester","NY",41.010376,-73.67326
"10576","Pound Ridge","NY",41.212954,-73.58409
"10577","Purchase","NY",41.037203,-73.71588
"10578","Purdys","NY",41.3252,-73.66906
"10579","Putnam Valley","NY",41.390356,-73.8377
"10580","Rye","NY",40.976579,-73.69002
"10581","Rye","NY",41.119008,-73.732996
"10583","Scarsdale","NY",40.98845,-73.79716
"10586","Greenville","NY",40.997751,-73.820321
"10587","Shenorock","NY",41.328737,-73.742268
"10588","Shrub Oak","NY",41.330178,-73.82973
"10589","Somers","NY",41.331587,-73.69234
"10590","South Salem","NY",41.256639,-73.54076
"10591","Tarrytown","NY",41.080196,-73.85721
"10592","Tarrytown","NY",41.119008,-73.732996
"10594","Thornwood","NY",41.120025,-73.77687
"10595","Valhalla","NY",41.083848,-73.77785
"10596","Verplanck","NY",41.254823,-73.958727
"10597","Waccabuc","NY",41.289162,-73.58834
"10598","Yorktown Heights","NY",41.296874,-73.78934
"10601","White Plains","NY",41.032489,-73.76454
"10602","White Plains","NY",41.119008,-73.732996
"10603","White Plains","NY",41.053182,-73.77672
"10604","West Harrison","NY",41.045387,-73.74451
"10605","White Plains","NY",41.01002,-73.75158
"10606","White Plains","NY",41.024107,-73.77808
"10607","White Plains","NY",41.041191,-73.80953
"10610","White Plains","NY",41.119008,-73.732996
"10625","White Plains","NY",41.119008,-73.732996
"10629","White Plains","NY",41.119008,-73.732996
"10633","White Plains","NY",41.119008,-73.732996
"10650","White Plains","NY",41.013696,-73.705975
"10701","Yonkers","NY",40.943525,-73.88176
"10702","Yonkers","NY",41.119008,-73.732996
"10703","Yonkers","NY",40.956546,-73.8799
"10704","Yonkers","NY",40.920273,-73.8612
"10705","Yonkers","NY",40.917281,-73.89142
"10706","Hastings On Hudson","NY",40.992084,-73.8729
"10707","Tuckahoe","NY",40.958689,-73.82363
"10708","Bronxville","NY",40.939049,-73.83099
"10709","Eastchester","NY",40.953849,-73.81143
"10710","Yonkers","NY",40.96555,-73.84506
"10730","Woodbury","NY",41.358899,-74.122951
"10801","New Rochelle","NY",40.915845,-73.78643
"10802","New Rochelle","NY",40.948274,-73.795361
"10803","Pelham","NY",40.902221,-73.80717
"10804","Wykagyl","NY",40.946805,-73.78797
"10805","New Rochelle","NY",40.897783,-73.77933
"10901","Suffern","NY",41.125695,-74.12682
"10910","Arden","NY",41.386195,-74.125718
"10911","Bear Mountain","NY",41.160945,-74.060826
"10912","Bellvale","NY",41.387822,-74.354699
"10913","Blauvelt","NY",41.062779,-73.96016
"10914","Blooming Grove","NY",41.464867,-74.255646
"10915","Bullville","NY",41.555634,-74.328805
"10916","Campbell Hall","NY",41.451074,-74.24346
"10917","Central Valley","NY",41.322344,-74.12354
"10918","Chester","NY",41.35648,-74.26072
"10919","Circleville","NY",41.525781,-74.37907
"10920","Congers","NY",41.149245,-73.94287
"10921","Florida","NY",41.332519,-74.35931
"10922","Fort Montgomery","NY",41.334557,-73.99175
"10923","Garnerville","NY",41.204544,-74.00161
"10924","Goshen","NY",41.38928,-74.3337
"10925","Greenwood Lake","NY",41.211794,-74.29778
"10926","Harriman","NY",41.299334,-74.14049
"10927","Haverstraw","NY",41.196044,-73.96836
"10928","Highland Falls","NY",41.360336,-73.97293
"10930","Highland Mills","NY",41.35805,-74.12096
"10931","Hillburn","NY",41.126395,-74.16718
"10932","Howells","NY",41.485227,-74.484249
"10933","Johnson","NY",41.365286,-74.510918
"10940","Middletown","NY",41.449364,-74.43951
"10941","Middletown","NY",41.478028,-74.35844
"10943","Middletown","NY",41.387822,-74.354699
"10946","Wallkill","NY",41.507236,-74.412119
"10949","Monroe","NY",41.33,-74.19
"10950","Monroe","NY",41.323547,-74.19531
"10952","Monsey","NY",41.116162,-74.07556
"10953","Mountainville","NY",41.409284,-74.083045
"10954","Nanuet","NY",41.100182,-74.0133
"10956","New City","NY",41.145495,-73.9949
"10957","Lewisboro","NY",41.308218,-73.613803
"10958","New Hampton","NY",41.384738,-74.41571
"10959","New Milford","NY",41.387822,-74.354699
"10960","Nyack","NY",41.089746,-73.9258
"10962","Orangeburg","NY",41.047996,-73.96215
"10963","Otisville","NY",41.475197,-74.53847
"10964","Palisades","NY",41.011464,-73.92585
"10965","Pearl River","NY",41.063329,-74.01734
"10968","Piermont","NY",41.040623,-73.91878
"10969","Pine Island","NY",41.295568,-74.48935
"10970","Pomona","NY",41.192394,-74.04523
"10973","Slate Hill","NY",41.391172,-74.47758
"10974","Sloatsburg","NY",41.156095,-74.19214
"10975","Southfields","NY",41.246428,-74.17141
"10976","Sparkill","NY",41.028647,-73.92817
"10977","Spring Valley","NY",41.116795,-74.04504
"10979","Sterling Forest","NY",41.182344,-74.318354
"10980","Stony Point","NY",41.231408,-74.01157
"10981","Sugar Loaf","NY",41.323172,-74.288565
"10982","Tallman","NY",41.160945,-74.060826
"10983","Tappan","NY",41.025897,-73.95118
"10984","Thiells","NY",41.208327,-74.02105
"10985","Thompson Ridge","NY",41.580793,-74.37451
"10986","Tomkins Cove","NY",41.271543,-73.98676
"10987","Tuxedo Park","NY",41.197123,-74.21069
"10988","Unionville","NY",41.314931,-74.550346
"10989","Valley Cottage","NY",41.119788,-73.94455
"10990","Warwick","NY",41.259896,-74.35837
"10992","Washingtonville","NY",41.428269,-74.16178
"10993","West Haverstraw","NY",41.207594,-73.97772
"10994","West Nyack","NY",41.097529,-73.96996
"10995","West Nyack","NY",41.160945,-74.060826
"10996","West Point","NY",41.376109,-73.9788
"10997","West Point","NY",41.387822,-74.354699
"10998","Westtown","NY",41.334034,-74.54593
"11001","Floral Park","NY",40.7232,-73.70475
"11002","Floral Park","NY",40.754757,-73.601772
"11003","Elmont","NY",40.700529,-73.70223
"11004","Glen Oaks","NY",40.742944,-73.70956
"11005","Floral Park","NY",40.756983,-73.7148
"11010","Franklin Square","NY",40.701702,-73.67562
"11020","Great Neck","NY",40.771082,-73.71819
"11021","Great Neck","NY",40.787068,-73.72577
"11022","Great Neck","NY",40.754757,-73.601772
"11023","Great Neck","NY",40.798839,-73.73352
"11024","Great Neck","NY",40.812887,-73.74094
"11025","Great Neck","NY",40.754757,-73.601772
"11026","Great Neck","NY",40.754757,-73.601772
"11027","Great Neck","NY",40.754757,-73.601772
"11030","Manhasset","NY",40.796752,-73.68935
"11040","New Hyde Park","NY",40.742901,-73.67895
"11041","New Hyde Park","NY",40.754757,-73.601772
"11042","New Hyde Park","NY",40.760128,-73.69379
"11043","New Hyde Park","NY",40.754757,-73.601772
"11044","New Hyde Park","NY",40.754757,-73.601772
"11050","Port Washington","NY",40.833246,-73.69309
"11051","Port Washington","NY",40.754757,-73.601772
"11052","Port Washington","NY",40.754757,-73.601772
"11053","Port Washington","NY",40.754757,-73.601772
"11054","Port Washington","NY",40.754757,-73.601772
"11055","Port Washington","NY",40.754757,-73.601772
"11096","Inwood","NY",40.618206,-73.74762
"11099","New Hyde Park","NY",40.754757,-73.601772
"11101","Long Island City","NY",40.745341,-73.93907
"11102","Astoria","NY",40.771286,-73.92462
"11103","Astoria","NY",40.762968,-73.91091
"11104","Sunnyside","NY",40.743796,-73.91949
"11105","Astoria","NY",40.774686,-73.90816
"11106","Astoria","NY",40.762012,-73.93147
"11109","Long Island City","NY",40.651378,-73.870779
"11120","Long Island City","NY",40.651378,-73.870779
"11201","Brooklyn","NY",40.695286,-73.98907
"11202","Brooklyn","NY",40.645099,-73.945032
"11203","Brooklyn","NY",40.649059,-73.93304
"11204","Brooklyn","NY",40.618944,-73.98473
"11205","Brooklyn","NY",40.694214,-73.96529
"11206","Brooklyn","NY",40.702348,-73.94288
"11207","Brooklyn","NY",40.670874,-73.89424
"11208","Brooklyn","NY",40.672666,-73.87248
"11209","Brooklyn","NY",40.62327,-74.0295
"11210","Brooklyn","NY",40.627946,-73.94552
"11211","Brooklyn","NY",40.71209,-73.95427
"11212","Brooklyn","NY",40.662191,-73.91328
"11213","Brooklyn","NY",40.670937,-73.93459
"11214","Brooklyn","NY",40.598994,-73.99611
"11215","Brooklyn","NY",40.667508,-73.9856
"11216","Brooklyn","NY",40.680398,-73.94824
"11217","Brooklyn","NY",40.68209,-73.97783
"11218","Brooklyn","NY",40.644552,-73.97595
"11219","Brooklyn","NY",40.632449,-73.99629
"11220","Brooklyn","NY",40.641436,-74.01574
"11221","Brooklyn","NY",40.691234,-73.92637
"11222","Brooklyn","NY",40.726302,-73.94559
"11223","Brooklyn","NY",40.598142,-73.97229
"11224","Brooklyn","NY",40.576589,-73.99172
"11225","Brooklyn","NY",40.662892,-73.95509
"11226","Brooklyn","NY",40.645256,-73.95553
"11228","Brooklyn","NY",40.617563,-74.01168
"11229","Brooklyn","NY",40.599256,-73.94118
"11230","Brooklyn","NY",40.622994,-73.96427
"11231","Brooklyn","NY",40.6788,-74.00254
"11232","Brooklyn","NY",40.655481,-74.00424
"11233","Brooklyn","NY",40.676938,-73.91858
"11234","Brooklyn","NY",40.618561,-73.9216
"11235","Brooklyn","NY",40.583803,-73.95019
"11236","Brooklyn","NY",40.640527,-73.90362
"11237","Brooklyn","NY",40.703355,-73.91993
"11238","Brooklyn","NY",40.680145,-73.96257
"11239","Brooklyn","NY",40.645848,-73.87919
"11240","Brooklyn","NY",40.645099,-73.945032
"11241","Brooklyn","NY",40.645099,-73.945032
"11242","Brooklyn","NY",40.645099,-73.945032
"11243","Brooklyn","NY",40.645099,-73.945032
"11244","Brooklyn","NY",40.645099,-73.945032
"11245","Brooklyn","NY",40.645099,-73.945032
"11247","Brooklyn","NY",40.645099,-73.945032
"11248","Brooklyn","NY",40.645099,-73.945032
"11249","Brooklyn","NY",40.645099,-73.945032
"11251","Brooklyn","NY",40.645099,-73.945032
"11252","Brooklyn","NY",40.645099,-73.945032
"11254","Brooklyn","NY",40.645099,-73.945032
"11255","Brooklyn","NY",40.645099,-73.945032
"11256","Brooklyn","NY",40.645099,-73.945032
"11286","New York","NY",40.658825,-74.004495
"11302","New York","NY",40.75945,-73.715016
"11351","Flushing","NY",40.781703,-73.831698
"11352","Flushing","NY",40.651378,-73.870779
"11353","Flushing","NY",40.651378,-73.870779
"11354","Flushing","NY",40.767969,-73.82496
"11355","Flushing","NY",40.749463,-73.81941
"11356","College Point","NY",40.785462,-73.84366
"11357","Whitestone","NY",40.784453,-73.80922
"11358","Flushing","NY",40.760522,-73.79612
"11359","Bayside","NY",40.79278,-73.776701
"11360","Bayside","NY",40.780386,-73.78005
"11361","Bayside","NY",40.763177,-73.77392
"11362","Little Neck","NY",40.759686,-73.73322
"11363","Little Neck","NY",40.772636,-73.74644
"11364","Oakland Gardens","NY",40.746718,-73.75994
"11365","Fresh Meadows","NY",40.738983,-73.79209
"11366","Fresh Meadows","NY",40.726137,-73.79502
"11367","Flushing","NY",40.728614,-73.82145
"11368","Corona","NY",40.747106,-73.85838
"11369","East Elmhurst","NY",40.762854,-73.87051
"11370","East Elmhurst","NY",40.763015,-73.89052
"11371","Flushing","NY",40.772072,-73.87509
"11372","Jackson Heights","NY",40.750146,-73.88433
"11373","Elmhurst","NY",40.736076,-73.87804
"11374","Rego Park","NY",40.724945,-73.8609
"11375","Forest Hills","NY",40.720535,-73.84582
"11377","Woodside","NY",40.742869,-73.90377
"11378","Maspeth","NY",40.724096,-73.90271
"11379","Middle Village","NY",40.716028,-73.87925
"11380","Elmhurst","NY",40.651378,-73.870779
"11381","Flushing","NY",40.651378,-73.870779
"11385","Ridgewood","NY",40.703069,-73.89285
"11386","Ridgewood","NY",40.651378,-73.870779
"11388","Flushing","NY",40.651378,-73.870779
"11390","Flushing","NY",40.651378,-73.870779
"11405","Jamaica","NY",40.651378,-73.870779
"11411","Cambria Heights","NY",40.693538,-73.73574
"11412","Saint Albans","NY",40.697188,-73.75948
"11413","Springfield Gardens","NY",40.670138,-73.75141
"11414","Howard Beach","NY",40.658188,-73.84321
"11415","Kew Gardens","NY",40.706903,-73.82973
"11416","Ozone Park","NY",40.683301,-73.8503
"11417","Ozone Park","NY",40.675534,-73.84476
"11418","Richmond Hill","NY",40.698485,-73.83365
"11419","South Richmond Hill","NY",40.688688,-73.82216
"11420","South Ozone Park","NY",40.673138,-73.81443
"11421","Woodhaven","NY",40.69087,-73.85828
"11422","Rosedale","NY",40.662538,-73.73514
"11423","Hollis","NY",40.714261,-73.76824
"11424","Jamaica","NY",40.651378,-73.870779
"11425","Jamaica","NY",40.651378,-73.870779
"11426","Bellerose","NY",40.732239,-73.72108
"11427","Queens Village","NY",40.728235,-73.74782
"11428","Queens Village","NY",40.719981,-73.74127
"11429","Queens Village","NY",40.708833,-73.73903
"11430","Jamaica","NY",40.650519,-73.79567
"11431","Jamaica","NY",40.686903,-73.850143
"11432","Jamaica","NY",40.714144,-73.79324
"11433","Jamaica","NY",40.696538,-73.78734
"11434","Jamaica","NY",40.674888,-73.7727
"11435","Jamaica","NY",40.700068,-73.80986
"11436","Jamaica","NY",40.674146,-73.79687
"11439","Jamaica","NY",40.722008,-73.790822
"11451","Jamaica","NY",40.651378,-73.870779
"11484","Jamaica","NY",40.651378,-73.870779
"11499","Jamaica","NY",40.651378,-73.870779
"11501","Mineola","NY",40.747188,-73.63808
"11507","Albertson","NY",40.769942,-73.65004
"11509","Atlantic Beach","NY",40.589538,-73.72915
"11510","Baldwin","NY",40.654112,-73.6095
"11514","Carle Place","NY",40.750132,-73.61328
"11516","Cedarhurst","NY",40.627386,-73.72852
"11517","New York","NY",40.679845,-73.986415
"11518","East Rockaway","NY",40.639575,-73.66703
"11520","Freeport","NY",40.653935,-73.587
"11530","Garden City","NY",40.725257,-73.64056
"11531","Garden City","NY",40.754757,-73.601772
"11535","Garden City","NY",40.754757,-73.601772
"11536","Garden City","NY",40.754757,-73.601772
"11542","Glen Cove","NY",40.864757,-73.62609
"11545","Glen Head","NY",40.823957,-73.60415
"11547","Glenwood Landing","NY",40.828143,-73.64401
"11548","Greenvale","NY",40.813187,-73.62561
"11549","Hempstead","NY",40.754757,-73.601772
"11550","Hempstead","NY",40.702271,-73.61741
"11551","Hempstead","NY",40.754757,-73.601772
"11552","West Hempstead","NY",40.6949,-73.65394
"11553","Uniondale","NY",40.703502,-73.59306
"11554","East Meadow","NY",40.7143,-73.55527
"11555","Uniondale","NY",40.754757,-73.601772
"11556","Uniondale","NY",40.754757,-73.601772
"11557","Hewlett","NY",40.639534,-73.69253
"11558","Island Park","NY",40.603159,-73.65515
"11559","Lawrence","NY",40.61579,-73.73126
"11560","Locust Valley","NY",40.881957,-73.59417
"11561","Long Beach","NY",40.588154,-73.66517
"11562","Lynbrook","NY",40.665202,-73.668274
"11563","Lynbrook","NY",40.656974,-73.67306
"11564","Lynbrook","NY",40.754757,-73.601772
"11565","Malverne","NY",40.675249,-73.67298
"11566","Merrick","NY",40.666575,-73.55475
"11568","Old Westbury","NY",40.787368,-73.60119
"11569","Point Lookout","NY",40.593996,-73.58039
"11570","Rockville Centre","NY",40.663935,-73.63792
"11571","Rockville Centre","NY",40.754757,-73.601772
"11572","Oceanside","NY",40.636286,-73.6374
"11575","Roosevelt","NY",40.679413,-73.58694
"11576","Roslyn","NY",40.793839,-73.65156
"11577","Roslyn Heights","NY",40.785642,-73.64006
"11579","Sea Cliff","NY",40.846388,-73.64452
"11580","Valley Stream","NY",40.673,-73.70346
"11581","Valley Stream","NY",40.651733,-73.71079
"11582","Valley Stream","NY",40.754757,-73.601772
"11583","Valley Stream","NY",40.754757,-73.601772
"11588","Uniondale","NY",40.754757,-73.601772
"11590","Westbury","NY",40.756287,-73.57536
"11592","Rockville Centre","NY",40.621753,-73.632673
"11593","Westbury","NY",40.754757,-73.601772
"11594","Westbury","NY",40.754757,-73.601772
"11595","Westbury","NY",40.754757,-73.601772
"11596","Williston Park","NY",40.758283,-73.64259
"11597","Westbury","NY",40.754757,-73.601772
"11598","Woodmere","NY",40.633103,-73.71404
"11599","Garden City","NY",40.607574,-73.742691
"11690","Far Rockaway","NY",40.651378,-73.870779
"11691","Far Rockaway","NY",40.60002,-73.75962
"11692","Arverne","NY",40.592939,-73.79568
"11693","Far Rockaway","NY",40.596959,-73.81978
"11694","Rockaway Park","NY",40.57649,-73.84721
"11695","Far Rockaway","NY",40.651378,-73.870779
"11696","Inwood","NY",40.651378,-73.870779
"11697","Breezy Point","NY",40.560167,-73.90891
"11701","Amityville","NY",40.6851,-73.41317
"11702","Babylon","NY",40.687649,-73.32549
"11703","North Babylon","NY",40.733398,-73.32257
"11704","West Babylon","NY",40.719249,-73.35829
"11705","Bayport","NY",40.74485,-73.055
"11706","Bay Shore","NY",40.729098,-73.25607
"11707","West Babylon","NY",40.922326,-72.637078
"11708","Amityville","NY",40.922326,-72.637078
"11709","Bayville","NY",40.907277,-73.55713
"11710","Bellmore","NY",40.673438,-73.53382
"11713","Bellport","NY",40.771447,-72.94663
"11714","Bethpage","NY",40.740662,-73.48631
"11715","Blue Point","NY",40.74897,-73.03436
"11716","Bohemia","NY",40.770042,-73.11376
"11717","Brentwood","NY",40.783954,-73.24517
"11718","Brightwaters","NY",40.720746,-73.26614
"11719","Brookhaven","NY",40.780058,-72.91566
"11720","Centereach","NY",40.868946,-73.08009
"11721","Centerport","NY",40.890598,-73.37536
"11722","Central Islip","NY",40.784874,-73.19924
"11724","Cold Spring Harbor","NY",40.865731,-73.44645
"11725","Commack","NY",40.841522,-73.28001
"11726","Copiague","NY",40.680892,-73.39609
"11727","Coram","NY",40.884895,-73.00501
"11729","Deer Park","NY",40.760698,-73.33007
"11730","East Islip","NY",40.72921,-73.18073
"11731","East Northport","NY",40.865998,-73.31796
"11732","East Norwich","NY",40.848766,-73.53478
"11733","East Setauket","NY",40.932053,-73.10666
"11735","Farmingdale","NY",40.725968,-73.44151
"11736","Farmingdale","NY",40.754757,-73.601772
"11737","Farmingdale","NY",40.754757,-73.601772
"11738","Farmingville","NY",40.83469,-73.0386
"11739","Great River","NY",40.922326,-72.637078
"11740","Greenlawn","NY",40.862565,-73.36221
"11741","Holbrook","NY",40.799706,-73.07485
"11742","Holtsville","NY",40.810606,-73.04036
"11743","Huntington","NY",40.867498,-73.41146
"11745","Smithtown","NY",40.922326,-72.637078
"11746","Huntington Station","NY",40.821698,-73.37553
"11747","Melville","NY",40.791593,-73.40543
"11749","Islandia","NY",40.922326,-72.637078
"11750","Huntington Station","NY",40.922326,-72.637078
"11751","Islip","NY",40.734212,-73.21416
"11752","Islip Terrace","NY",40.754386,-73.18326
"11753","Jericho","NY",40.786544,-73.53675
"11754","Kings Park","NY",40.888497,-73.24258
"11755","Lake Grove","NY",40.855402,-73.11839
"11756","Levittown","NY",40.724883,-73.51739
"11757","Lindenhurst","NY",40.690049,-73.37442
"11758","Massapequa","NY",40.68085,-73.46289
"11760","Hauppauge","NY",40.810246,-73.191789
"11762","Massapequa Park","NY",40.68505,-73.44681
"11763","Medford","NY",40.820786,-72.98375
"11764","Miller Place","NY",40.946506,-72.98837
"11765","Mill Neck","NY",40.88889,-73.55608
"11766","Mount Sinai","NY",40.929242,-73.01317
"11767","Nesconset","NY",40.842962,-73.14303
"11768","Northport","NY",40.905647,-73.33114
"11769","Oakdale","NY",40.736011,-73.1296
"11770","Ocean Beach","NY",40.643951,-73.16115
"11771","Oyster Bay","NY",40.868882,-73.52292
"11772","Patchogue","NY",40.770898,-73.00213
"11773","Syosset","NY",40.754757,-73.601772
"11774","Farmingdale","NY",40.754757,-73.601772
"11775","Melville","NY",40.922326,-72.637078
"11776","Port Jefferson Station","NY",40.911082,-73.04966
"11777","Port Jefferson","NY",40.946103,-73.06222
"11778","Rocky Point","NY",40.954093,-72.92884
"11779","Ronkonkoma","NY",40.818826,-73.1187
"11780","Saint James","NY",40.884394,-73.15868
"11782","Sayville","NY",40.739869,-73.07198
"11783","Seaford","NY",40.679752,-73.48959
"11784","Selden","NY",40.869274,-73.04254
"11786","Shoreham","NY",40.94993,-72.89533
"11787","Smithtown","NY",40.853343,-73.20777
"11788","Hauppauge","NY",40.819266,-73.20967
"11789","Sound Beach","NY",40.955586,-72.9733
"11790","Stony Brook","NY",40.906174,-73.12748
"11791","Syosset","NY",40.815215,-73.50057
"11792","Wading River","NY",40.953261,-72.8368
"11793","Wantagh","NY",40.676649,-73.51122
"11794","Stony Brook","NY",40.922326,-72.637078
"11795","West Islip","NY",40.713459,-73.3001
"11796","West Sayville","NY",40.731954,-73.10081
"11797","Woodbury","NY",40.813801,-73.46912
"11798","Wyandanch","NY",40.752098,-73.36516
"11801","Hicksville","NY",40.763355,-73.52323
"11802","Hicksville","NY",40.754757,-73.601772
"11803","Plainview","NY",40.779911,-73.47948
"11804","Old Bethpage","NY",40.765378,-73.45781
"11805","Mid Island","NY",40.922326,-72.637078
"11815","Hicksville","NY",40.754757,-73.601772
"11819","Hicksville","NY",40.754757,-73.601772
"11853","Jericho","NY",40.754757,-73.601772
"11854","Hicksville","NY",40.754757,-73.601772
"11855","Hicksville","NY",40.754757,-73.601772
"11901","Riverhead","NY",40.926595,-72.65327
"11930","Amagansett","NY",40.985301,-72.10411
"11931","Aquebogue","NY",40.922326,-72.637078
"11932","Bridgehampton","NY",40.939075,-72.30514
"11933","Calverton","NY",40.933429,-72.74646
"11934","Center Moriches","NY",40.797772,-72.79719
"11935","Cutchogue","NY",41.012868,-72.4723
"11937","East Hampton","NY",40.995384,-72.18564
"11939","East Marion","NY",41.128923,-72.34189
"11940","East Moriches","NY",40.806287,-72.75673
"11941","Eastport","NY",40.824658,-72.72356
"11942","East Quogue","NY",40.84867,-72.57794
"11944","Greenport","NY",41.103838,-72.36729
"11946","Hampton Bays","NY",40.875897,-72.52063
"11947","Jamesport","NY",40.943323,-72.57996
"11948","Laurel","NY",40.961916,-72.55024
"11949","Manorville","NY",40.855861,-72.79736
"11950","Mastic","NY",40.80481,-72.84664
"11951","Mastic Beach","NY",40.763634,-72.84554
"11952","Mattituck","NY",40.994649,-72.53731
"11953","Middle Island","NY",40.886267,-72.9552
"11954","Montauk","NY",41.03831,-71.9506
"11955","Moriches","NY",40.805789,-72.82092
"11956","New Suffolk","NY",40.991836,-72.47505
"11957","Orient","NY",41.151826,-72.27511
"11958","Peconic","NY",41.03687,-72.45341
"11959","Quogue","NY",40.825411,-72.60506
"11960","Remsenburg","NY",40.803923,-72.70421
"11961","Ridge","NY",40.89609,-72.87824
"11962","Sagaponack","NY",40.937683,-72.26831
"11963","Sag Harbor","NY",40.99628,-72.31074
"11964","Shelter Island","NY",41.060843,-72.33159
"11965","Shelter Island Heights","NY",41.07815,-72.35093
"11967","Shirley","NY",40.794317,-72.87181
"11968","Southampton","NY",40.904348,-72.40714
"11969","Southampton","NY",40.922326,-72.637078
"11970","South Jamesport","NY",40.941363,-72.57502
"11971","Southold","NY",41.059209,-72.42041
"11972","Speonk","NY",40.8204,-72.70113
"11973","Upton","NY",40.922326,-72.637078
"11975","Wainscott","NY",40.947419,-72.24505
"11976","Water Mill","NY",40.919693,-72.34407
"11977","Westhampton","NY",40.81819,-72.67835
"11978","Westhampton Beach","NY",40.816142,-72.63449
"11980","Yaphank","NY",40.832858,-72.91611
"12007","Alcove","NY",42.482455,-73.936671
"12008","Alplaus","NY",42.853043,-73.9029
"12009","Altamont","NY",42.698692,-74.03148
"12010","Amsterdam","NY",42.940644,-74.17899
"12015","Athens","NY",42.279649,-73.81701
"12016","Auriesville","NY",42.910206,-74.423606
"12017","Austerlitz","NY",42.323565,-73.45257
"12018","Averill Park","NY",42.62742,-73.53494
"12019","Ballston Lake","NY",42.916343,-73.86657
"12020","Ballston Spa","NY",43.006309,-73.8604
"12022","Berlin","NY",42.681107,-73.3489
"12023","Berne","NY",42.610306,-74.15692
"12024","Brainard","NY",42.494981,-73.510676
"12025","Broadalbin","NY",43.07681,-74.15332
"12027","Burnt Hills","NY",42.912175,-73.90355
"12028","Buskirk","NY",42.932315,-73.44521
"12029","Canaan","NY",42.399159,-73.42757
"12031","Carlisle","NY",42.770985,-74.44694
"12032","Caroga Lake","NY",43.158567,-74.49646
"12033","Castleton On Hudson","NY",42.534631,-73.71327
"12035","Central Bridge","NY",42.722477,-74.35064
"12036","Charlotteville","NY",42.546034,-74.67315
"12037","Chatham","NY",42.346758,-73.57852
"12040","Cherry Plain","NY",42.646742,-73.371611
"12041","Clarksville","NY",42.543326,-73.97403
"12042","Climax","NY",42.403719,-73.90875
"12043","Cobleskill","NY",42.696926,-74.52436
"12045","Coeymans","NY",42.474135,-73.79335
"12046","Coeymans Hollow","NY",42.475609,-73.92656
"12047","Cohoes","NY",42.773777,-73.70793
"12050","Columbiaville","NY",42.317154,-73.748555
"12051","Coxsackie","NY",42.353773,-73.82774
"12052","Cropseyville","NY",42.74891,-73.49405
"12053","Delanson","NY",42.749499,-74.18601
"12054","Delmar","NY",42.614979,-73.84086
"12055","Dormansville","NY",42.614852,-73.970812
"12056","Duanesburg","NY",42.767853,-74.09083
"12057","Eagle Bridge","NY",42.959229,-73.35236
"12058","Earlton","NY",42.350557,-73.91978
"12059","East Berne","NY",42.621933,-74.05574
"12060","East Chatham","NY",42.41956,-73.50412
"12061","East Greenbush","NY",42.593047,-73.67343
"12062","East Nassau","NY",42.525531,-73.50207
"12063","East Schodack","NY",42.559697,-73.63335
"12064","East Worcester","NY",42.615422,-74.6595
"12065","Clifton Park","NY",42.853676,-73.78445
"12066","Esperance","NY",42.784091,-74.3116
"12067","Feura Bush","NY",42.561226,-73.92528
"12068","Fonda","NY",42.953913,-74.37883
"12069","Fort Hunter","NY",42.945701,-74.263312
"12070","Fort Johnson","NY",42.970827,-74.24778
"12071","Fultonham","NY",42.565907,-74.41457
"12072","Fultonville","NY",42.896974,-74.37495
"12073","Gallupville","NY",42.592287,-74.438129
"12074","Galway","NY",43.068203,-74.05526
"12075","Ghent","NY",42.305793,-73.6514
"12076","Gilboa","NY",42.425405,-74.40616
"12077","Glenmont","NY",42.600551,-73.79621
"12078","Gloversville","NY",43.069562,-74.3436
"12081","Nassau","NY",42.59362,-73.566328
"12082","Grafton","NY",42.772624,-73.446834
"12083","Greenville","NY",42.430684,-74.03728
"12084","Guilderland","NY",42.698231,-73.89906
"12085","Guilderland Center","NY",42.694777,-73.905271
"12086","Hagaman","NY",42.981745,-74.14257
"12087","Hannacroix","NY",42.434883,-73.89271
"12089","Hoosick","NY",42.866666,-73.318113
"12090","Hoosick Falls","NY",42.888816,-73.3555
"12092","Howes Cave","NY",42.691779,-74.37513
"12093","Jefferson","NY",42.496939,-74.62813
"12094","Johnsonville","NY",42.899334,-73.49006
"12095","Johnstown","NY",43.014523,-74.38473
"12103","Knox","NY",42.6464,-74.130201
"12106","Kinderhook","NY",42.388394,-73.70726
"12107","Knox","NY",42.660046,-74.116812
"12108","Lake Pleasant","NY",43.525388,-74.40875
"12110","Latham","NY",42.74964,-73.76802
"12111","Latham","NY",42.614852,-73.970812
"12115","Malden Bridge","NY",42.469991,-73.58587
"12116","Maryland","NY",42.538589,-74.92185
"12117","Mayfield","NY",43.146907,-74.23466
"12118","Mechanicville","NY",42.915904,-73.70539
"12120","Medusa","NY",42.456127,-74.14059
"12121","Melrose","NY",42.851106,-73.61867
"12122","Middleburgh","NY",42.558318,-74.31458
"12123","Nassau","NY",42.522197,-73.60613
"12124","New Baltimore","NY",42.444198,-73.788241
"12125","New Lebanon","NY",42.474028,-73.4075
"12128","Newtonville","NY",42.724978,-73.764296
"12130","Niverville","NY",42.442592,-73.65778
"12131","North Blenheim","NY",42.482123,-74.45715
"12132","North Chatham","NY",42.466061,-73.629296
"12133","North Hoosick","NY",42.926121,-73.346409
"12134","Northville","NY",43.21892,-74.14822
"12136","Old Chatham","NY",42.437594,-73.55599
"12137","Pattersonville","NY",42.862695,-74.11759
"12138","Petersburg","NY",42.760049,-73.36801
"12139","Piseco","NY",43.40276,-74.56972
"12140","Poestenkill","NY",42.693228,-73.56922
"12141","Quaker Street","NY",42.731771,-74.185395
"12143","Ravena","NY",42.46915,-73.82956
"12144","Rensselaer","NY",42.63738,-73.72587
"12147","Rensselaerville","NY",42.518386,-74.15997
"12148","Rexford","NY",42.842133,-73.86828
"12149","Richmondville","NY",42.63119,-74.572
"12150","Rotterdam Junction","NY",42.876756,-74.05452
"12151","Round Lake","NY",42.932326,-73.79363
"12153","Sand Lake","NY",42.638579,-73.48051
"12154","Schaghticoke","NY",42.925765,-73.60664
"12155","Schenevus","NY",42.587708,-74.83536
"12156","Schodack Landing","NY",42.479967,-73.73647
"12157","Schoharie","NY",42.668825,-74.30134
"12158","Selkirk","NY",42.539822,-73.81545
"12159","Slingerlands","NY",42.646978,-73.87151
"12160","Sloansville","NY",42.757815,-74.34369
"12161","South Bethlehem","NY",42.521038,-73.851898
"12162","South Schodack","NY",42.513906,-73.702443
"12164","Speculator","NY",43.515611,-74.37431
"12165","Spencertown","NY",42.317959,-73.51802
"12166","Sprakers","NY",42.831683,-74.45667
"12167","Stamford","NY",42.414519,-74.59577
"12168","Stephentown","NY",42.552127,-73.39593
"12169","Stephentown","NY",42.57612,-73.44559
"12170","Stillwater","NY",42.975154,-73.66576
"12172","Stottville","NY",42.285749,-73.733532
"12173","Stuyvesant","NY",42.377829,-73.75943
"12174","Stuyvesant Falls","NY",42.343986,-73.73477
"12175","Summit","NY",42.559096,-74.55282
"12176","Surprise","NY",42.393192,-73.96763
"12177","Tribes Hill","NY",42.95002,-74.296985
"12179","Troy","NY",42.71144,-73.525561
"12180","Troy","NY",42.731628,-73.66465
"12181","Troy","NY",42.738678,-73.673862
"12182","Troy","NY",42.785887,-73.66221
"12183","Troy","NY",42.743289,-73.69482
"12184","Valatie","NY",42.426901,-73.66405
"12185","Valley Falls","NY",42.884779,-73.53703
"12186","Voorheesville","NY",42.638481,-73.95946
"12187","Warnerville","NY",42.624507,-74.46772
"12188","Waterford","NY",42.80535,-73.68976
"12189","Watervliet","NY",42.729278,-73.70913
"12190","Wells","NY",43.43305,-74.2901
"12192","West Coxsackie","NY",42.413742,-73.81773
"12193","Westerlo","NY",42.515818,-74.04978
"12194","West Fulton","NY",42.529042,-74.44937
"12195","West Lebanon","NY",42.479384,-73.474809
"12196","West Sand Lake","NY",42.631625,-73.61619
"12197","Worcester","NY",42.610314,-74.72401
"12198","Wynantskill","NY",42.685311,-73.63801
"12201","Albany","NY",42.614852,-73.970812
"12202","Albany","NY",42.640129,-73.76061
"12203","Albany","NY",42.678112,-73.82983
"12204","Albany","NY",42.683727,-73.73329
"12205","Albany","NY",42.713328,-73.8179
"12206","Albany","NY",42.669645,-73.77719
"12207","Albany","NY",42.653979,-73.74833
"12208","Albany","NY",42.654978,-73.80053
"12209","Albany","NY",42.640813,-73.7856
"12210","Albany","NY",42.656679,-73.75894
"12211","Albany","NY",42.705345,-73.76924
"12212","Albany","NY",42.716774,-73.810373
"12214","Albany","NY",42.614852,-73.970812
"12220","Albany","NY",42.614852,-73.970812
"12222","Albany","NY",42.692909,-73.838035
"12223","Albany","NY",42.614852,-73.970812
"12224","Albany","NY",42.614852,-73.970812
"12225","Albany","NY",42.614852,-73.970812
"12226","Albany","NY",42.614852,-73.970812
"12227","Albany","NY",42.614852,-73.970812
"12228","Albany","NY",42.614852,-73.970812
"12229","Albany","NY",42.614852,-73.970812
"12230","Albany","NY",42.614852,-73.970812
"12231","Albany","NY",42.614852,-73.970812
"12232","Albany","NY",42.614852,-73.970812
"12233","Albany","NY",42.614852,-73.970812
"12234","Albany","NY",42.614852,-73.970812
"12235","Albany","NY",42.614852,-73.970812
"12236","Albany","NY",42.614852,-73.970812
"12237","Albany","NY",42.614852,-73.970812
"12238","Albany","NY",42.614852,-73.970812
"12239","Albany","NY",42.614852,-73.970812
"12240","Albany","NY",42.614852,-73.970812
"12241","Albany","NY",42.614852,-73.970812
"12242","Albany","NY",42.614852,-73.970812
"12243","Albany","NY",42.614852,-73.970812
"12244","Albany","NY",42.614852,-73.970812
"12245","Albany","NY",42.614852,-73.970812
"12246","Albany","NY",42.647079,-73.750314
"12247","Albany","NY",42.614852,-73.970812
"12248","Albany","NY",42.614852,-73.970812
"12249","Albany","NY",42.614852,-73.970812
"12250","Albany","NY",42.614852,-73.970812
"12252","Albany","NY",42.614852,-73.970812
"12255","Albany","NY",42.614852,-73.970812
"12256","Albany","NY",42.614852,-73.970812
"12257","Albany","NY",42.614852,-73.970812
"12260","Albany","NY",42.614852,-73.970812
"12261","Albany","NY",42.614852,-73.970812
"12262","Albany","NY",42.614852,-73.970812
"12288","Albany","NY",42.614852,-73.970812
"12301","Schenectady","NY",42.833261,-74.058015
"12302","Schenectady","NY",42.862193,-73.96317
"12303","Schenectady","NY",42.769009,-73.93619
"12304","Schenectady","NY",42.779026,-73.90507
"12305","Schenectady","NY",42.814476,-73.94337
"12306","Schenectady","NY",42.793326,-73.98942
"12307","Schenectady","NY",42.804076,-73.93571
"12308","Schenectady","NY",42.820909,-73.92002
"12309","Schenectady","NY",42.800276,-73.88096
"12325","Schenectady","NY",42.833261,-74.058015
"12345","Schenectady","NY",42.833261,-74.058015
"12401","Kingston","NY",41.932315,-74.02259
"12402","Kingston","NY",41.878801,-74.345684
"12404","Accord","NY",41.811322,-74.23471
"12405","Acra","NY",42.320081,-74.07288
"12406","Arkville","NY",42.130111,-74.57574
"12407","Ashland","NY",42.321453,-74.33926
"12409","Bearsville","NY",42.061841,-74.16063
"12410","Big Indian","NY",42.114646,-74.4557
"12411","Bloomington","NY",41.87916,-74.03995
"12412","Boiceville","NY",42.001351,-74.2619
"12413","Cairo","NY",42.307982,-74.008
"12414","Catskill","NY",42.223002,-73.90452
"12416","Chichester","NY",42.105611,-74.29143
"12417","Connelly","NY",41.907604,-73.989254
"12418","Cornwallville","NY",42.357579,-74.15136
"12419","Cottekill","NY",41.852449,-74.10605
"12420","Cragsmoor","NY",41.674288,-74.37833
"12421","Denver","NY",42.249541,-74.54558
"12422","Durham","NY",42.390291,-74.20164
"12423","East Durham","NY",42.378679,-74.10443
"12424","East Jewett","NY",42.240343,-74.15932
"12427","Elka Park","NY",42.167622,-74.15306
"12428","Ellenville","NY",41.727588,-74.42061
"12429","Esopus","NY",41.816628,-73.97824
"12430","Fleischmanns","NY",42.183262,-74.52154
"12431","Freehold","NY",42.361838,-74.02471
"12432","Glasco","NY",41.949795,-74.003246
"12433","Glenford","NY",42.000093,-74.15946
"12434","Grand Gorge","NY",42.368009,-74.50137
"12435","Greenfield Park","NY",41.725808,-74.52106
"12436","Haines Falls","NY",42.19551,-74.102319
"12438","Halcottsville","NY",42.183045,-74.925617
"12439","Hensonville","NY",42.302596,-74.22711
"12440","High Falls","NY",41.801696,-74.14187
"12441","Highmount","NY",41.878801,-74.345684
"12442","Hunter","NY",42.222061,-74.23418
"12443","Hurley","NY",41.92674,-74.06797
"12444","Jewett","NY",42.260634,-74.27527
"12446","Kerhonkson","NY",41.790385,-74.30413
"12447","Saugerties","NY",42.039355,-74.067014
"12448","Lake Hill","NY",42.073259,-74.1893
"12449","Lake Katrine","NY",41.993639,-73.99843
"12450","Lanesville","NY",42.157937,-74.23034
"12451","Leeds","NY",42.281117,-73.94006
"12452","Lexington","NY",42.223407,-74.386635
"12453","Malden On Hudson","NY",42.098698,-73.935418
"12454","Maplecrest","NY",42.280261,-74.18349
"12455","Margaretville","NY",42.151449,-74.64261
"12456","Mount Marion","NY",42.034256,-73.99876
"12457","Mount Tremper","NY",42.038539,-74.23905
"12458","Napanoch","NY",41.802898,-74.40025
"12459","New Kingston","NY",42.227987,-74.68912
"12460","Oak Hill","NY",42.406464,-74.15692
"12461","Olivebridge","NY",41.912356,-74.24724
"12463","Palenville","NY",42.174411,-74.01599
"12464","Phoenicia","NY",42.081269,-74.32629
"12465","Pine Hill","NY",42.136293,-74.473639
"12466","Port Ewen","NY",41.905004,-73.97957
"12468","Prattsville","NY",42.297725,-74.40063
"12469","Preston Hollow","NY",42.442592,-74.24159
"12470","Purling","NY",42.284773,-74.02388
"12471","Rifton","NY",41.83962,-74.04033
"12472","Rosendale","NY",41.846938,-74.07602
"12473","Round Top","NY",42.260709,-74.03078
"12474","Roxbury","NY",42.285644,-74.59011
"12475","Ruby","NY",42.017632,-74.007868
"12477","Saugerties","NY",42.085634,-73.97685
"12480","Shandaken","NY",42.142121,-74.4065
"12481","Shokan","NY",41.974857,-74.20686
"12482","South Cairo","NY",42.270559,-73.95729
"12483","Spring Glen","NY",41.663895,-74.424533
"12484","Stone Ridge","NY",41.850294,-74.16619
"12485","Tannersville","NY",42.199479,-74.12514
"12486","Tillson","NY",41.831082,-74.07207
"12487","Ulster Park","NY",41.855761,-73.99207
"12489","Wawarsing","NY",41.757766,-74.35392
"12490","West Camp","NY",42.108689,-73.934577
"12491","West Hurley","NY",41.998199,-74.10967
"12492","West Kill","NY",42.209414,-74.34767
"12493","West Park","NY",41.805576,-73.96845
"12494","West Shokan","NY",41.961316,-74.27687
"12495","Willow","NY",42.080232,-74.24801
"12496","Windham","NY",42.326918,-74.24657
"12498","Woodstock","NY",42.037356,-74.11016
"12501","Amenia","NY",41.852959,-73.55727
"12502","Ancram","NY",42.086628,-73.6642
"12503","Ancramdale","NY",42.045941,-73.57792
"12504","Annandale On Hudson","NY",42.035434,-73.909234
"12506","Bangall","NY",41.759905,-73.743714
"12507","Barrytown","NY",42.005984,-73.92132
"12508","Beacon","NY",41.505993,-73.96198
"12509","La Grange","NY",41.643599,-73.847176
"12510","Billings","NY",41.759905,-73.743714
"12511","Castle Point","NY",41.759905,-73.743714
"12512","Chelsea","NY",41.552793,-73.968183
"12513","Claverack","NY",42.220962,-73.71182
"12514","Clinton Corners","NY",41.874183,-73.76727
"12515","Clintondale","NY",41.681096,-74.06421
"12516","Copake","NY",42.112895,-73.56201
"12517","Copake Falls","NY",42.144585,-73.51463
"12518","Cornwall","NY",41.434476,-74.03584
"12520","Cornwall On Hudson","NY",41.442589,-74.01389
"12521","Craryville","NY",42.176216,-73.65036
"12522","Dover Plains","NY",41.738853,-73.58921
"12523","Elizaville","NY",42.080964,-73.77856
"12524","Fishkill","NY",41.537232,-73.8972
"12525","Gardiner","NY",41.691524,-74.18764
"12526","Germantown","NY",42.123977,-73.86199
"12527","Glenham","NY",41.520249,-73.933259
"12528","Highland","NY",41.713682,-73.9965
"12529","Hillsdale","NY",42.204681,-73.54775
"12530","Hollowville","NY",42.210991,-73.687001
"12531","Holmes","NY",41.519085,-73.67241
"12533","Hopewell Junction","NY",41.573253,-73.79347
"12534","Hudson","NY",42.22948,-73.75846
"12537","Hughsonville","NY",41.582437,-73.936281
"12538","Hyde Park","NY",41.779541,-73.90155
"12540","Lagrangeville","NY",41.656933,-73.74539
"12541","Livingston","NY",42.142068,-73.757399
"12542","Marlboro","NY",41.603333,-73.98415
"12543","Maybrook","NY",41.484988,-74.2161
"12544","Mellenville","NY",42.259623,-73.667962
"12545","Millbrook","NY",41.785109,-73.68075
"12546","Millerton","NY",41.961002,-73.52011
"12547","Milton","NY",41.656805,-73.96831
"12548","Modena","NY",41.664239,-74.1106
"12549","Montgomery","NY",41.520396,-74.24712
"12550","Newburgh","NY",41.521593,-74.04072
"12551","Newburgh","NY",41.387822,-74.354699
"12552","Newburgh","NY",41.387822,-74.354699
"12553","New Windsor","NY",41.46359,-74.05975
"12555","Mid Hudson","NY",41.387822,-74.354699
"12557","Newburgh","NY",41.507368,-74.061301
"12561","New Paltz","NY",41.751566,-74.09475
"12563","Patterson","NY",41.483689,-73.57293
"12564","Pawling","NY",41.570328,-73.59825
"12565","Philmont","NY",42.24862,-73.6476
"12566","Pine Bush","NY",41.61134,-74.32764
"12567","Pine Plains","NY",41.997807,-73.66663
"12568","Plattekill","NY",41.641207,-74.07805
"12569","Pleasant Valley","NY",41.746469,-73.80414
"12570","Poughquag","NY",41.614667,-73.67709
"12571","Red Hook","NY",42.002691,-73.8442
"12572","Rhinebeck","NY",41.930983,-73.88271
"12574","Rhinecliff","NY",41.915068,-73.95173
"12575","Rock Tavern","NY",41.478722,-74.15626
"12577","Salisbury Mills","NY",41.433856,-74.11963
"12578","Salt Point","NY",41.803384,-73.78147
"12580","Staatsburg","NY",41.854465,-73.89922
"12581","Stanfordville","NY",41.89187,-73.69888
"12582","Stormville","NY",41.549525,-73.72745
"12583","Tivoli","NY",42.060034,-73.88393
"12584","Vails Gate","NY",41.464073,-74.059104
"12585","Verbank","NY",41.721384,-73.7162
"12586","Walden","NY",41.563701,-74.1755
"12588","Walker Valley","NY",41.878801,-74.345684
"12589","Wallkill","NY",41.615036,-74.15461
"12590","Wappingers Falls","NY",41.59466,-73.89579
"12592","Wassaic","NY",41.782781,-73.55792
"12593","West Copake","NY",42.243991,-73.641076
"12594","Wingdale","NY",41.646584,-73.56209
"12601","Poughkeepsie","NY",41.701443,-73.91922
"12602","Poughkeepsie","NY",41.759905,-73.743714
"12603","Poughkeepsie","NY",41.67086,-73.88107
"12604","Poughkeepsie","NY",41.759905,-73.743714
"12697","Moira","NY",44.776061,-74.596249
"12701","Monticello","NY",41.653071,-74.69748
"12710","Neversink","NY",41.818926,-74.521638
"12719","Barryville","NY",41.480326,-74.92694
"12720","Bethel","NY",41.66023,-74.90438
"12721","Bloomingburg","NY",41.564426,-74.4265
"12722","Burlingham","NY",41.719016,-74.755373
"12723","Callicoon","NY",41.769427,-75.02808
"12724","Callicoon Center","NY",41.858278,-74.95034
"12725","Claryville","NY",41.926119,-74.55675
"12726","Cochecton","NY",41.694153,-74.97593
"12727","Cochecton Center","NY",41.657225,-74.98161
"12729","Cuddebackville","NY",41.475235,-74.60276
"12732","Eldred","NY",41.545318,-74.87533
"12733","Fallsburg","NY",41.732505,-74.60896
"12734","Ferndale","NY",41.734913,-74.75013
"12736","Fremont Center","NY",41.848244,-75.03878
"12737","Glen Spey","NY",41.48397,-74.81186
"12738","Glen Wild","NY",41.648888,-74.57064
"12739","Godeffroy","NY",41.437427,-74.60322
"12740","Grahamsville","NY",41.85304,-74.52915
"12741","Hankins","NY",41.838672,-75.08718
"12742","Harris","NY",41.720235,-74.72901
"12743","Highland Lake","NY",41.53481,-74.84656
"12745","Hortonville","NY",41.762944,-75.030592
"12746","Huguenot","NY",41.436732,-74.64558
"12747","Hurleyville","NY",41.752458,-74.66996
"12748","Jeffersonville","NY",41.774223,-74.92211
"12749","Kauneonga Lake","NY",41.6896,-74.8272
"12750","Kenoza Lake","NY",41.729581,-74.961146
"12751","Kiamesha Lake","NY",41.679152,-74.657
"12752","Lake Huntington","NY",41.677243,-74.99109
"12754","Liberty","NY",41.798476,-74.7361
"12755","Ellenburg","NY",44.842975,-73.973533
"12756","Livingston Manor","NY",41.900542,-74.827587
"12758","Livingston Manor","NY",41.920201,-74.7857
"12759","Loch Sheldrake","NY",41.780299,-74.65618
"12760","Long Eddy","NY",41.901849,-75.10493
"12762","Mongaup Valley","NY",41.676676,-74.80674
"12763","Mountain Dale","NY",41.690795,-74.52273
"12764","Narrowsburg","NY",41.588604,-74.99385
"12765","Neversink","NY",41.845381,-74.61427
"12766","North Branch","NY",41.815316,-74.97995
"12767","Obernburg","NY",41.719016,-74.755373
"12768","Parksville","NY",41.864326,-74.72961
"12769","Phillipsport","NY",41.651453,-74.436159
"12770","Pond Eddy","NY",41.44515,-74.84003
"12771","Port Jervis","NY",41.374734,-74.66315
"12775","Rock Hill","NY",41.614218,-74.58836
"12776","Roscoe","NY",41.94836,-74.94475
"12777","Forestburgh","NY",41.562141,-74.71252
"12778","Smallwood","NY",41.65974,-74.812
"12779","South Fallsburg","NY",41.705649,-74.62985
"12780","Sparrow Bush","NY",41.429425,-74.72244
"12781","Summitville","NY",41.719016,-74.755373
"12782","Sundown","NY",41.881485,-74.430063
"12783","Swan Lake","NY",41.736523,-74.82634
"12784","Thompsonville","NY",41.676139,-74.6217
"12785","Westbrookville","NY",41.518125,-74.57566
"12786","White Lake","NY",41.649008,-74.85751
"12787","White Sulphur Springs","NY",41.80854,-74.84599
"12788","Woodbourne","NY",41.784477,-74.59109
"12789","Woodridge","NY",41.708062,-74.5698
"12790","Wurtsboro","NY",41.592087,-74.50677
"12791","Youngsville","NY",41.807694,-74.87957
"12792","Yulan","NY",41.522825,-74.93164
"12793","Bethel","NY",41.736963,-74.797524
"12801","Glens Falls","NY",43.312104,-73.64825
"12803","South Glens Falls","NY",43.288818,-73.63643
"12804","Queensbury","NY",43.330471,-73.67816
"12805","Argyle","NY",43.246117,-73.455519
"12807","New Baltimore","NY",42.425733,-73.899871
"12808","Adirondack","NY",43.758733,-73.76206
"12809","Argyle","NY",43.229054,-73.4674
"12810","Athol","NY",43.484741,-73.89151
"12811","Bakers Mills","NY",43.62422,-74.061201
"12812","Blue Mountain Lake","NY",43.865351,-74.43366
"12814","Bolton Landing","NY",43.582318,-73.65515
"12815","Brant Lake","NY",43.703484,-73.71123
"12816","Cambridge","NY",43.039226,-73.38557
"12817","Chestertown","NY",43.638919,-73.81782
"12819","Clemons","NY",43.583211,-73.47852
"12820","Cleverdale","NY",43.47181,-73.639291
"12821","Comstock","NY",43.461692,-73.40197
"12822","Corinth","NY",43.248892,-73.85172
"12823","Cossayuna","NY",43.178983,-73.40767
"12824","Diamond Point","NY",43.50964,-73.69776
"12825","Queensbury","NY",42.973468,-74.406393
"12827","Fort Ann","NY",43.414017,-73.50464
"12828","Fort Edward","NY",43.253125,-73.58549
"12830","Wilton","NY",43.12943,-73.712415
"12831","Gansevoort","NY",43.174566,-73.68848
"12832","Granville","NY",43.376197,-73.31153
"12833","Greenfield Center","NY",43.128878,-73.8555
"12834","Greenwich","NY",43.095447,-73.50177
"12835","Hadley","NY",43.292593,-73.978
"12836","Hague","NY",43.750773,-73.51881
"12837","Hampton","NY",43.500423,-73.26044
"12838","Hartford","NY",43.345875,-73.40651
"12839","Hudson Falls","NY",43.316622,-73.5735
"12841","Huletts Landing","NY",43.642332,-73.50948
"12842","Indian Lake","NY",43.761451,-74.26631
"12843","Johnsburg","NY",43.569961,-73.98345
"12844","Kattskill Bay","NY",43.495335,-73.62987
"12845","Lake George","NY",43.41928,-73.70766
"12846","Lake Luzerne","NY",43.329851,-73.82911
"12847","Long Lake","NY",43.97643,-74.56669
"12848","Middle Falls","NY",43.100123,-73.524554
"12849","Middle Granville","NY",43.433107,-73.29152
"12850","Middle Grove","NY",43.092312,-73.97033
"12851","Minerva","NY",43.841369,-74.03747
"12852","Newcomb","NY",43.972307,-74.15321
"12853","North Creek","NY",43.683067,-73.97457
"12854","North Granville","NY",43.452517,-73.34095
"12855","North Hudson","NY",43.996303,-73.72147
"12856","North River","NY",43.722082,-74.10546
"12857","Olmstedville","NY",43.795443,-73.93994
"12858","Paradox","NY",43.888754,-73.65812
"12859","Porter Corners","NY",43.182144,-73.88689
"12860","Pottersville","NY",43.719612,-73.81116
"12861","Putnam Station","NY",43.74531,-73.41569
"12862","Riparius","NY",43.675377,-73.932509
"12863","Rock City Falls","NY",43.067531,-73.93002
"12864","Sabael","NY",43.667618,-74.456913
"12865","Salem","NY",43.200351,-73.3526
"12866","Saratoga Springs","NY",43.080399,-73.77038
"12870","Schroon Lake","NY",43.835376,-73.75802
"12871","Schuylerville","NY",43.088919,-73.59633
"12872","Severance","NY",44.145678,-73.815204
"12873","Shushan","NY",43.11595,-73.31852
"12874","Silver Bay","NY",43.685475,-73.50767
"12877","Whitehall","NY",43.618466,-73.354596
"12878","Stony Creek","NY",43.426652,-73.96174
"12879","Newcomb","NY",44.145678,-73.815204
"12883","Ticonderoga","NY",43.858226,-73.45414
"12884","Victory Mills","NY",43.088397,-73.591652
"12885","Warrensburg","NY",43.538744,-73.80527
"12886","Wevertown","NY",43.638462,-73.91693
"12887","Whitehall","NY",43.547822,-73.38318
"12901","Plattsburgh","NY",44.693271,-73.46617
"12903","Plattsburgh","NY",44.683468,-73.44639
"12910","Altona","NY",44.879986,-73.65694
"12911","Keeseville","NY",44.530527,-73.46734
"12912","Au Sable Forks","NY",44.466008,-73.73441
"12913","Bloomingdale","NY",44.421547,-73.99256
"12914","Bombay","NY",44.927856,-74.60211
"12915","Brainardsville","NY",44.552725,-74.317958
"12916","Brushton","NY",44.830736,-74.51434
"12917","Burke","NY",44.915973,-74.16565
"12918","Cadyville","NY",44.692862,-73.66667
"12919","Champlain","NY",44.965887,-73.43636
"12920","Chateaugay","NY",44.901543,-74.06054
"12921","Chazy","NY",44.88821,-73.43225
"12922","Childwold","NY",44.224185,-74.76539
"12923","Churubusco","NY",44.948894,-73.96545
"12924","Keeseville","NY",44.706561,-73.744555
"12926","Constable","NY",44.953782,-74.32809
"12927","Cranberry Lake","NY",44.220971,-74.85053
"12928","Crown Point","NY",43.95037,-73.48357
"12929","Dannemora","NY",44.847709,-73.582317
"12930","Dickinson Center","NY",44.731571,-74.53485
"12932","Elizabethtown","NY",44.212623,-73.59542
"12933","Ellenburg","NY",44.881962,-73.963279
"12934","Ellenburg Center","NY",44.865972,-73.89584
"12935","Ellenburg Depot","NY",44.83218,-73.80001
"12936","Essex","NY",44.259479,-73.40591
"12937","Fort Covington","NY",44.972087,-74.48703
"12938","Pleasant Valley","NY",41.773053,-73.856116
"12939","Gabriels","NY",44.552725,-74.317958
"12941","Jay","NY",44.3919,-73.73028
"12942","Keene","NY",44.25462,-73.78934
"12943","Keene Valley","NY",44.171625,-73.78131
"12944","Keeseville","NY",44.483465,-73.4801
"12945","Lake Clear","NY",44.360566,-74.25801
"12946","Lake Placid","NY",44.292147,-73.95985
"12949","Lawrenceville","NY",44.746861,-74.660413
"12950","Lewis","NY",44.322102,-73.5404
"12952","Lyon Mountain","NY",44.715159,-73.91824
"12953","Malone","NY",44.813419,-74.2772
"12955","Lyon Mountain","NY",44.787489,-73.98702
"12956","Mineville","NY",44.088275,-73.51745
"12957","Moira","NY",44.833996,-74.5716
"12958","Mooers","NY",44.958106,-73.58022
"12959","Mooers Forks","NY",44.951443,-73.68023
"12960","Moriah","NY",44.025573,-73.51287
"12961","Moriah Center","NY",44.061849,-73.58384
"12962","Morrisonville","NY",44.711769,-73.58219
"12964","New Russia","NY",44.129094,-73.64792
"12965","Nicholville","NY",44.698253,-74.68843
"12966","North Bangor","NY",44.812315,-74.40784
"12967","North Lawrence","NY",44.784144,-74.66213
"12969","Owls Head","NY",44.711622,-74.09679
"12970","Paul Smiths","NY",44.454639,-74.28753
"12972","Peru","NY",44.563323,-73.52307
"12973","Piercefield","NY",44.234289,-74.555957
"12974","Port Henry","NY",44.041901,-73.46132
"12975","Port Kent","NY",44.526437,-73.409243
"12976","Rainbow Lake","NY",44.552725,-74.317958
"12977","Ray Brook","NY",44.145678,-73.815204
"12978","Redford","NY",44.664956,-73.761204
"12979","Rouses Point","NY",44.990606,-73.37017
"12980","Saint Regis Falls","NY",44.63091,-74.53721
"12981","Saranac","NY",44.617642,-73.81196
"12983","Saranac Lake","NY",44.324736,-74.16843
"12985","Schuyler Falls","NY",44.589583,-73.71355
"12986","Tupper Lake","NY",44.220344,-74.46299
"12987","Upper Jay","NY",44.329473,-73.79282
"12989","Vermontville","NY",44.519178,-74.06053
"12992","West Chazy","NY",44.819829,-73.51156
"12993","Westport","NY",44.195201,-73.47194
"12995","Whippleville","NY",44.805681,-74.252254
"12996","Willsboro","NY",44.373007,-73.40668
"12997","Wilmington","NY",44.145678,-73.815204
"12998","Witherbee","NY",44.08267,-73.530601
"13020","Apulia Station","NY",42.823968,-76.062425
"13021","Auburn","NY",42.922273,-76.55882
"13022","Auburn","NY",43.163364,-76.509567
"13024","Auburn","NY",43.163364,-76.509567
"13026","Aurora","NY",42.758088,-76.66998
"13027","Baldwinsville","NY",43.165134,-76.33901
"13028","Bernhards Bay","NY",43.279405,-75.93107
"13029","Brewerton","NY",43.225081,-76.13966
"13030","Bridgeport","NY",43.164297,-75.96057
"13031","Camillus","NY",43.039916,-76.28757
"13032","Canastota","NY",43.086439,-75.76484
"13033","Cato","NY",43.182054,-76.57176
"13034","Cayuga","NY",42.912846,-76.70818
"13035","Cazenovia","NY",42.938816,-75.83037
"13036","Central Square","NY",43.299689,-76.15144
"13037","Chittenango","NY",43.059992,-75.87116
"13039","Cicero","NY",43.171707,-76.09505
"13040","Cincinnatus","NY",42.560795,-75.93241
"13041","Clay","NY",43.1835,-76.18002
"13042","Cleveland","NY",43.252084,-75.84853
"13043","Clockville","NY",43.042044,-75.740848
"13044","Constantia","NY",43.28547,-76.00138
"13045","Cortland","NY",42.591109,-76.19217
"13051","Delphi Falls","NY",42.870698,-75.91128
"13052","De Ruyter","NY",42.728977,-75.86633
"13053","Dryden","NY",42.483348,-76.27901
"13054","Durhamville","NY",43.165514,-75.68091
"13056","East Homer","NY",42.677155,-76.105201
"13057","East Syracuse","NY",43.074266,-76.05538
"13060","Elbridge","NY",43.025843,-76.42589
"13061","Erieville","NY",42.859332,-75.74261
"13062","Etna","NY",42.484414,-76.38271
"13063","Fabius","NY",42.847248,-75.97818
"13064","Fair Haven","NY",43.431311,-76.200448
"13065","Fayette","NY",42.822662,-76.80197
"13066","Fayetteville","NY",43.028516,-76.00876
"13068","Freeville","NY",42.505075,-76.35283
"13069","Fulton","NY",43.32347,-76.40029
"13071","Genoa","NY",42.677418,-76.54154
"13072","Georgetown","NY",42.763823,-75.75188
"13073","Groton","NY",42.591961,-76.39345
"13074","Hannibal","NY",43.317683,-76.56767
"13076","Hastings","NY",43.354706,-76.14871
"13077","Homer","NY",42.680693,-76.18566
"13078","Jamesville","NY",42.973991,-76.07493
"13080","Jordan","NY",43.07446,-76.47874
"13081","King Ferry","NY",42.667102,-76.62939
"13082","Kirkville","NY",43.099547,-75.9619
"13083","Lacona","NY",43.647881,-76.0167
"13084","La Fayette","NY",42.883503,-76.10983
"13087","Little York","NY",42.706981,-76.156103
"13088","Liverpool","NY",43.105917,-76.19365
"13089","Liverpool","NY",43.02143,-76.197701
"13090","Liverpool","NY",43.152017,-76.22068
"13092","Locke","NY",42.643214,-76.42578
"13093","Lycoming","NY",43.431311,-76.200448
"13101","McGraw","NY",42.593363,-76.07789
"13102","McLean","NY",42.554215,-76.292723
"13103","Mallory","NY",43.339851,-76.096357
"13104","Manlius","NY",42.987329,-75.96763
"13107","Maple View","NY",43.457798,-76.153442
"13108","Marcellus","NY",42.979467,-76.33811
"13110","Marietta","NY",42.891595,-76.28318
"13111","Martville","NY",43.258952,-76.61441
"13112","Memphis","NY",43.105771,-76.41482
"13113","Meridian","NY",43.089111,-76.621747
"13114","Mexico","NY",43.468092,-76.2382
"13115","Minetto","NY",43.397671,-76.482365
"13116","Minoa","NY",43.077067,-76.00695
"13117","Montezuma","NY",43.002267,-76.704722
"13118","Moravia","NY",42.755698,-76.41226
"13119","Mottville","NY",42.97446,-76.440833
"13120","Nedrow","NY",42.950501,-76.15797
"13121","New Haven","NY",43.483379,-76.315044
"13122","New Woodstock","NY",42.837642,-75.84778
"13123","North Bay","NY",43.236407,-75.776918
"13124","North Pitcher","NY",42.639288,-75.82012
"13126","Oswego","NY",43.449201,-76.47992
"13129","Georgetown","NY",42.712735,-75.731391
"13131","Parish","NY",43.415157,-76.11416
"13132","Pennellville","NY",43.262012,-76.22912
"13133","Colesville","NY",42.216968,-75.724015
"13134","Peterboro","NY",42.968619,-75.679351
"13135","Phoenix","NY",43.235916,-76.31339
"13136","Pitcher","NY",42.607076,-75.85216
"13137","Plainville","NY",43.157653,-76.44698
"13138","Pompey","NY",42.89274,-76.026459
"13139","Poplar Ridge","NY",42.742057,-76.628454
"13140","Port Byron","NY",43.049797,-76.66055
"13141","Preble","NY",42.7707,-76.18642
"13142","Pulaski","NY",43.559926,-76.13619
"13143","Red Creek","NY",43.235909,-76.71545
"13144","Richland","NY",43.560754,-75.99069
"13145","Sandy Creek","NY",43.653475,-76.13214
"13146","Savannah","NY",43.09986,-76.75716
"13147","Scipio Center","NY",42.774714,-76.57045
"13148","Seneca Falls","NY",42.924166,-76.78366
"13149","Preble","NY",42.718259,-76.149045
"13152","Skaneateles","NY",42.897167,-76.38963
"13153","Skaneateles Falls","NY",42.991112,-76.451147
"13154","South Butler","NY",43.134425,-76.765591
"13155","South Otselic","NY",42.662648,-75.76265
"13156","Sterling","NY",43.337718,-76.6729
"13157","Sylvan Beach","NY",43.209147,-75.72307
"13158","Truxton","NY",42.717801,-75.97209
"13159","Tully","NY",42.802031,-76.12717
"13160","Union Springs","NY",42.832007,-76.66641
"13162","Verona Beach","NY",43.18852,-75.712551
"13163","Wampsville","NY",43.078461,-75.701639
"13164","Warners","NY",43.088699,-76.31946
"13165","Waterloo","NY",42.911377,-76.87027
"13166","Weedsport","NY",43.056292,-76.5563
"13167","West Monroe","NY",43.309645,-76.0552
"13201","Syracuse","NY",43.02143,-76.197701
"13202","Syracuse","NY",43.045066,-76.14994
"13203","Syracuse","NY",43.061116,-76.13733
"13204","Syracuse","NY",43.048966,-76.17536
"13205","Syracuse","NY",43.010916,-76.14501
"13206","Syracuse","NY",43.069866,-76.10724
"13207","Syracuse","NY",43.020116,-76.16406
"13208","Syracuse","NY",43.074566,-76.14747
"13209","Syracuse","NY",43.081324,-76.23488
"13210","Syracuse","NY",43.037166,-76.12653
"13211","Syracuse","NY",43.098917,-76.13688
"13212","Syracuse","NY",43.128534,-76.13931
"13214","Syracuse","NY",43.038099,-76.07635
"13215","Syracuse","NY",42.996804,-76.2177
"13217","Syracuse","NY",43.02143,-76.197701
"13218","Syracuse","NY",43.02143,-76.197701
"13219","Syracuse","NY",43.041566,-76.22072
"13220","Syracuse","NY",43.123415,-76.12823
"13221","Syracuse","NY",43.02143,-76.197701
"13224","Syracuse","NY",43.041866,-76.1032
"13225","Syracuse","NY",43.02143,-76.197701
"13235","Syracuse","NY",43.04,-76.13
"13244","Syracuse","NY",43.037716,-76.139646
"13250","Syracuse","NY",43.02143,-76.197701
"13251","Syracuse","NY",43.02143,-76.197701
"13252","Syracuse","NY",43.050966,-76.156696
"13260","Syracuse","NY",43.02143,-76.197701
"13261","Syracuse","NY",43.02143,-76.197701
"13290","Syracuse","NY",43.075066,-76.17411
"13301","Alder Creek","NY",43.419132,-75.21942
"13302","Altmar","NY",43.499843,-75.97716
"13303","Ava","NY",43.368235,-75.4688
"13304","Barneveld","NY",43.242724,-75.1659
"13305","Beaver Falls","NY",43.818705,-75.480342
"13308","Blossvale","NY",43.236303,-75.68087
"13309","Boonville","NY",43.484783,-75.33559
"13310","Bouckville","NY",42.88821,-75.5688
"13312","Brantingham","NY",43.689564,-75.27252
"13313","Bridgewater","NY",42.87896,-75.25569
"13314","Brookfield","NY",42.832184,-75.32106
"13315","Burlington Flats","NY",42.728271,-75.14144
"13316","Camden","NY",43.377083,-75.74261
"13317","Canajoharie","NY",42.86749,-74.57435
"13318","Cassville","NY",42.937739,-75.24946
"13319","Chadwicks","NY",43.029669,-75.27211
"13320","Cherry Valley","NY",42.772775,-74.7359
"13321","Clark Mills","NY",43.090027,-75.387088
"13322","Clayville","NY",42.969624,-75.22603
"13323","Clinton","NY",43.049536,-75.37656
"13324","Cold Brook","NY",43.317064,-74.97449
"13325","Constableville","NY",43.570028,-75.49047
"13326","Cooperstown","NY",42.703091,-74.91413
"13327","Croghan","NY",43.932489,-75.29084
"13328","Deansboro","NY",42.9843,-75.4224
"13329","Dolgeville","NY",43.11545,-74.74379
"13331","Eagle Bay","NY",43.822824,-74.87283
"13332","Earlville","NY",42.752447,-75.56997
"13333","East Springfield","NY",42.843048,-74.80882
"13334","Eaton","NY",42.83917,-75.65482
"13335","Edmeston","NY",42.694896,-75.24214
"13337","Fly Creek","NY",42.743186,-74.98164
"13338","Forestport","NY",43.506153,-75.07355
"13339","Fort Plain","NY",42.943602,-74.64717
"13340","Frankfort","NY",43.046471,-75.10019
"13341","Franklin Springs","NY",43.036802,-75.39115
"13342","Garrattsville","NY",42.64743,-75.17793
"13343","Glenfield","NY",43.743932,-75.34971
"13345","Greig","NY",43.818705,-75.480342
"13346","Hamilton","NY",42.820826,-75.54012
"13348","Hartwick","NY",42.708284,-75.0588
"13350","Herkimer","NY",43.038149,-74.9846
"13352","Hinckley","NY",43.328187,-75.117319
"13353","Hoffmeister","NY",43.392434,-74.72675
"13354","Holland Patent","NY",43.261526,-75.25705
"13355","Hubbardsville","NY",42.81488,-75.43424
"13357","Ilion","NY",42.992323,-75.0615
"13360","Inlet","NY",43.744906,-74.77476
"13361","Jordanville","NY",42.902922,-74.89149
"13362","Knoxboro","NY",42.980334,-75.518569
"13363","Lee Center","NY",43.311975,-75.50677
"13364","Leonardsville","NY",42.954541,-75.616793
"13365","Little Falls","NY",43.053176,-74.84685
"13367","Lowville","NY",43.794492,-75.46905
"13368","Lyons Falls","NY",43.637104,-75.3483
"13388","Webb","NY",43.606444,-75.103186
"13396","Madison","NY",42.839697,-75.544322
"13401","McConnellsville","NY",43.267243,-75.688223
"13402","Madison","NY",42.90777,-75.4988
"13403","Marcy","NY",43.162119,-75.28435
"13404","Martinsburg","NY",43.818705,-75.480342
"13406","Middleville","NY",43.137624,-74.947
"13407","Mohawk","NY",42.970099,-74.96051
"13408","Morrisville","NY",42.923334,-75.66314
"13409","Munnsville","NY",42.967906,-75.59457
"13410","Nelliston","NY",42.937863,-74.611711
"13411","New Berlin","NY",42.626177,-75.31502
"13413","New Hartford","NY",43.067169,-75.28767
"13415","New Lisbon","NY",42.590419,-75.195695
"13416","Newport","NY",43.178528,-74.98117
"13417","New York Mills","NY",43.102469,-75.29566
"13418","North Brookfield","NY",42.852808,-75.39938
"13420","Old Forge","NY",43.707331,-74.94498
"13421","Oneida","NY",43.079635,-75.64678
"13424","Oriskany","NY",43.158258,-75.34281
"13425","Oriskany Falls","NY",42.964774,-75.47889
"13426","Orwell","NY",43.562757,-75.996773
"13428","Palatine Bridge","NY",42.923583,-74.55536
"13431","Poland","NY",43.21574,-75.08534
"13433","Port Leyden","NY",43.580184,-75.31757
"13435","Prospect","NY",43.305156,-75.150183
"13436","Raquette Lake","NY",43.807314,-74.66771
"13437","Redfield","NY",43.572876,-75.81709
"13438","Remsen","NY",43.349682,-75.15821
"13439","Richfield Springs","NY",42.852372,-74.99121
"13440","Rome","NY",43.217069,-75.45531
"13441","Rome","NY",43.164312,-75.511301
"13442","Rome","NY",43.239274,-75.47796
"13444","Plymouth","NY",42.637549,-75.672508
"13449","Rome","NY",43.239274,-75.47796
"13450","Roseboom","NY",42.69983,-74.81731
"13452","Saint Johnsville","NY",43.021223,-74.64537
"13453","Williamstown","NY",43.436919,-75.881404
"13454","Salisbury Center","NY",43.222171,-74.80223
"13455","Sangerfield","NY",42.916235,-75.35448
"13456","Sauquoit","NY",43.005669,-75.26202
"13457","Schuyler Lake","NY",42.775805,-75.048502
"13459","Sharon Springs","NY",42.774077,-74.58404
"13460","Sherburne","NY",42.680051,-75.46547
"13461","Sherrill","NY",43.070808,-75.59912
"13464","Smyrna","NY",42.687757,-75.61558
"13465","Solsville","NY",42.954541,-75.616793
"13468","Springfield Center","NY",42.843002,-74.86479
"13469","Stittville","NY",43.220075,-75.29542
"13470","Stratford","NY",43.180412,-74.66524
"13471","Taberg","NY",43.346517,-75.60493
"13472","Thendara","NY",43.460951,-74.957099
"13473","Turin","NY",43.654278,-75.43828
"13475","Van Hornesville","NY",42.870799,-74.84542
"13476","Vernon","NY",43.079233,-75.5134
"13477","Vernon Center","NY",43.035057,-75.50381
"13478","Verona","NY",43.141727,-75.57702
"13479","Washington Mills","NY",43.053769,-75.271559
"13480","Waterville","NY",42.922823,-75.36494
"13482","West Burlington","NY",42.704333,-75.184913
"13483","Westdale","NY",43.399851,-75.82785
"13484","West Eaton","NY",42.854631,-75.660462
"13485","West Edmeston","NY",42.766057,-75.32353
"13486","Westernville","NY",43.338878,-75.35861
"13488","Westford","NY",42.680906,-74.76529
"13489","West Leyden","NY",43.453661,-75.52172
"13490","Westmoreland","NY",43.106801,-75.41944
"13491","West Winfield","NY",42.862696,-75.17053
"13492","Whitesboro","NY",43.11627,-75.31182
"13493","Williamstown","NY",43.421597,-75.90529
"13494","Woodgate","NY",43.524904,-75.142771
"13495","Yorkville","NY",43.110619,-75.27716
"13501","Utica","NY",43.087669,-75.22681
"13502","Utica","NY",43.114519,-75.22284
"13503","Utica","NY",43.101869,-75.231158
"13504","Utica","NY",43.136033,-75.432486
"13505","Utica","NY",43.087169,-75.260259
"13550","Herkimer","NY",43.026416,-74.982271
"13562","Hermon","NY",44.465307,-75.230195
"13578","Pharsalia","NY",42.595426,-75.757217
"13599","Utica","NY",43.239274,-75.47796
"13601","Watertown","NY",43.976735,-75.91199
"13602","Fort Drum","NY",44.03803,-75.75793
"13603","Watertown","NY",44.030204,-75.81845
"13605","Adams","NY",43.807654,-76.04936
"13606","Adams Center","NY",43.871728,-76.00793
"13607","Alexandria Bay","NY",44.328698,-75.93103
"13608","Antwerp","NY",44.243007,-75.60331
"13610","Rodman","NY",43.818705,-75.480342
"13611","Belleville","NY",43.778046,-76.125914
"13612","Black River","NY",44.003136,-75.77839
"13613","Brasher Falls","NY",44.864624,-74.75386
"13614","Brier Hill","NY",44.54141,-75.70576
"13615","Brownville","NY",44.005613,-75.98315
"13616","Calcium","NY",44.030831,-75.85521
"13617","Canton","NY",44.58249,-75.14417
"13618","Cape Vincent","NY",44.114183,-76.29288
"13619","Carthage","NY",43.981245,-75.61724
"13620","Castorland","NY",43.90707,-75.44761
"13621","Chase Mills","NY",44.850439,-75.06915
"13622","Chaumont","NY",44.0958,-76.11992
"13623","Chippewa Bay","NY",44.440171,-75.757938
"13624","Clayton","NY",44.230421,-76.09312
"13625","Colton","NY",44.537321,-74.92847
"13626","Copenhagen","NY",43.859025,-75.72942
"13627","Deer River","NY",43.818705,-75.480342
"13628","Deferiet","NY",43.885519,-75.798319
"13630","De Kalb Junction","NY",44.494708,-75.29944
"13631","Denmark","NY",43.818705,-75.480342
"13632","Depauville","NY",44.139501,-76.061552
"13633","De Peyster","NY",44.469527,-75.50293
"13634","Dexter","NY",44.015332,-76.05711
"13635","Edwards","NY",44.314998,-75.26149
"13636","Ellisburg","NY",43.75965,-76.152508
"13637","Evans Mills","NY",44.091494,-75.82694
"13638","Felts Mills","NY",44.021094,-75.76113
"13639","Fine","NY",44.268403,-75.13664
"13640","Wellesley Island","NY",44.318866,-75.99068
"13641","Fishers Landing","NY",44.207681,-75.914556
"13642","Gouverneur","NY",44.319897,-75.45537
"13643","Great Bend","NY",44.014698,-75.728357
"13645","Hailesboro","NY",44.533125,-75.192865
"13646","Hammond","NY",44.444242,-75.69227
"13647","Hannawa Falls","NY",44.608735,-74.973218
"13648","Harrisville","NY",44.168224,-75.29253
"13649","Helena","NY",44.921678,-74.706763
"13650","Henderson","NY",43.82212,-76.2127
"13651","Henderson Harbor","NY",43.870842,-76.180886
"13652","Hermon","NY",44.436004,-75.22228
"13654","Heuvelton","NY",44.563604,-75.48794
"13655","Hogansburg","NY",44.98184,-74.67374
"13656","La Fargeville","NY",44.194126,-75.95725
"13657","Limerick","NY",44.035703,-76.090424
"13658","Lisbon","NY",44.744462,-75.28123
"13659","Lorraine","NY",43.743998,-75.89354
"13660","Madrid","NY",44.758378,-75.14571
"13661","Mannsville","NY",43.714545,-76.10465
"13662","Massena","NY",44.937212,-74.87693
"13664","Morristown","NY",44.585561,-75.64797
"13665","Natural Bridge","NY",44.055436,-75.46279
"13666","Newton Falls","NY",44.533125,-75.192865
"13667","Norfolk","NY",44.823502,-74.96875
"13668","Norwood","NY",44.752355,-74.98906
"13669","Ogdensburg","NY",44.683636,-75.49024
"13670","Oswegatchie","NY",44.210178,-75.0697
"13671","Oxbow","NY",44.308475,-75.66879
"13672","Parishville","NY",44.4987,-74.74685
"13673","Philadelphia","NY",44.160785,-75.71159
"13674","Pierrepont Manor","NY",43.73345,-76.054313
"13675","Plessis","NY",44.277365,-75.84263
"13676","Potsdam","NY",44.651265,-74.95289
"13677","Pyrites","NY",44.673438,-75.082041
"13678","Raymondville","NY",44.828685,-74.979811
"13679","Redwood","NY",44.323952,-75.76895
"13680","Rensselaer Falls","NY",44.593588,-75.32389
"13681","Richville","NY",44.414762,-75.37897
"13682","Rodman","NY",43.842808,-75.90347
"13683","Rooseveltown","NY",44.533125,-75.192865
"13684","Russell","NY",44.353607,-75.0694
"13685","Sackets Harbor","NY",43.936173,-76.10295
"13687","South Colton","NY",44.501065,-74.86633
"13688","South Rutland","NY",43.951666,-75.767772
"13690","Star Lake","NY",44.161058,-74.99617
"13691","Theresa","NY",44.216969,-75.79671
"13692","Thousand Island Park","NY",44.289833,-76.02621
"13693","Three Mile Bay","NY",44.064999,-76.24023
"13694","Waddington","NY",44.866754,-75.17201
"13695","Wanakena","NY",44.140791,-74.912493
"13696","West Stockholm","NY",44.69563,-74.89998
"13697","Winthrop","NY",44.755383,-74.81213
"13698","Ellisburg","NY",43.775216,-76.202658
"13699","Potsdam","NY",44.496564,-75.072951
"13730","Afton","NY",42.232991,-75.53429
"13731","Andes","NY",42.152105,-74.78184
"13732","Apalachin","NY",42.059433,-76.14733
"13733","Bainbridge","NY",42.292692,-75.47528
"13734","Barton","NY",42.063671,-76.40638
"13736","Berkshire","NY",42.306877,-76.204
"13737","Bible School Park","NY",42.080494,-76.097288
"13738","Blodgett Mills","NY",42.567313,-76.123795
"13739","Bloomville","NY",42.364673,-74.78034
"13740","Bovina Center","NY",42.274238,-74.75464
"13743","Candor","NY",42.213965,-76.34099
"13744","Castle Creek","NY",42.250715,-75.91871
"13745","Chenango Bridge","NY",42.173775,-75.872839
"13746","Chenango Forks","NY",42.261923,-75.84463
"13747","Colliersville","NY",42.505122,-74.982056
"13748","Conklin","NY",42.0553,-75.81219
"13749","Corbettsville","NY",42.206745,-75.74488
"13750","Davenport","NY",42.473691,-74.8134
"13751","Davenport Center","NY",42.424859,-74.900195
"13752","De Lancey","NY",42.187835,-74.89418
"13753","Delhi","NY",42.302716,-74.91667
"13754","Deposit","NY",42.076427,-75.44551
"13755","Downsville","NY",42.086268,-75.00691
"13756","East Branch","NY",42.018923,-75.11339
"13757","East Meredith","NY",42.411895,-74.91372
"13758","East Pharsalia","NY",42.583518,-75.721931
"13760","Endicott","NY",42.113974,-76.05256
"13761","Endicott","NY",42.206745,-75.74488
"13762","Endwell","NY",42.206745,-75.74488
"13763","Endicott","NY",42.206745,-75.74488
"13766","Maine","NY",42.155346,-76.071767
"13774","Fishs Eddy","NY",41.965435,-75.17968
"13775","Franklin","NY",42.333285,-75.16086
"13776","Gilbertsville","NY",42.457398,-75.33434
"13777","Glen Aubrey","NY",42.254154,-76.01194
"13778","Greene","NY",42.336771,-75.75964
"13780","Guilford","NY",42.426583,-75.48119
"13782","Hamden","NY",42.18942,-74.99219
"13783","Hancock","NY",41.985839,-75.28214
"13784","Harford","NY",42.431068,-76.159312
"13786","Harpersfield","NY",42.445257,-74.70189
"13787","Harpursville","NY",42.197905,-75.65578
"13788","Hobart","NY",42.368357,-74.66452
"13790","Johnson City","NY",42.125725,-75.96686
"13792","Morris","NY",42.509167,-75.208242
"13794","Killawog","NY",42.402816,-76.036582
"13795","Kirkwood","NY",42.056312,-75.79275
"13796","Laurens","NY",42.540359,-75.14604
"13797","Lisle","NY",42.335102,-76.02313
"13801","McDonough","NY",42.504765,-75.77739
"13802","Maine","NY",42.255624,-76.05009
"13803","Marathon","NY",42.453663,-76.06983
"13804","Masonville","NY",42.215297,-75.35815
"13806","Meridale","NY",42.183045,-74.925617
"13807","Milford","NY",42.606209,-74.97261
"13808","Morris","NY",42.532969,-75.25536
"13809","Mount Upton","NY",42.392104,-75.41093
"13810","Mount Vision","NY",42.609579,-75.09464
"13811","Newark Valley","NY",42.222777,-76.17822
"13812","Nichols","NY",42.024157,-76.36558
"13813","Nineveh","NY",42.163814,-75.55149
"13814","North Norwich","NY",42.603574,-75.528221
"13815","Norwich","NY",42.541733,-75.52612
"13820","Oneonta","NY",42.469761,-75.05192
"13825","Otego","NY",42.417489,-75.18605
"13826","Ouaquaga","NY",42.112127,-75.639586
"13827","Owego","NY",42.120274,-76.25874
"13830","Oxford","NY",42.428818,-75.62459
"13832","Plymouth","NY",42.650584,-75.65761
"13833","Port Crane","NY",42.185196,-75.7763
"13834","Portlandville","NY",42.536475,-74.96218
"13835","Richford","NY",42.396659,-76.15709
"13837","Shinhopple","NY",42.183045,-74.925617
"13838","Sidney","NY",42.304177,-75.39563
"13839","Sidney Center","NY",42.236762,-75.25901
"13840","Smithboro","NY",42.039512,-76.400376
"13841","Smithville Flats","NY",42.419896,-75.83772
"13842","South Kortright","NY",42.376254,-74.72258
"13843","South New Berlin","NY",42.533274,-75.38008
"13844","South Plymouth","NY",42.603506,-75.67053
"13845","Tioga Center","NY",42.065842,-76.381946
"13846","Treadwell","NY",42.344248,-75.05323
"13847","Trout Creek","NY",42.183045,-74.925617
"13848","Tunnel","NY",42.214705,-75.727699
"13849","Unadilla","NY",42.343576,-75.3146
"13850","Vestal","NY",42.075874,-76.02837
"13851","Vestal","NY",42.206745,-75.74488
"13856","Walton","NY",42.182237,-75.14627
"13859","Wells Bridge","NY",42.367765,-75.24718
"13860","West Davenport","NY",42.183045,-74.925617
"13861","West Oneonta","NY",42.488953,-75.12063
"13862","Whitney Point","NY",42.328284,-75.95021
"13863","Willet","NY",42.437964,-75.89884
"13864","Willseyville","NY",42.298203,-76.38844
"13865","Windsor","NY",42.070228,-75.63584
"13901","Binghamton","NY",42.142575,-75.88783
"13902","Binghamton","NY",42.105375,-75.8876
"13903","Binghamton","NY",42.077258,-75.90226
"13904","Binghamton","NY",42.110927,-75.85223
"13905","Binghamton","NY",42.121443,-75.93329
"13942","Whitestown","NY",43.114669,-75.305811
"14001","Akron","NY",43.024559,-78.50414
"14003","Alabama","NY",42.998052,-78.184813
"14004","Alden","NY",42.898709,-78.51652
"14005","Alexander","NY",42.906765,-78.24581
"14006","Angola","NY",42.633375,-79.04567
"14008","Appleton","NY",43.318768,-78.63328
"14009","Arcade","NY",42.582693,-78.40069
"14010","Athol Springs","NY",42.768413,-78.887094
"14011","Attica","NY",42.844962,-78.27803
"14012","Barker","NY",43.337798,-78.52955
"14013","Basom","NY",43.074578,-78.40345
"14020","Batavia","NY",42.996507,-78.19279
"14021","Batavia","NY",42.998052,-78.184813
"14024","Bliss","NY",42.579516,-78.24818
"14025","Boston","NY",42.627312,-78.73768
"14026","Bowmansville","NY",42.941025,-78.68548
"14027","Brant","NY",42.57075,-79.030785
"14028","Burt","NY",43.326155,-78.71564
"14029","Centerville","NY",42.474283,-78.247413
"14030","Chaffee","NY",42.562386,-78.49087
"14031","Clarence","NY",42.981558,-78.61484
"14032","Clarence Center","NY",43.019908,-78.63497
"14033","Colden","NY",42.655098,-78.68472
"14034","Collins","NY",42.498791,-78.8835
"14035","Collins Center","NY",42.49064,-78.849861
"14036","Corfu","NY",42.974083,-78.38961
"14037","Cowlesville","NY",42.814667,-78.46076
"14038","Crittenden","NY",42.947259,-78.474444
"14039","Dale","NY",42.829129,-78.17657
"14040","Darien Center","NY",42.891116,-78.37872
"14041","Dayton","NY",42.408583,-78.984391
"14042","Delevan","NY",42.474779,-78.47303
"14043","Depew","NY",42.904958,-78.7006
"14047","Derby","NY",42.694598,-78.98151
"14048","Dunkirk","NY",42.479471,-79.32805
"14051","East Amherst","NY",43.025217,-78.70394
"14052","East Aurora","NY",42.770859,-78.59804
"14054","East Bethany","NY",42.903676,-78.13481
"14055","East Concord","NY",42.554206,-78.61829
"14056","East Pembroke","NY",42.991173,-78.312171
"14057","Eden","NY",42.651776,-78.87634
"14058","Elba","NY",43.091886,-78.15151
"14059","Elma","NY",42.834159,-78.64246
"14060","Farmersville Station","NY",42.443406,-78.32302
"14061","Farnham","NY",42.594627,-79.08404
"14062","Forestville","NY",42.450845,-79.16528
"14063","Fredonia","NY",42.425683,-79.3371
"14064","Rochester","NY",43.158013,-77.607049
"14065","Freedom","NY",42.483508,-78.30011
"14066","Gainesville","NY",42.619549,-78.16153
"14067","Gasport","NY",43.20258,-78.56868
"14068","Getzville","NY",43.02534,-78.76241
"14069","Glenwood","NY",42.601635,-78.64273
"14070","Gowanda","NY",42.453234,-78.9348
"14072","Grand Island","NY",43.011823,-78.95914
"14075","Hamburg","NY",42.734051,-78.8413
"14080","Holland","NY",42.640351,-78.53494
"14081","Irving","NY",42.573552,-79.09002
"14082","Java Center","NY",42.661838,-78.38309
"14083","Java Village","NY",42.676913,-78.44075
"14085","Lake View","NY",42.718308,-78.9372
"14086","Lancaster","NY",42.904258,-78.65519
"14091","Lawtons","NY",42.535917,-78.88235
"14092","Lewiston","NY",43.169055,-79.02426
"14094","Lockport","NY",43.160857,-78.68756
"14095","Lockport","NY",43.32684,-78.830681
"14098","Lyndonville","NY",43.338755,-78.3931
"14101","Machias","NY",42.393206,-78.52655
"14102","Marilla","NY",42.838643,-78.55601
"14103","Medina","NY",43.217155,-78.38746
"14105","Middleport","NY",43.199665,-78.48378
"14107","Model City","NY",43.32684,-78.830681
"14108","Newfane","NY",43.264406,-78.72634
"14109","Niagara University","NY",43.32684,-78.830681
"14110","North Boston","NY",42.768413,-78.887094
"14111","North Collins","NY",42.593148,-78.91498
"14112","North Evans","NY",42.691742,-78.992658
"14113","North Java","NY",42.672162,-78.33745
"14120","North Tonawanda","NY",43.048156,-78.86338
"14125","Oakfield","NY",43.077433,-78.27816
"14126","Olcott","NY",43.330443,-78.726661
"14127","Orchard Park","NY",42.759917,-78.75294
"14129","Perrysburg","NY",42.469165,-79.01069
"14130","Pike","NY",42.543108,-78.153849
"14131","Ransomville","NY",43.237855,-78.90884
"14132","Sanborn","NY",43.140056,-78.88297
"14133","Sandusky","NY",42.489129,-78.366991
"14134","Sardinia","NY",42.534854,-78.52113
"14135","Sheridan","NY",42.488983,-79.238997
"14136","Silver Creek","NY",42.535276,-79.16539
"14138","South Dayton","NY",42.372077,-79.05552
"14139","South Wales","NY",42.716919,-78.53931
"14140","Spring Brook","NY",42.807159,-78.667599
"14141","Springville","NY",42.516248,-78.68944
"14143","Stafford","NY",42.977828,-78.07934
"14144","Stella Niagara","NY",43.199494,-79.042477
"14145","Strykersville","NY",42.720756,-78.43429
"14150","Tonawanda","NY",43.001907,-78.8631
"14151","Tonawanda","NY",42.768413,-78.887094
"14166","Van Buren Point","NY",42.4511,-79.415421
"14167","Varysburg","NY",42.750175,-78.32283
"14168","Versailles","NY",42.509271,-78.999471
"14169","Wales Center","NY",42.767333,-78.585646
"14170","West Falls","NY",42.692304,-78.67147
"14171","West Valley","NY",42.426278,-78.6474
"14172","Wilson","NY",43.307288,-78.83368
"14173","Yorkshire","NY",42.524691,-78.475474
"14174","Youngstown","NY",43.247054,-79.02562
"14201","Buffalo","NY",42.896407,-78.88515
"14202","Buffalo","NY",42.886357,-78.8779
"14203","Buffalo","NY",42.880107,-78.8699
"14204","Buffalo","NY",42.884008,-78.86152
"14205","Buffalo","NY",42.768413,-78.887094
"14206","Buffalo","NY",42.880105,-78.81049
"14207","Buffalo","NY",42.94722,-78.89694
"14208","Buffalo","NY",42.914307,-78.85072
"14209","Buffalo","NY",42.913257,-78.86612
"14210","Buffalo","NY",42.866708,-78.83139
"14211","Buffalo","NY",42.907358,-78.82355
"14212","Buffalo","NY",42.894758,-78.82303
"14213","Buffalo","NY",42.916057,-78.8915
"14214","Buffalo","NY",42.941407,-78.83741
"14215","Buffalo","NY",42.934757,-78.8118
"14216","Buffalo","NY",42.949707,-78.85923
"14217","Buffalo","NY",42.968707,-78.8745
"14218","Buffalo","NY",42.821008,-78.82448
"14219","Buffalo","NY",42.790708,-78.82717
"14220","Buffalo","NY",42.845758,-78.8187
"14221","Buffalo","NY",42.977456,-78.73356
"14222","Buffalo","NY",42.917657,-78.8779
"14223","Buffalo","NY",42.972207,-78.84234
"14224","Buffalo","NY",42.836858,-78.75557
"14225","Buffalo","NY",42.929891,-78.75813
"14226","Buffalo","NY",42.968057,-78.80047
"14227","Buffalo","NY",42.881372,-78.74466
"14228","Buffalo","NY",43.023347,-78.79494
"14231","Buffalo","NY",42.768413,-78.887094
"14233","Buffalo","NY",42.768413,-78.887094
"14240","Buffalo","NY",42.768413,-78.887094
"14241","Buffalo","NY",42.938258,-78.744053
"14260","Buffalo","NY",42.768413,-78.887094
"14261","Buffalo","NY",42.768413,-78.887094
"14263","Buffalo","NY",42.768413,-78.887094
"14264","Buffalo","NY",42.885568,-78.873479
"14265","Buffalo","NY",42.768413,-78.887094
"14267","Buffalo","NY",42.768413,-78.887094
"14269","Buffalo","NY",42.768413,-78.887094
"14270","Buffalo","NY",42.768413,-78.887094
"14272","Buffalo","NY",42.768413,-78.887094
"14273","Buffalo","NY",42.75495,-78.784908
"14276","Buffalo","NY",42.768413,-78.887094
"14280","Buffalo","NY",42.768413,-78.887094
"14301","Niagara Falls","NY",43.096555,-79.03925
"14302","Niagara Falls","NY",43.32684,-78.830681
"14303","Niagara Falls","NY",43.086355,-79.03736
"14304","Niagara Falls","NY",43.091106,-78.96249
"14305","Niagara Falls","NY",43.115355,-79.03769
"14410","Adams Basin","NY",43.195261,-77.855883
"14411","Albion","NY",43.244034,-78.2023
"14413","Alton","NY",43.222735,-76.982149
"14414","Avon","NY",42.899233,-77.73372
"14415","Bellona","NY",42.757486,-77.02311
"14416","Bergen","NY",43.067831,-77.99024
"14417","Geneseo","NY",42.834813,-77.715406
"14418","Branchport","NY",42.605481,-77.20117
"14420","Brockport","NY",43.214261,-77.93937
"14422","Byron","NY",43.079217,-78.06371
"14423","Caledonia","NY",42.937589,-77.83528
"14424","Canandaigua","NY",42.85297,-77.29466
"14425","Farmington","NY",42.985007,-77.346
"14427","Castile","NY",42.63529,-78.05135
"14428","Churchville","NY",43.079181,-77.87334
"14429","Clarendon","NY",43.381027,-78.231338
"14430","Clarkson","NY",43.286024,-77.684264
"14432","Clifton Springs","NY",42.965372,-77.14416
"14433","Clyde","NY",43.07351,-76.87557
"14435","Conesus","NY",42.706781,-77.68103
"14437","Dansville","NY",42.576771,-77.71925
"14441","Dresden","NY",42.684588,-76.95775
"14443","East Bloomfield","NY",42.900966,-77.42331
"14445","East Rochester","NY",43.111663,-77.48709
"14449","East Williamson","NY",43.235369,-77.137642
"14450","Fairport","NY",43.091714,-77.43483
"14452","Fancher","NY",43.381027,-78.231338
"14453","Fishers","NY",43.010908,-77.47054
"14454","Geneseo","NY",42.798159,-77.77733
"14456","Geneva","NY",42.853039,-76.99394
"14458","Lima","NY",42.855029,-77.668326
"14461","Gorham","NY",42.808127,-77.287611
"14462","Groveland","NY",42.681361,-77.75302
"14463","Hall","NY",42.796578,-77.063876
"14464","Hamlin","NY",43.319027,-77.91991
"14466","Hemlock","NY",42.787276,-77.58983
"14467","Henrietta","NY",43.048663,-77.60843
"14468","Hilton","NY",43.289787,-77.79548
"14469","Bloomfield","NY",42.868609,-77.4509
"14470","Holley","NY",43.221689,-78.04393
"14471","Honeoye","NY",42.762059,-77.50488
"14472","Honeoye Falls","NY",42.964593,-77.5919
"14475","Ionia","NY",42.933105,-77.49687
"14476","Kendall","NY",43.339304,-78.02581
"14477","Kent","NY",43.341512,-78.14128
"14478","Keuka Park","NY",42.589281,-77.11824
"14479","Knowlesville","NY",43.241502,-78.318828
"14480","Lakeville","NY",42.837786,-77.70625
"14481","Leicester","NY",42.780121,-77.91499
"14482","Le Roy","NY",42.979887,-77.97053
"14484","Portage","NY",42.558227,-78.047214
"14485","Lima","NY",42.879208,-77.60183
"14486","Linwood","NY",42.915297,-77.949818
"14487","Livonia","NY",42.809908,-77.65301
"14488","Livonia Center","NY",42.729839,-77.773919
"14489","Lyons","NY",43.076715,-76.99231
"14502","Macedon","NY",43.08786,-77.33068
"14504","Manchester","NY",42.970621,-77.2298
"14505","Marion","NY",43.160635,-77.16948
"14506","Mendon","NY",42.999201,-77.50263
"14507","Middlesex","NY",42.702921,-77.27447
"14508","Morton","NY",43.381027,-78.231338
"14510","Mount Morris","NY",42.692608,-77.87663
"14511","Mumford","NY",43.002612,-77.86458
"14512","Naples","NY",42.628515,-77.39457
"14513","Newark","NY",43.052126,-77.09424
"14514","North Chili","NY",43.122386,-77.80347
"14515","North Greece","NY",43.257819,-77.735079
"14516","North Rose","NY",43.197378,-76.91443
"14517","Nunda","NY",42.589984,-77.9075
"14518","Oaks Corners","NY",42.931873,-77.011839
"14519","Ontario","NY",43.227921,-77.30097
"14520","Ontario Center","NY",43.348369,-77.045288
"14521","Ovid","NY",42.699637,-76.82964
"14522","Palmyra","NY",43.063858,-77.2223
"14525","Pavilion","NY",42.876222,-78.00056
"14526","Penfield","NY",43.145342,-77.45849
"14527","Penn Yan","NY",42.664079,-77.05664
"14529","Perkinsville","NY",42.535363,-77.628857
"14530","Perry","NY",42.724075,-78.00361
"14532","Phelps","NY",42.964535,-77.02486
"14533","Piffard","NY",42.846509,-77.88795
"14534","Pittsford","NY",43.071131,-77.51181
"14536","Portageville","NY",42.54523,-78.06929
"14537","Port Gibson","NY",43.033002,-77.157465
"14538","Pultneyville","NY",43.283582,-77.142027
"14539","Retsof","NY",42.834327,-77.877876
"14541","Romulus","NY",42.75147,-76.85353
"14542","Rose","NY",43.144795,-76.860779
"14543","Rush","NY",42.98723,-77.67433
"14544","Rushville","NY",42.75606,-77.24024
"14545","Scottsburg","NY",42.664904,-77.71275
"14546","Scottsville","NY",43.030313,-77.7836
"14547","Seneca Castle","NY",42.808127,-77.287611
"14548","Shortsville","NY",42.97342,-77.2434
"14549","Silver Lake","NY",42.692874,-78.022364
"14550","Silver Springs","NY",42.669499,-78.09375
"14551","Sodus","NY",43.226024,-77.03599
"14555","Sodus Point","NY",43.269332,-76.9876
"14556","Sonyea","NY",42.729839,-77.773919
"14557","South Byron","NY",43.041606,-78.057252
"14558","South Lima","NY",42.855409,-77.687643
"14559","Spencerport","NY",43.189862,-77.81809
"14560","Springwater","NY",42.674773,-77.58341
"14561","Stanley","NY",42.815171,-77.1321
"14563","Union Hill","NY",43.348369,-77.045288
"14564","Victor","NY",42.980323,-77.42022
"14568","Walworth","NY",43.134783,-77.28515
"14569","Warsaw","NY",42.739447,-78.15948
"14571","Waterport","NY",43.34653,-78.25412
"14572","Wayland","NY",42.569876,-77.57637
"14580","Webster","NY",43.220991,-77.45364
"14585","West Bloomfield","NY",42.901162,-77.54848
"14586","West Henrietta","NY",43.040271,-77.68215
"14588","Willard","NY",42.683451,-76.872442
"14589","Williamson","NY",43.24816,-77.18498
"14590","Wolcott","NY",43.234753,-76.8252
"14591","Wyoming","NY",42.829405,-78.08887
"14592","York","NY",42.875685,-77.883511
"14601","Rochester","NY",43.286024,-77.684264
"14602","Rochester","NY",43.286024,-77.684264
"14603","Rochester","NY",43.161613,-77.606774
"14604","Rochester","NY",43.156963,-77.60375
"14605","Rochester","NY",43.167563,-77.6012
"14606","Rochester","NY",43.168062,-77.68132
"14607","Rochester","NY",43.149863,-77.58962
"14608","Rochester","NY",43.155568,-77.62401
"14609","Rochester","NY",43.175113,-77.56272
"14610","Rochester","NY",43.142259,-77.54587
"14611","Rochester","NY",43.147563,-77.64162
"14612","Rochester","NY",43.256462,-77.66183
"14613","Rochester","NY",43.182163,-77.63794
"14614","Rochester","NY",43.155863,-77.61519
"14615","Rochester","NY",43.204695,-77.65194
"14616","Rochester","NY",43.232312,-77.64905
"14617","Rochester","NY",43.223213,-77.59721
"14618","Rochester","NY",43.116713,-77.55904
"14619","Rochester","NY",43.136363,-77.64685
"14620","Rochester","NY",43.132474,-77.60377
"14621","Rochester","NY",43.185163,-77.60368
"14622","Rochester","NY",43.21543,-77.55638
"14623","Rochester","NY",43.087613,-77.6352
"14624","Rochester","NY",43.127195,-77.72465
"14625","Rochester","NY",43.143663,-77.51114
"14626","Rochester","NY",43.214613,-77.70626
"14627","Rochester","NY",43.127513,-77.627674
"14638","Rochester","NY",43.286024,-77.684264
"14639","Rochester","NY",43.286024,-77.684264
"14642","Rochester","NY",43.286024,-77.684264
"14643","Rochester","NY",43.286024,-77.684264
"14644","Rochester","NY",43.286024,-77.684264
"14645","Rochester","NY",43.286024,-77.684264
"14646","Rochester","NY",43.286024,-77.684264
"14647","Rochester","NY",43.286024,-77.684264
"14649","Rochester","NY",43.286024,-77.684264
"14650","Rochester","NY",43.286024,-77.684264
"14651","Rochester","NY",43.286024,-77.684264
"14652","Rochester","NY",43.286024,-77.684264
"14653","Rochester","NY",43.286024,-77.684264
"14660","Rochester","NY",43.286024,-77.684264
"14664","Rochester","NY",43.286024,-77.684264
"14673","Rochester","NY",43.286024,-77.684264
"14683","Rochester","NY",43.286024,-77.684264
"14692","Rochester","NY",43.286024,-77.684264
"14694","Rochester","NY",43.286024,-77.684264
"14701","Jamestown","NY",42.09179,-79.24459
"14702","Jamestown","NY",42.081657,-79.294921
"14703","Jamestown","NY",42.342529,-79.41091
"14704","Jamestown","NY",42.342529,-79.41091
"14706","Allegany","NY",42.10143,-78.51587
"14707","Allentown","NY",42.073739,-78.059374
"14708","Alma","NY",42.016108,-78.05768
"14709","Angelica","NY",42.339925,-77.99413
"14710","Ashville","NY",42.098227,-79.40865
"14711","Belfast","NY",42.319654,-78.13384
"14712","Bemus Point","NY",42.170787,-79.37689
"14714","Black Creek","NY",42.279786,-78.23769
"14715","Bolivar","NY",42.076186,-78.14489
"14716","Brocton","NY",42.390802,-79.43873
"14717","Caneadea","NY",42.37074,-78.19335
"14718","Cassadaga","NY",42.343265,-79.30101
"14719","Cattaraugus","NY",42.329183,-78.87436
"14720","Celoron","NY",42.105907,-79.27912
"14721","Ceres","NY",41.999435,-78.27257
"14722","Chautauqua","NY",42.187468,-79.450523
"14723","Cherry Creek","NY",42.316386,-79.1364
"14724","Clymer","NY",42.066681,-79.66612
"14726","Conewango Valley","NY",42.251075,-79.03785
"14727","Cuba","NY",42.213216,-78.28649
"14728","Dewittville","NY",42.258967,-79.43348
"14729","East Otto","NY",42.382899,-78.72101
"14730","East Randolph","NY",42.174736,-78.94734
"14731","Ellicottville","NY",42.286037,-78.65425
"14732","Ellington","NY",42.229098,-79.11347
"14733","Falconer","NY",42.128469,-79.19126
"14735","Fillmore","NY",42.456047,-78.0973
"14736","Findley Lake","NY",42.130247,-79.74933
"14737","Franklinville","NY",42.335628,-78.43114
"14738","Frewsburg","NY",42.0385,-79.07622
"14739","Friendship","NY",42.192384,-78.14308
"14740","Gerry","NY",42.230692,-79.17185
"14741","Great Valley","NY",42.220602,-78.6337
"14742","Greenhurst","NY",42.120512,-79.30958
"14743","Hinsdale","NY",42.203691,-78.407
"14744","Houghton","NY",42.426885,-78.19509
"14745","Hume","NY",42.4777,-78.140343
"14747","Kennedy","NY",42.154315,-79.08905
"14748","Kill Buck","NY",42.130224,-78.64583
"14750","Lakewood","NY",42.098657,-79.32439
"14751","Leon","NY",42.298328,-79.006231
"14752","Lily Dale","NY",42.352416,-79.323502
"14753","Limestone","NY",42.035792,-78.61789
"14754","Little Genesee","NY",42.020028,-78.20368
"14755","Little Valley","NY",42.249436,-78.80282
"14756","Maple Springs","NY",42.19815,-79.417353
"14757","Mayville","NY",42.226149,-79.48396
"14758","Niobe","NY",42.342529,-79.41091
"14760","Olean","NY",42.076574,-78.42744
"14766","Otto","NY",42.357543,-78.807283
"14767","Panama","NY",42.043339,-79.51361
"14769","Portland","NY",42.372864,-79.47523
"14770","Portville","NY",42.047063,-78.30659
"14771","Canadice","NY",42.737181,-77.519784
"14772","Randolph","NY",42.160787,-78.95167
"14774","Richburg","NY",42.114385,-78.168055
"14775","Ripley","NY",42.254906,-79.69185
"14776","Rossburg","NY",42.260012,-78.016139
"14777","Rushford","NY",42.385744,-78.23754
"14778","Saint Bonaventure","NY",42.270112,-78.684684
"14779","Salamanca","NY",42.168508,-78.7297
"14781","Sherman","NY",42.160982,-79.59738
"14782","Sinclairville","NY",42.265234,-79.26035
"14783","Steamburg","NY",42.100539,-78.87967
"14784","Stockton","NY",42.326844,-79.3902
"14785","Stow","NY",42.155693,-79.412233
"14786","West Clarksville","NY",42.12267,-78.221332
"14787","Westfield","NY",42.327029,-79.57301
"14788","Westons Mills","NY",42.062125,-78.377974
"14801","Addison","NY",42.104389,-77.28857
"14802","Alfred","NY",42.255694,-77.78904
"14803","Alfred Station","NY",42.258793,-77.77793
"14804","Almond","NY",42.321173,-77.82312
"14805","Alpine","NY",42.366682,-76.72562
"14806","Andover","NY",42.157534,-77.79265
"14807","Arkport","NY",42.410387,-77.71394
"14808","Atlanta","NY",42.560553,-77.47257
"14809","Avoca","NY",42.419988,-77.43392
"14810","Bath","NY",42.351281,-77.3361
"14812","Beaver Dams","NY",42.286649,-76.9766
"14813","Belmont","NY",42.238994,-78.01907
"14814","Big Flats","NY",42.150834,-76.94805
"14815","Bradford","NY",42.383304,-77.08762
"14816","Breesport","NY",42.177039,-76.73437
"14817","Brooktondale","NY",42.368,-76.35407
"14818","Burdett","NY",42.444243,-76.83274
"14819","Cameron","NY",42.20928,-77.42796
"14820","Cameron Mills","NY",42.192615,-77.35979
"14821","Campbell","NY",42.235058,-77.20491
"14822","Canaseraga","NY",42.442261,-77.84125
"14823","Canisteo","NY",42.250187,-77.58406
"14824","Cayuta","NY",42.265328,-76.71263
"14825","Chemung","NY",42.043018,-76.62459
"14826","Cohocton","NY",42.484672,-77.49846
"14827","Coopers Plains","NY",42.178527,-77.141357
"14830","Corning","NY",42.140881,-77.04793
"14831","Corning","NY",42.145265,-77.56683
"14836","Dalton","NY",42.523195,-77.93008
"14837","Dundee","NY",42.502293,-76.9997
"14838","Erin","NY",42.177019,-76.66687
"14839","Greenwood","NY",42.129806,-77.63705
"14840","Hammondsport","NY",42.453547,-77.18019
"14841","Hector","NY",42.521501,-76.86246
"14842","Himrod","NY",42.595985,-76.94713
"14843","Hornell","NY",42.331062,-77.65536
"14844","Horseheads","NY",42.160717,-76.878456
"14845","Horseheads","NY",42.181584,-76.83639
"14846","Hunt","NY",42.542056,-77.99501
"14847","Interlaken","NY",42.614518,-76.72405
"14850","Ithaca","NY",42.449454,-76.49685
"14851","Ithaca","NY",42.460721,-76.505435
"14852","Ithaca","NY",42.445074,-76.467233
"14853","Ithaca","NY",42.447373,-76.483703
"14854","Jacksonville","NY",42.50632,-76.608222
"14855","Jasper","NY",42.135945,-77.5078
"14856","Kanona","NY",42.374218,-77.364812
"14857","Lakemont","NY",42.515233,-76.92063
"14858","Lindley","NY",42.03128,-77.13413
"14859","Lockwood","NY",42.116615,-76.54806
"14860","Lodi","NY",42.590355,-76.84745
"14861","Lowman","NY",42.074742,-76.69317
"14863","Mecklenburg","NY",42.451569,-76.706717
"14864","Millport","NY",42.271938,-76.83926
"14865","Montour Falls","NY",42.352725,-76.84258
"14867","Newfield","NY",42.354851,-76.60338
"14869","Odessa","NY",42.341316,-76.77926
"14870","Painted Post","NY",42.173481,-77.11844
"14871","Pine City","NY",42.048032,-76.90521
"14872","Pine Valley","NY",42.218224,-76.84694
"14873","Prattsburgh","NY",42.525335,-77.29673
"14874","Pulteney","NY",42.527075,-77.16963
"14876","Reading Center","NY",42.429721,-76.925846
"14877","Rexville","NY",42.060154,-77.68455
"14878","Rock Stream","NY",42.451153,-76.93132
"14879","Savona","NY",42.330602,-77.19305
"14880","Scio","NY",42.170951,-77.97556
"14881","Slaterville Springs","NY",42.39534,-76.35211
"14882","Lansing","NY",42.564191,-76.54077
"14883","Spencer","NY",42.234865,-76.48643
"14884","Swain","NY",42.473556,-77.89514
"14885","Troupsburg","NY",42.041973,-77.5632
"14886","Trumansburg","NY",42.51432,-76.6689
"14887","Tyrone","NY",42.399371,-77.026768
"14889","Van Etten","NY",42.212809,-76.58618
"14891","Watkins Glen","NY",42.374828,-76.91606
"14892","Waverly","NY",42.023442,-76.53404
"14893","Wayne","NY",42.474143,-77.097713
"14894","Wellsburg","NY",42.01359,-76.75307
"14895","Wellsville","NY",42.094855,-77.94686
"14897","Whitesville","NY",42.034218,-77.79269
"14898","Woodhull","NY",42.065376,-77.42392
"14901","Elmira","NY",42.091924,-76.79217
"14902","Elmira","NY",42.147285,-76.750888
"14903","Elmira","NY",42.129274,-76.84497
"14904","Elmira","NY",42.072024,-76.80393
"14905","Elmira","NY",42.087824,-76.83686
"14925","Elmira","NY",42.147285,-76.750888
