"zip","city","state","latitude","longitude"
"73001","Albert","OK",35.203206,-98.357423
"73002","Alex","OK",34.936221,-97.74453
"73003","Edmond","OK",35.681402,-97.5331
"73004","Amber","OK",35.152892,-97.85582
"73005","Anadarko","OK",35.050671,-98.23984
"73006","Apache","OK",34.894964,-98.38697
"73007","Arcadia","OK",35.685368,-97.32739
"73008","Bethany","OK",35.506456,-97.63934
"73009","Binger","OK",35.292476,-98.35804
"73010","Blanchard","OK",35.118392,-97.66381
"73011","Bradley","OK",34.868514,-97.71386
"73012","Bray","OK",34.48532,-97.852223
"73013","Edmond","OK",35.623805,-97.47909
"73014","Calumet","OK",35.587497,-98.14506
"73015","Carnegie","OK",35.113271,-98.58643
"73016","Cashion","OK",35.805831,-97.68754
"73017","Cement","OK",34.932493,-98.11946
"73018","Chickasha","OK",35.040526,-97.94723
"73019","Norman","OK",35.208566,-97.44451
"73020","Choctaw","OK",35.465363,-97.26645
"73021","Colony","OK",35.34525,-98.66403
"73022","Concho","OK",35.618487,-97.99188
"73023","Chickasha","OK",35.031247,-97.881959
"73024","Corn","OK",35.370775,-98.80897
"73025","Edmond","OK",35.65,-97.47
"73026","Norman","OK",35.22704,-97.28198
"73027","Coyle","OK",35.975057,-97.25088
"73028","Crescent","OK",35.96375,-97.63071
"73029","Cyril","OK",34.907566,-98.19738
"73030","Davis","OK",34.485896,-97.14753
"73031","Dibble","OK",35.027,-97.62801
"73032","Dougherty","OK",34.400476,-97.05041
"73033","Eakly","OK",35.303547,-98.55543
"73034","Edmond","OK",35.683768,-97.44686
"73036","El Reno","OK",35.519046,-97.95534
"73038","Fort Cobb","OK",35.137863,-98.43667
"73039","Davis","OK",34.62,-97.48
"73040","Geary","OK",35.631117,-98.35764
"73041","Gotebo","OK",35.045196,-98.87586
"73042","Gracemont","OK",35.218293,-98.2484
"73043","Greenfield","OK",35.730049,-98.38577
"73044","Guthrie","OK",35.857303,-97.43176
"73045","Harrah","OK",35.491184,-97.16132
"73047","Hinton","OK",35.463837,-98.32451
"73048","Hydro","OK",35.471566,-98.54418
"73049","Jones","OK",35.572909,-97.29596
"73050","Langston","OK",35.941421,-97.25495
"73051","Lexington","OK",35.039068,-97.29276
"73052","Lindsay","OK",34.839562,-97.60045
"73053","Lookeba","OK",35.372736,-98.41223
"73054","Luther","OK",35.662619,-97.18976
"73055","Marlow","OK",34.637595,-97.93235
"73056","Marshall","OK",36.153239,-97.62988
"73057","Maysville","OK",34.828663,-97.42481
"73058","Meridian","OK",35.821107,-97.23455
"73059","Minco","OK",35.313109,-98.01237
"73061","Morrison","OK",36.323723,-97.00904
"73062","Mountain View","OK",35.062348,-98.73519
"73063","Mulhall","OK",36.06773,-97.43987
"73064","Mustang","OK",35.388059,-97.73626
"73065","Newcastle","OK",35.240232,-97.60908
"73066","Nicoma Park","OK",35.491226,-97.32434
"73067","Ninnekah","OK",34.909551,-97.9436
"73068","Noble","OK",35.138421,-97.32689
"73069","Norman","OK",35.228649,-97.45629
"73070","Norman","OK",35.187611,-97.397509
"73071","Norman","OK",35.225702,-97.42394
"73072","Norman","OK",35.212681,-97.48672
"73073","Orlando","OK",36.151316,-97.36279
"73074","Paoli","OK",34.831083,-97.2718
"73075","Pauls Valley","OK",34.741677,-97.22846
"73077","Perry","OK",36.308588,-97.28809
"73078","Piedmont","OK",35.654827,-97.76238
"73079","Pocasset","OK",35.210855,-98.01195
"73080","Purcell","OK",35.017656,-97.39646
"73082","Rush Springs","OK",34.790635,-97.93807
"73083","Edmond","OK",35.666481,-97.465436
"73084","Spencer","OK",35.52106,-97.34173
"73085","Yukon","OK",35.489527,-97.750009
"73086","Sulphur","OK",34.49284,-96.98606
"73089","Tuttle","OK",35.279882,-97.78458
"73090","Union City","OK",35.394725,-97.93552
"73092","Verden","OK",35.109275,-98.08247
"73093","Washington","OK",35.089882,-97.48837
"73094","Washita","OK",35.203206,-98.357423
"73095","Wayne","OK",34.913215,-97.30452
"73096","Weatherford","OK",35.527593,-98.71259
"73097","Wheatland","OK",35.397259,-97.65189
"73098","Wynnewood","OK",34.634693,-97.16322
"73099","Yukon","OK",35.506204,-97.74814
"73101","Oklahoma City","OK",35.491608,-97.562817
"73102","Oklahoma City","OK",35.47156,-97.52036
"73103","Oklahoma City","OK",35.489709,-97.51819
"73104","Oklahoma City","OK",35.47596,-97.50586
"73105","Oklahoma City","OK",35.509659,-97.50211
"73106","Oklahoma City","OK",35.482309,-97.53499
"73107","Oklahoma City","OK",35.484558,-97.57336
"73108","Oklahoma City","OK",35.447126,-97.55824
"73109","Oklahoma City","OK",35.43366,-97.52496
"73110","Oklahoma City","OK",35.459478,-97.39721
"73111","Oklahoma City","OK",35.504109,-97.47889
"73112","Oklahoma City","OK",35.517857,-97.57284
"73113","Oklahoma City","OK",35.551409,-97.407537
"73114","Oklahoma City","OK",35.568806,-97.52544
"73115","Oklahoma City","OK",35.440311,-97.44201
"73116","Oklahoma City","OK",35.544864,-97.55637
"73117","Oklahoma City","OK",35.476457,-97.47411
"73118","Oklahoma City","OK",35.515008,-97.53106
"73119","Oklahoma City","OK",35.42306,-97.56051
"73120","Oklahoma City","OK",35.579488,-97.56496
"73121","Oklahoma City","OK",35.50356,-97.44693
"73122","Oklahoma City","OK",35.520506,-97.6133
"73123","Oklahoma City","OK",35.535989,-97.202331
"73124","Oklahoma City","OK",35.551409,-97.407537
"73125","Oklahoma City","OK",35.465418,-97.521816
"73126","Oklahoma City","OK",35.551409,-97.407537
"73127","Oklahoma City","OK",35.481507,-97.6423
"73128","Oklahoma City","OK",35.441759,-97.62721
"73129","Oklahoma City","OK",35.431361,-97.49267
"73130","Oklahoma City","OK",35.459512,-97.35183
"73131","Oklahoma City","OK",35.576357,-97.46924
"73132","Oklahoma City","OK",35.552755,-97.63571
"73134","Oklahoma City","OK",35.612359,-97.57152
"73135","Oklahoma City","OK",35.40017,-97.43249
"73136","Oklahoma City","OK",35.61534,-97.326151
"73137","Oklahoma City","OK",35.551409,-97.407537
"73139","Oklahoma City","OK",35.388461,-97.52713
"73140","Oklahoma City","OK",35.518509,-97.427464
"73141","Oklahoma City","OK",35.498461,-97.39314
"73142","Oklahoma City","OK",35.605785,-97.63042
"73143","Oklahoma City","OK",35.551409,-97.407537
"73144","Oklahoma City","OK",35.551409,-97.407537
"73145","Oklahoma City","OK",35.433093,-97.39844
"73146","Oklahoma City","OK",35.551409,-97.407537
"73147","Oklahoma City","OK",35.551409,-97.407537
"73148","Oklahoma City","OK",35.551409,-97.407537
"73149","Oklahoma City","OK",35.395362,-97.49701
"73150","Oklahoma City","OK",35.407113,-97.33996
"73151","Oklahoma City","OK",35.568867,-97.4055
"73152","Oklahoma City","OK",35.551409,-97.407537
"73153","Oklahoma City","OK",35.551409,-97.407537
"73154","Oklahoma City","OK",35.523758,-97.525467
"73155","Oklahoma City","OK",35.551409,-97.407537
"73156","Oklahoma City","OK",35.551409,-97.407537
"73157","Oklahoma City","OK",35.551409,-97.407537
"73159","Oklahoma City","OK",35.386411,-97.55731
"73160","Oklahoma City","OK",35.34377,-97.48596
"73162","Oklahoma City","OK",35.579254,-97.63765
"73163","Oklahoma City","OK",35.551409,-97.407537
"73164","Oklahoma City","OK",35.551409,-97.407537
"73165","Oklahoma City","OK",35.338689,-97.36747
"73167","Oklahoma City","OK",35.551409,-97.407537
"73169","Oklahoma City","OK",35.388023,-97.64135
"73170","Oklahoma City","OK",35.338716,-97.53569
"73172","Oklahoma City","OK",35.517456,-97.621769
"73173","Oklahoma City","OK",35.355645,-97.64479
"73177","Oklahoma City","OK",35.551409,-97.407537
"73178","Oklahoma City","OK",35.551409,-97.407537
"73179","Oklahoma City","OK",35.416826,-97.62787
"73180","Oklahoma City","OK",35.551409,-97.407537
"73184","Oklahoma City","OK",35.551409,-97.407537
"73185","Oklahoma City","OK",35.551409,-97.407537
"73189","Oklahoma City","OK",35.551409,-97.407537
"73190","Oklahoma City","OK",35.551409,-97.407537
"73193","Oklahoma City","OK",35.551409,-97.407537
"73194","Oklahoma City","OK",35.551409,-97.407537
"73195","Oklahoma City","OK",35.4,-97.59
"73196","Oklahoma City","OK",35.551409,-97.407537
"73197","Oklahoma City","OK",35.551409,-97.407537
"73198","Oklahoma City","OK",35.551409,-97.407537
"73199","Oklahoma City","OK",35.551409,-97.407537
"73367","Sterling","OK",34.752406,-98.171022
"73371","Ames","OK",36.248359,-98.189412
"73401","Ardmore","OK",34.184742,-97.12655
"73402","Ardmore","OK",34.288884,-97.248074
"73403","Ardmore","OK",34.288884,-97.248074
"73425","Countyline","OK",34.447003,-97.55801
"73430","Burneyville","OK",33.925768,-97.36956
"73432","Coleman","OK",34.252682,-96.43358
"73433","Elmore City","OK",34.625144,-97.39901
"73434","Foster","OK",34.647208,-97.55044
"73435","Fox","OK",34.354547,-97.4843
"73436","Gene Autry","OK",34.293948,-97.033905
"73437","Graham","OK",34.363418,-97.43017
"73438","Healdton","OK",34.238486,-97.48895
"73439","Kingston","OK",33.938714,-96.71234
"73440","Lebanon","OK",33.975243,-96.90609
"73441","Leon","OK",33.877679,-97.42814
"73442","Loco","OK",34.329621,-97.68182
"73443","Lone Grove","OK",34.175234,-97.28894
"73444","Hennepin","OK",34.499735,-97.36406
"73445","Ravia","OK",34.244011,-96.751093
"73446","Madill","OK",34.092658,-96.74851
"73447","Mannsville","OK",34.225742,-96.86109
"73448","Marietta","OK",33.9401,-97.11031
"73449","Mead","OK",33.990978,-96.54409
"73450","Milburn","OK",34.273995,-96.54837
"73451","Ardmore","OK",34.17,-97.14
"73453","Overbrook","OK",34.033426,-97.24379
"73454","Ardmore","OK",34.17,-97.14
"73455","Ravia","OK",34.240761,-96.75726
"73456","Ringling","OK",34.165558,-97.62121
"73458","Springer","OK",34.337522,-97.23958
"73459","Thackerville","OK",33.794716,-97.13848
"73460","Tishomingo","OK",34.253452,-96.68124
"73461","Wapanucka","OK",34.367986,-96.43012
"73463","Wilson","OK",34.149455,-97.43096
"73476","Pernell","OK",34.680871,-97.300429
"73481","Ratliff City","OK",34.43664,-97.50121
"73487","Tatums","OK",34.481151,-97.46209
"73488","Tussy","OK",34.4836,-97.54783
"73491","Velma","OK",34.462809,-97.65419
"73501","Lawton","OK",34.608348,-98.39414
"73502","Lawton","OK",34.630879,-98.457646
"73503","Fort Sill","OK",34.69727,-98.46808
"73505","Lawton","OK",34.613973,-98.46255
"73506","Lawton","OK",34.630879,-98.457646
"73507","Lawton","OK",34.621373,-98.4001
"73520","Addington","OK",34.243494,-97.93843
"73521","Altus","OK",34.638773,-99.31787
"73522","Altus","OK",34.723795,-99.383928
"73523","Altus AFB","OK",34.598197,-99.440839
"73526","Blair","OK",34.776114,-99.30835
"73527","Cache","OK",34.613786,-98.62492
"73528","Chattanooga","OK",34.425098,-98.65892
"73529","Comanche","OK",34.372622,-97.97809
"73530","Davidson","OK",34.254376,-99.05182
"73531","Devol","OK",34.209826,-98.54891
"73532","Duke","OK",34.649815,-99.55555
"73533","Duncan","OK",34.502833,-97.95185
"73534","Duncan","OK",34.518944,-97.973331
"73536","Duncan","OK",34.48532,-97.852223
"73537","Eldorado","OK",34.49515,-99.67861
"73538","Elgin","OK",34.747379,-98.27805
"73539","Elmer","OK",34.457367,-99.28051
"73540","Faxon","OK",34.465332,-98.56181
"73541","Fletcher","OK",34.809495,-98.19821
"73542","Frederick","OK",34.410061,-98.96701
"73543","Geronimo","OK",34.478901,-98.37791
"73544","Gould","OK",34.681369,-99.74534
"73546","Grandfield","OK",34.239154,-98.72275
"73547","Granite","OK",34.976173,-99.3952
"73548","Hastings","OK",34.239192,-98.11312
"73549","Headrick","OK",34.645375,-99.15211
"73550","Hollis","OK",34.688567,-99.90944
"73551","Hollister","OK",34.325802,-98.86104
"73552","Indiahoma","OK",34.62256,-98.75386
"73553","Loveland","OK",34.330239,-98.70098
"73554","Mangum","OK",34.855652,-99.52012
"73555","Manitou","OK",34.50847,-98.96369
"73556","Martha","OK",34.751924,-99.39383
"73557","Medicine Park","OK",34.72775,-98.5008
"73558","Meers","OK",34.630879,-98.457646
"73559","Mountain Park","OK",34.696985,-98.96184
"73560","Olustee","OK",34.571329,-99.45164
"73561","Oscar","OK",34.023916,-97.64801
"73562","Randlett","OK",34.188182,-98.43533
"73564","Roosevelt","OK",34.834172,-98.97568
"73565","Ryan","OK",34.008894,-97.93581
"73566","Snyder","OK",34.637179,-98.96532
"73567","Sterling","OK",34.748538,-98.16905
"73568","Temple","OK",34.273576,-98.23377
"73569","Terral","OK",33.916049,-97.8621
"73570","Tipton","OK",34.500298,-99.12375
"73571","Vinson","OK",34.924584,-99.86736
"73572","Walters","OK",34.359739,-98.3455
"73573","Waurika","OK",34.16127,-97.99784
"73575","Duncan","OK",34.48532,-97.852223
"73601","Clinton","OK",35.508248,-98.96917
"73620","Arapaho","OK",35.591351,-99.00873
"73622","Bessie","OK",35.399588,-99.00641
"73624","Burns Flat","OK",35.355453,-99.17705
"73625","Butler","OK",35.675986,-99.19074
"73626","Canute","OK",35.394,-99.28001
"73627","Carter","OK",35.215997,-99.47006
"73628","Cheyenne","OK",35.603809,-99.6728
"73632","Cordell","OK",35.283812,-98.94987
"73638","Crawford","OK",35.819529,-99.77425
"73639","Custer City","OK",35.70364,-98.93351
"73641","Dill City","OK",35.26727,-99.18162
"73642","Durham","OK",35.851512,-99.90119
"73644","Elk City","OK",35.405935,-99.41658
"73645","Erick","OK",35.250612,-99.88029
"73646","Fay","OK",35.826514,-98.62902
"73647","Foss","OK",35.45544,-99.1744
"73648","Elk City","OK",35.26946,-99.680146
"73650","Hammon","OK",35.646142,-99.38849
"73651","Hobart","OK",35.018385,-99.09374
"73654","Leedey","OK",35.837115,-99.36845
"73655","Lone Wolf","OK",35.006152,-99.24851
"73656","Mayfield","OK",35.26946,-99.680146
"73658","Oakwood","OK",35.934444,-98.70827
"73659","Putnam","OK",35.848743,-98.9029
"73660","Reydon","OK",35.610122,-99.91743
"73661","Rocky","OK",35.167368,-99.0517
"73662","Sayre","OK",35.321815,-99.65314
"73663","Seiling","OK",36.13196,-98.91683
"73664","Sentinel","OK",35.167499,-99.21043
"73666","Sweetwater","OK",35.458562,-99.87143
"73667","Taloga","OK",36.033979,-98.99491
"73668","Texola","OK",35.219721,-99.99228
"73669","Thomas","OK",35.739994,-98.75502
"73673","Willow","OK",35.04655,-99.58042
"73701","Enid","OK",36.411133,-97.85026
"73702","Enid","OK",36.379072,-97.782595
"73703","Enid","OK",36.402666,-97.92836
"73705","Enid","OK",36.379072,-97.782595
"73706","Enid","OK",36.379072,-97.782595
"73716","Aline","OK",36.49556,-98.49057
"73717","Alva","OK",36.804875,-98.69707
"73718","Ames","OK",36.224663,-98.14881
"73719","Amorita","OK",36.949448,-98.28297
"73720","Bison","OK",36.200563,-97.88883
"73722","Burlington","OK",36.920802,-98.38429
"73724","Canton","OK",36.06141,-98.64291
"73726","Carmen","OK",36.580451,-98.47567
"73727","Carrier","OK",36.481331,-98.04144
"73728","Cherokee","OK",36.751276,-98.37108
"73729","Cleo Springs","OK",36.404703,-98.43861
"73730","Covington","OK",36.311257,-97.5597
"73731","Dacoma","OK",36.648048,-98.58222
"73733","Douglas","OK",36.239024,-97.68299
"73734","Dover","OK",35.978156,-97.8868
"73735","Drummond","OK",36.285664,-98.04193
"73736","Fairmont","OK",36.347664,-97.69316
"73737","Fairview","OK",36.281915,-98.52463
"73738","Garber","OK",36.455282,-97.55974
"73739","Goltry","OK",36.521836,-98.13462
"73741","Helena","OK",36.557263,-98.27451
"73742","Hennessey","OK",36.105884,-97.88304
"73743","Hillsdale","OK",36.563732,-97.99385
"73744","Hitchcock","OK",35.966488,-98.29013
"73746","Hopeton","OK",36.692876,-98.65816
"73747","Isabella","OK",36.221983,-98.32899
"73749","Jet","OK",36.702485,-98.1728
"73750","Kingfisher","OK",35.856216,-97.93743
"73753","Kremlin","OK",36.56225,-97.83368
"73754","Lahoma","OK",36.389599,-98.09063
"73755","Longdale","OK",36.14001,-98.57918
"73756","Loyal","OK",36.007004,-98.11234
"73757","Lucien","OK",36.267701,-97.45245
"73758","Manchester","OK",36.949144,-98.04938
"73759","Medford","OK",36.832446,-97.72414
"73760","Meno","OK",36.371779,-98.16808
"73761","Nash","OK",36.685205,-98.03095
"73762","Okarche","OK",35.713606,-97.97217
"73763","Okeene","OK",36.116401,-98.33352
"73764","Omega","OK",35.867757,-98.17995
"73766","Pond Creek","OK",36.662715,-97.83063
"73768","Ringwood","OK",36.383753,-98.27411
"73770","Southard","OK",36.058133,-98.588383
"73771","Wakita","OK",36.844573,-97.962
"73772","Watonga","OK",35.870276,-98.43772
"73773","Waukomis","OK",36.273144,-97.90335
"73801","Woodward","OK",36.433665,-99.40838
"73802","Woodward","OK",36.543405,-99.29047
"73832","Arnett","OK",36.122573,-99.712
"73834","Buffalo","OK",36.851116,-99.5897
"73835","Camargo","OK",35.986173,-99.23866
"73838","Chester","OK",36.253795,-98.89818
"73840","Fargo","OK",36.403804,-99.64674
"73841","Fort Supply","OK",36.557966,-99.57425
"73842","Freedom","OK",36.803902,-99.18304
"73843","Gage","OK",36.41954,-99.84131
"73844","Gate","OK",36.853151,-100.06947
"73847","Knowles","OK",36.903089,-100.22748
"73848","Laverne","OK",36.673357,-99.88179
"73851","May","OK",36.614425,-99.77153
"73852","Mooreland","OK",36.456875,-99.13004
"73853","Mutual","OK",36.223999,-99.1237
"73855","Rosston","OK",36.863262,-99.88181
"73857","Sharon","OK",36.283175,-99.32679
"73858","Shattuck","OK",36.226355,-99.89028
"73859","Vici","OK",36.140186,-99.26866
"73860","Waynoka","OK",36.56306,-98.86623
"73901","Adams","OK",36.756145,-101.07462
"73931","Balko","OK",36.601946,-100.76553
"73932","Beaver","OK",36.710457,-100.47888
"73933","Boise City","OK",36.740652,-102.54473
"73937","Felt","OK",36.563865,-102.78868
"73938","Forgan","OK",36.914169,-100.61244
"73939","Goodwell","OK",36.691413,-101.738
"73942","Guymon","OK",36.739447,-101.48851
"73944","Hardesty","OK",36.605467,-101.1204
"73945","Hooker","OK",36.832751,-101.25618
"73946","Kenton","OK",36.922263,-102.92339
"73947","Keyes","OK",36.844919,-102.2005
"73949","Texhoma","OK",36.56879,-101.91782
"73950","Turpin","OK",36.852475,-100.89584
"73951","Tyrone","OK",36.95279,-101.06337
"74001","Avant","OK",36.487394,-96.06384
"74002","Barnsdall","OK",36.549109,-96.146
"74003","Bartlesville","OK",36.741589,-96.00614
"74004","Bartlesville","OK",36.711386,-95.894042
"74005","Bartlesville","OK",36.711386,-95.894042
"74006","Bartlesville","OK",36.733398,-95.92404
"74008","Bixby","OK",35.951402,-95.88361
"74009","Bowring","OK",36.665794,-96.398424
"74010","Bristow","OK",35.843486,-96.38183
"74011","Broken Arrow","OK",35.992283,-95.80542
"74012","Broken Arrow","OK",36.045907,-95.80694
"74013","Broken Arrow","OK",36.139826,-96.029725
"74014","Broken Arrow","OK",36.053246,-95.70957
"74015","Catoosa","OK",36.188136,-95.73199
"74016","Chelsea","OK",36.546415,-95.44592
"74017","Claremore","OK",36.327143,-95.61192
"74018","Claremore","OK",36.343579,-95.605964
"74019","Claremore","OK",36.28,-95.49
"74020","Cleveland","OK",36.260645,-96.39586
"74021","Collinsville","OK",36.369251,-95.8397
"74022","Copan","OK",36.909076,-95.96577
"74023","Cushing","OK",35.973286,-96.75751
"74026","Davenport","OK",35.710256,-96.76333
"74027","Delaware","OK",36.793303,-95.63631
"74028","Depew","OK",35.805114,-96.53926
"74029","Dewey","OK",36.808722,-95.92617
"74030","Drumright","OK",35.987421,-96.58776
"74031","Foyil","OK",36.336457,-95.571646
"74032","Glencoe","OK",36.214419,-96.91672
"74033","Glenpool","OK",35.951244,-96.00803
"74034","Hallett","OK",36.232452,-96.56882
"74035","Hominy","OK",36.417205,-96.38379
"74036","Inola","OK",36.145085,-95.51443
"74037","Jenks","OK",36.012562,-95.98241
"74038","Jennings","OK",36.164934,-96.56083
"74039","Kellyville","OK",35.931488,-96.22915
"74041","Kiefer","OK",35.94876,-96.06237
"74042","Lenapah","OK",36.857305,-95.61423
"74043","Leonard","OK",35.918277,-95.798809
"74044","Mannford","OK",36.111943,-96.37159
"74045","Maramec","OK",36.241861,-96.68338
"74046","Milfay","OK",35.901277,-96.326053
"74047","Mounds","OK",35.853188,-96.00205
"74048","Nowata","OK",36.690587,-95.62751
"74050","Oakhurst","OK",36.074141,-96.0619
"74051","Ochelata","OK",36.60234,-95.97544
"74052","Oilton","OK",36.084211,-96.5794
"74053","Oologah","OK",36.437088,-95.71144
"74054","Osage","OK",36.276739,-96.36831
"74055","Owasso","OK",36.278298,-95.8305
"74056","Pawhuska","OK",36.764056,-96.32123
"74058","Pawnee","OK",36.358645,-96.77143
"74059","Perkins","OK",35.968675,-97.04258
"74060","Prue","OK",36.24973,-96.2674
"74061","Ramona","OK",36.533868,-95.90865
"74062","Ripley","OK",36.024668,-96.90773
"74063","Sand Springs","OK",36.139385,-96.16523
"74064","McCord","OK",36.68125,-97.032304
"74066","Sapulpa","OK",35.996582,-96.1194
"74067","Sapulpa","OK",36.019575,-96.093682
"74068","Shamrock","OK",35.910408,-96.57768
"74070","Skiatook","OK",36.381305,-96.03998
"74071","Slick","OK",35.778763,-96.26802
"74072","S Coffeyville","OK",36.957786,-95.57108
"74073","Sperry","OK",36.306323,-96.02081
"74074","Stillwater","OK",36.105571,-97.07631
"74075","Stillwater","OK",36.149394,-97.05784
"74076","Stillwater","OK",36.072372,-97.055141
"74077","Stillwater","OK",36.093665,-96.987458
"74078","Stillwater","OK",36.093665,-96.987458
"74079","Stroud","OK",35.744531,-96.66342
"74080","Talala","OK",36.527631,-95.6992
"74081","Terlton","OK",36.169806,-96.44005
"74082","Vera","OK",36.450115,-95.881381
"74083","Wann","OK",36.935821,-95.78336
"74084","Wynona","OK",36.542944,-96.31853
"74085","Yale","OK",36.10865,-96.70231
"74101","Tulsa","OK",36.039147,-95.868667
"74102","Tulsa","OK",36.063095,-95.804231
"74103","Tulsa","OK",36.156892,-95.99508
"74104","Tulsa","OK",36.146143,-95.95414
"74105","Tulsa","OK",36.099044,-95.96615
"74106","Tulsa","OK",36.184692,-95.98512
"74107","Tulsa","OK",36.102042,-96.03144
"74108","Tulsa","OK",36.146897,-95.79958
"74110","Tulsa","OK",36.181143,-95.95424
"74112","Tulsa","OK",36.148444,-95.90841
"74114","Tulsa","OK",36.126894,-95.94657
"74115","Tulsa","OK",36.180144,-95.91129
"74116","Tulsa","OK",36.169454,-95.8242
"74117","Tulsa","OK",36.235961,-95.88514
"74119","Tulsa","OK",36.142743,-95.98872
"74120","Tulsa","OK",36.151143,-95.97747
"74121","Tulsa","OK",36.139826,-96.029725
"74126","Tulsa","OK",36.236691,-95.98674
"74127","Tulsa","OK",36.160341,-96.03435
"74128","Tulsa","OK",36.146577,-95.85194
"74129","Tulsa","OK",36.126446,-95.86763
"74130","Tulsa","OK",36.239642,-95.95847
"74131","Tulsa","OK",36.057536,-96.07119
"74132","Tulsa","OK",36.051893,-96.02752
"74133","Tulsa","OK",36.04309,-95.88417
"74134","Tulsa","OK",36.114797,-95.82105
"74135","Tulsa","OK",36.101245,-95.92475
"74136","Tulsa","OK",36.059495,-95.93922
"74137","Tulsa","OK",36.025405,-95.92953
"74141","Tulsa","OK",36.139826,-96.029725
"74145","Tulsa","OK",36.096296,-95.8847
"74146","Tulsa","OK",36.102112,-95.85244
"74147","Tulsa","OK",36.139826,-96.029725
"74148","Tulsa","OK",36.139826,-96.029725
"74149","Tulsa","OK",36.139826,-96.029725
"74150","Tulsa","OK",36.139826,-96.029725
"74152","Tulsa","OK",36.139826,-96.029725
"74153","Tulsa","OK",36.139826,-96.029725
"74155","Tulsa","OK",36.139826,-96.029725
"74156","Tulsa","OK",36.302391,-95.960472
"74157","Tulsa","OK",36.139826,-96.029725
"74158","Tulsa","OK",36.139826,-96.029725
"74159","Tulsa","OK",36.077221,-96.083477
"74169","Tulsa","OK",36.139826,-96.029725
"74170","Tulsa","OK",36.139826,-96.029725
"74171","Tulsa","OK",36.054345,-95.957721
"74172","Tulsa","OK",36.154342,-95.992323
"74177","Tulsa","OK",36.048045,-95.957771
"74182","Tulsa","OK",36.139826,-96.029725
"74183","Tulsa","OK",36.139826,-96.029725
"74184","Tulsa","OK",36.139826,-96.029725
"74186","Tulsa","OK",36.139826,-96.029725
"74187","Tulsa","OK",36.139826,-96.029725
"74189","Tulsa","OK",36.139826,-96.029725
"74192","Tulsa","OK",36.139826,-96.029725
"74193","Tulsa","OK",36.139826,-96.029725
"74194","Tulsa","OK",36.139826,-96.029725
"74301","Vinita","OK",36.631673,-95.17303
"74328","Colcord","OK",36.260756,-94.69267
"74330","Adair","OK",36.434328,-95.25512
"74331","Afton","OK",36.618326,-94.93424
"74332","Big Cabin","OK",36.51509,-95.22924
"74333","Bluejacket","OK",36.802232,-95.07782
"74334","Dodge","OK",36.597953,-94.647526
"74335","Cardin","OK",36.975692,-94.85161
"74336","Jay","OK",36.422876,-94.796399
"74337","Chouteau","OK",36.167467,-95.31925
"74338","Colcord","OK",36.227439,-94.67798
"74339","Commerce","OK",36.932957,-94.87134
"74340","Disney","OK",36.48721,-94.98452
"74342","Eucha","OK",36.420495,-94.92621
"74343","Fairland","OK",36.747928,-94.84022
"74344","Grove","OK",36.599689,-94.76673
"74345","Grove","OK",36.603587,-94.72974
"74346","Jay","OK",36.444215,-94.78345
"74347","Kansas","OK",36.19,-94.79595
"74349","Ketchum","OK",36.523163,-95.02428
"74350","Langley","OK",36.46898,-95.04967
"74352","Locust Grove","OK",36.148065,-95.16801
"74353","Mazie","OK",36.292495,-95.222792
"74354","Miami","OK",36.880746,-94.87142
"74355","Miami","OK",36.83408,-94.877031
"74358","North Miami","OK",36.915805,-94.88039
"74359","Oaks","OK",36.415938,-94.787091
"74360","Picher","OK",36.981521,-94.83278
"74361","Pryor","OK",36.294174,-95.30295
"74362","Pryor","OK",36.292495,-95.222792
"74363","Quapaw","OK",36.947372,-94.72912
"74364","Rose","OK",36.197948,-94.96707
"74365","Salina","OK",36.296196,-95.10556
"74366","Spavinaw","OK",36.394258,-95.04869
"74367","Strang","OK",36.412084,-95.12924
"74368","Twin Oaks","OK",36.20822,-94.85945
"74369","Welch","OK",36.897777,-95.15249
"74370","Wyandotte","OK",36.777702,-94.68768
"74399","Commerce","OK",36.932944,-94.873005
"74401","Muskogee","OK",35.739681,-95.40711
"74402","Muskogee","OK",35.764223,-95.306916
"74403","Muskogee","OK",35.719962,-95.33691
"74421","Beggs","OK",35.755522,-96.04744
"74422","Boynton","OK",35.645974,-95.66931
"74423","Braggs","OK",35.668132,-95.18582
"74425","Canadian","OK",35.172538,-95.62824
"74426","Checotah","OK",35.443872,-95.54393
"74427","Cookson","OK",35.700818,-94.92552
"74428","Council Hill","OK",35.550269,-95.64874
"74429","Coweta","OK",35.94785,-95.6377
"74430","Crowder","OK",35.124644,-95.66668
"74431","Dewar","OK",35.458946,-95.94597
"74432","Eufaula","OK",35.280145,-95.57854
"74434","Fort Gibson","OK",35.799294,-95.23355
"74435","Gore","OK",35.566657,-95.09627
"74436","Haskell","OK",35.815497,-95.68608
"74437","Henryetta","OK",35.447961,-95.95038
"74438","Hitchita","OK",35.520519,-95.75122
"74439","Braggs","OK",35.88,-95.23
"74440","Hoyt","OK",35.269955,-95.30205
"74441","Hulbert","OK",35.966254,-95.15436
"74442","Indianola","OK",35.152295,-95.78957
"74444","Moodys","OK",36.053001,-94.96682
"74445","Morris","OK",35.616464,-95.84645
"74446","Okay","OK",35.852293,-95.31717
"74447","Okmulgee","OK",35.628612,-95.9734
"74450","Oktaha","OK",35.59824,-95.48434
"74451","Park Hill","OK",35.742956,-94.96737
"74452","Peggs","OK",36.10862,-95.11169
"74454","Porter","OK",35.867529,-95.52647
"74455","Porum","OK",35.355394,-95.28635
"74456","Preston","OK",35.712025,-95.99717
"74457","Proctor","OK",36.053046,-94.7768
"74458","Redbird","OK",35.963567,-95.513856
"74459","Rentiesville","OK",35.519193,-95.49447
"74460","Schulter","OK",35.51833,-95.9576
"74461","Stidham","OK",35.384048,-95.70731
"74462","Stigler","OK",35.272967,-95.16328
"74463","Taft","OK",35.76342,-95.54788
"74464","Tahlequah","OK",35.923658,-94.97185
"74465","Tahlequah","OK",35.900074,-95.040008
"74466","Tullahassee","OK",35.963567,-95.513856
"74467","Wagoner","OK",35.961019,-95.3611
"74468","Wainwright","OK",35.61546,-95.56851
"74469","Warner","OK",35.493581,-95.30914
"74470","Webbers Falls","OK",35.490036,-95.15158
"74471","Welling","OK",35.837827,-94.87402
"74472","Whitefield","OK",35.259201,-95.24701
"74477","Wagoner","OK",35.963567,-95.513856
"74501","Mcalester","OK",34.944399,-95.75709
"74502","Mcalester","OK",34.947259,-95.720708
"74520","Ada","OK",34.772557,-96.661745
"74521","Albion","OK",34.660204,-95.09814
"74522","Alderson","OK",34.902286,-95.69073
"74523","Antlers","OK",34.229335,-95.61603
"74525","Atoka","OK",34.347553,-96.11276
"74528","Blanco","OK",34.722059,-95.76125
"74529","Blocker","OK",34.947259,-95.720708
"74530","Bromide","OK",34.416915,-96.49278
"74531","Calvin","OK",34.932628,-96.23929
"74533","Caney","OK",34.217672,-96.19634
"74534","Centrahoma","OK",34.612564,-96.35556
"74535","Clarita","OK",34.488403,-96.43356
"74536","Clayton","OK",34.590491,-95.36797
"74538","Coalgate","OK",34.553763,-96.23084
"74540","Daisy","OK",34.540822,-95.71825
"74542","Atoka","OK",34.4187,-96.039727
"74543","Finley","OK",34.373618,-95.43604
"74545","Gowen","OK",34.877067,-95.47832
"74546","Haileyville","OK",34.855223,-95.57691
"74547","Hartshorne","OK",34.84294,-95.57413
"74549","Honobia","OK",34.536633,-94.93507
"74552","Kinta","OK",35.127495,-95.23098
"74553","Kiowa","OK",34.708098,-95.90485
"74554","Krebs","OK",34.926507,-95.72048
"74555","Lane","OK",34.249448,-95.96199
"74556","Lehigh","OK",34.471798,-96.20366
"74557","Moyers","OK",34.391572,-95.67366
"74558","Nashoba","OK",34.497876,-95.1316
"74559","Panola","OK",34.869457,-95.221099
"74560","Pittsburg","OK",34.66625,-95.78885
"74561","Quinton","OK",35.119128,-95.39008
"74562","Rattan","OK",34.263342,-95.30693
"74563","Red Oak","OK",34.948771,-95.1037
"74565","Savanna","OK",34.831398,-95.83967
"74567","Snow","OK",34.454702,-95.41013
"74569","Stringtown","OK",34.491359,-95.94157
"74570","Stuart","OK",34.858091,-96.09233
"74571","Talihina","OK",34.729815,-95.03625
"74572","Tupelo","OK",34.626083,-96.43083
"74574","Tuskahoma","OK",34.646758,-95.27642
"74576","Wardville","OK",34.665422,-96.03074
"74577","Whitesboro","OK",34.689854,-94.8558
"74578","Wilburton","OK",34.886021,-95.29859
"74601","Ponca City","OK",36.707393,-97.10167
"74602","Ponca City","OK",36.695368,-97.137693
"74603","Ponca City","OK",36.796349,-97.106166
"74604","Ponca City","OK",36.704703,-97.00798
"74630","Billings","OK",36.52791,-97.43304
"74631","Blackwell","OK",36.800787,-97.29289
"74632","Braman","OK",36.939016,-97.33875
"74633","Burbank","OK",36.694585,-96.73934
"74636","Deer Creek","OK",36.810451,-97.51795
"74637","Fairfax","OK",36.577618,-96.69529
"74640","Hunter","OK",36.585776,-97.61334
"74641","Kaw City","OK",36.807276,-96.86091
"74643","Lamont","OK",36.69588,-97.56931
"74644","Marland","OK",36.554757,-97.14483
"74646","Nardin","OK",36.821862,-97.45366
"74647","Newkirk","OK",36.904817,-97.06078
"74650","Ralston","OK",36.500388,-96.74013
"74651","Red Rock","OK",36.473704,-97.20505
"74652","Shidler","OK",36.830328,-96.68054
"74653","Tonkawa","OK",36.665613,-97.32967
"74701","Durant","OK",34.009209,-96.38612
"74702","Durant","OK",33.921979,-96.191767
"74720","Achille","OK",33.83464,-96.39018
"74721","Albany","OK",33.888549,-96.17244
"74722","Battiest","OK",34.454046,-94.94148
"74723","Bennington","OK",33.997865,-96.02963
"74724","Bethel","OK",34.402346,-94.79763
"74726","Bokchito","OK",33.98526,-96.15629
"74727","Boswell","OK",34.026768,-95.8613
"74728","Broken Bow","OK",34.142978,-94.80269
"74729","Caddo","OK",34.137095,-96.26936
"74730","Calera","OK",33.920767,-96.44073
"74731","Cartwright","OK",33.869195,-96.57617
"74733","Colbert","OK",33.84836,-96.5029
"74734","Eagletown","OK",34.138965,-94.55407
"74735","Fort Towson","OK",34.052225,-95.25701
"74736","Garvin","OK",33.917419,-94.96494
"74737","Golden","OK",34.032184,-94.89649
"74738","Grant","OK",33.917165,-95.4894
"74740","Haworth","OK",33.784733,-94.60436
"74741","Hendrix","OK",33.77061,-96.29927
"74743","Hugo","OK",34.010943,-95.51651
"74745","Idabel","OK",33.883578,-94.83154
"74747","Kemp","OK",33.769093,-96.3549
"74748","Kenefic","OK",34.163069,-96.47772
"74750","Millerton","OK",33.98471,-95.01088
"74752","Pickens","OK",34.061674,-94.808868
"74753","Platter","OK",33.918732,-96.5464
"74754","Ringold","OK",34.199682,-95.12064
"74755","Rufe","OK",34.127277,-95.11846
"74756","Sawyer","OK",34.023191,-95.36911
"74759","Soper","OK",34.038263,-95.70851
"74760","Spencerville","OK",34.146827,-95.37358
"74761","Swink","OK",34.01528,-95.20104
"74764","Valliant","OK",34.038794,-95.07793
"74766","Wright City","OK",34.148691,-94.95546
"74801","Shawnee","OK",35.327341,-96.93544
"74802","Shawnee","OK",35.365621,-96.959601
"74804","Shawnee","OK",35.375188,-96.93162
"74807","Shawnee","OK",35.306375,-96.935924
"74818","Seminole","OK",35.162228,-96.609139
"74820","Ada","OK",34.780243,-96.68761
"74821","Ada","OK",34.735301,-96.669321
"74824","Agra","OK",35.883914,-96.86735
"74825","Allen","OK",34.817511,-96.4108
"74826","Asher","OK",35.012407,-96.91873
"74827","Atwood","OK",34.949547,-96.33356
"74829","Boley","OK",35.49596,-96.48051
"74830","Bowlegs","OK",35.147566,-96.6696
"74831","Byars","OK",34.891218,-97.06278
"74832","Carney","OK",35.815581,-97.01061
"74833","Castle","OK",35.54247,-96.39471
"74834","Chandler","OK",35.702159,-96.88961
"74836","Connerville","OK",34.451503,-96.63092
"74837","Cromwell","OK",35.348331,-96.46385
"74839","Dustin","OK",35.262169,-96.05434
"74840","Earlsboro","OK",35.29689,-96.78325
"74842","Fittstown","OK",34.597595,-96.61818
"74843","Fitzhugh","OK",34.648631,-96.73885
"74844","Francis","OK",34.878209,-96.58838
"74845","Hanna","OK",35.203729,-95.90822
"74848","Holdenville","OK",35.088636,-96.38778
"74849","Konawa","OK",34.969783,-96.73899
"74850","Lamar","OK",35.104311,-96.09067
"74851","Mcloud","OK",35.4122,-97.0984
"74852","Macomb","OK",35.123383,-97.00869
"74853","Wetumka","OK",35.235118,-96.24114
"74854","Maud","OK",35.129805,-96.77625
"74855","Meeker","OK",35.507952,-96.89689
"74856","Mill Creek","OK",34.395266,-96.81667
"74857","Newalla","OK",35.351612,-97.19507
"74859","Okemah","OK",35.44116,-96.30798
"74860","Paden","OK",35.514019,-96.56969
"74864","Prague","OK",35.490727,-96.69141
"74865","Roff","OK",34.618331,-96.81397
"74866","Saint Louis","OK",35.062235,-96.8355
"74867","Sasakwa","OK",34.948211,-96.53394
"74868","Seminole","OK",35.249655,-96.65915
"74869","Sparks","OK",35.601113,-96.7777
"74871","Stonewall","OK",34.630936,-96.55756
"74872","Stratford","OK",34.793533,-96.97738
"74873","Tecumseh","OK",35.231608,-96.9767
"74875","Tryon","OK",35.876736,-96.95179
"74878","Wanette","OK",35.012317,-97.06156
"74880","Weleetka","OK",35.369606,-96.13412
"74881","Wellston","OK",35.694734,-97.07043
"74883","Wetumka","OK",35.232465,-96.23571
"74884","Wewoka","OK",35.166644,-96.5066
"74894","Konawa","OK",34.955971,-96.754575
"74901","Arkoma","OK",35.347792,-94.44274
"74902","Pocola","OK",35.241727,-94.46967
"74930","Bokoshe","OK",35.184593,-94.79752
"74931","Bunch","OK",35.690088,-94.76307
"74932","Cameron","OK",35.138765,-94.54108
"74935","Fanshawe","OK",34.951143,-94.90421
"74936","Gans","OK",35.392525,-94.70368
"74937","Heavener","OK",34.866897,-94.58622
"74939","Hodgen","OK",34.712466,-94.65008
"74940","Howe","OK",34.956272,-94.63333
"74941","Keota","OK",35.26773,-94.87609
"74942","Leflore","OK",34.898768,-94.98141
"74943","Lequire","OK",35.077265,-95.08613
"74944","Mccurtain","OK",35.127447,-94.98545
"74945","Marble City","OK",35.595915,-94.8089
"74946","Moffett","OK",35.41483,-94.45263
"74947","Monroe","OK",34.991767,-94.51763
"74948","Muldrow","OK",35.431711,-94.56575
"74949","Muse","OK",34.669198,-94.75729
"74951","Panama","OK",35.172259,-94.67008
"74953","Poteau","OK",35.052793,-94.61829
"74954","Roland","OK",35.413049,-94.50476
"74955","Sallisaw","OK",35.467031,-94.78647
"74956","Shady Point","OK",35.122751,-94.72058
"74957","Smithville","OK",34.503213,-94.67157
"74959","Spiro","OK",35.247209,-94.62105
"74960","Stilwell","OK",35.815628,-94.65023
"74962","Vian","OK",35.543155,-94.96628
"74963","Watson","OK",34.37769,-94.55278
"74964","Watts","OK",36.114272,-94.6335
"74965","Westville","OK",35.998632,-94.59266
"74966","Wister","OK",34.943609,-94.81453
"74968","Muldrow","OK",35.398035,-94.63761
"76356","Terral","OK",33.897998,-97.936166
"79051","Kerrick","OK",36.531076,-102.33198
