"zip","city","state","latitude","longitude"
"52820","Tennyson","WI",42.689339,-90.682257
"53001","Adell","WI",43.61014,-88.03047
"53002","Allenton","WI",43.461969,-88.36432
"53003","Ashippun","WI",43.211067,-88.51649
"53004","Belgium","WI",43.498943,-87.86211
"53005","Brookfield","WI",43.060872,-88.09478
"53006","Brownsville","WI",43.623996,-88.51089
"53007","Butler","WI",43.10836,-88.06893
"53008","Brookfield","WI",43.018696,-88.302997
"53009","Byron","WI",43.76983,-88.494357
"53010","Campbellsport","WI",43.602787,-88.2653
"53011","Cascade","WI",43.657079,-88.08008
"53012","Cedarburg","WI",43.305412,-87.99794
"53013","Cedar Grove","WI",43.575272,-87.84597
"53014","Chilton","WI",44.033215,-88.17626
"53015","Cleveland","WI",43.914168,-87.76689
"53016","Clyman","WI",43.313002,-88.71989
"53017","Colgate","WI",43.199526,-88.26177
"53018","Delafield","WI",43.05348,-88.39844
"53019","Eden","WI",43.699527,-88.32233
"53020","Elkhart Lake","WI",43.85255,-88.01085
"53021","Fredonia","WI",43.483263,-87.98908
"53022","Germantown","WI",43.219155,-88.12043
"53023","Glenbeulah","WI",43.777582,-88.10103
"53024","Grafton","WI",43.32546,-87.94573
"53026","Greenbush","WI",43.718294,-87.618716
"53027","Hartford","WI",43.313361,-88.37332
"53029","Hartland","WI",43.132743,-88.34737
"53031","Hingham","WI",43.639395,-87.915705
"53032","Horicon","WI",43.446666,-88.62795
"53033","Hubertus","WI",43.233282,-88.2396
"53034","Hustisford","WI",43.345528,-88.60135
"53035","Iron Ridge","WI",43.395861,-88.53606
"53036","Ixonia","WI",43.178685,-88.5739
"53037","Jackson","WI",43.322213,-88.17011
"53038","Johnson Creek","WI",43.075784,-88.77595
"53039","Juneau","WI",43.378828,-88.70876
"53040","Kewaskum","WI",43.52413,-88.19215
"53042","Kiel","WI",43.924095,-88.00285
"53044","Kohler","WI",43.740794,-87.78303
"53045","Brookfield","WI",43.055315,-88.1503
"53046","Lannon","WI",43.153447,-88.16124
"53047","Lebanon","WI",43.257364,-88.62873
"53048","Lomira","WI",43.584926,-88.44594
"53049","Malone","WI",43.887372,-88.28802
"53050","Mayville","WI",43.499518,-88.53911
"53051","Menomonee Falls","WI",43.151183,-88.11034
"53052","Menomonee Falls","WI",43.018696,-88.302997
"53056","Merton","WI",43.146023,-88.30975
"53057","Mount Calvary","WI",43.80576,-88.25436
"53058","Nashotah","WI",43.108775,-88.40276
"53059","Neosho","WI",43.289159,-88.52623
"53060","Newburg","WI",43.433807,-88.062338
"53061","New Holstein","WI",43.949961,-88.09962
"53062","New Holstein","WI",44.067942,-88.223131
"53063","Newton","WI",43.97207,-87.7766
"53064","North Lake","WI",43.018696,-88.302997
"53065","Oakfield","WI",43.689915,-88.56586
"53066","Oconomowoc","WI",43.108241,-88.48935
"53069","Okauchee","WI",43.114118,-88.43771
"53070","Oostburg","WI",43.622793,-87.80364
"53072","Pewaukee","WI",43.076953,-88.268
"53073","Plymouth","WI",43.758674,-87.98005
"53074","Port Washington","WI",43.40181,-87.88001
"53075","Random Lake","WI",43.564477,-87.99094
"53076","Richfield","WI",43.265289,-88.20144
"53078","Rubicon","WI",43.3182,-88.45169
"53079","Saint Cloud","WI",43.808108,-88.18164
"53080","Saukville","WI",43.394676,-87.95887
"53081","Sheboygan","WI",43.736145,-87.72893
"53082","Sheboygan","WI",43.718294,-87.618716
"53083","Sheboygan","WI",43.797567,-87.75664
"53085","Sheboygan Falls","WI",43.731685,-87.83406
"53086","Slinger","WI",43.33278,-88.27907
"53088","Stockbridge","WI",44.075128,-88.30106
"53089","Sussex","WI",43.14004,-88.22641
"53090","West Bend","WI",43.446623,-88.17879
"53091","Theresa","WI",43.502688,-88.43299
"53092","Thiensville","WI",43.223907,-87.95085
"53093","Waldo","WI",43.665399,-87.94735
"53094","Watertown","WI",43.170606,-88.73058
"53095","West Bend","WI",43.40328,-88.18026
"53097","Mequon","WI",43.234506,-88.00914
"53098","Watertown","WI",43.231506,-88.70634
"53099","Woodland","WI",43.414202,-88.704914
"53101","Bassett","WI",42.58098,-87.662878
"53102","Benet Lake","WI",42.500141,-88.079983
"53103","Big Bend","WI",42.886982,-88.20955
"53104","Bristol","WI",42.551693,-88.04908
"53105","Burlington","WI",42.662671,-88.28132
"53108","Caledonia","WI",42.825711,-87.94293
"53109","Camp Lake","WI",42.535968,-88.144386
"53110","Cudahy","WI",42.948416,-87.86101
"53114","Darien","WI",42.60027,-88.74978
"53115","Delavan","WI",42.63427,-88.6383
"53118","Dousman","WI",42.991622,-88.47085
"53119","Eagle","WI",42.881035,-88.47117
"53120","East Troy","WI",42.797775,-88.40435
"53121","Elkhorn","WI",42.711105,-88.54214
"53122","Elm Grove","WI",43.050762,-88.0842
"53125","Fontana","WI",42.546003,-88.56234
"53126","Franksville","WI",42.778642,-87.96609
"53127","Genesee Depot","WI",42.960098,-88.374455
"53128","Genoa City","WI",42.526028,-88.33443
"53129","Greendale","WI",42.937448,-87.99839
"53130","Hales Corners","WI",42.941264,-88.05121
"53132","Franklin","WI",42.896145,-88.00891
"53134","Walworth","WI",42.560001,-88.594815
"53137","Helenville","WI",43.000999,-88.66382
"53138","Honey Creek","WI",42.66749,-88.541721
"53139","Kansasville","WI",42.691937,-88.12599
"53140","Kenosha","WI",42.60217,-87.82979
"53141","Kenosha","WI",42.58098,-87.662878
"53142","Kenosha","WI",42.559823,-87.87878
"53143","Kenosha","WI",42.56427,-87.83043
"53144","Kenosha","WI",42.601842,-87.87617
"53146","New Berlin","WI",42.973663,-88.15414
"53147","Lake Geneva","WI",42.587613,-88.45828
"53148","Lyons","WI",42.649557,-88.35965
"53149","Mukwonago","WI",42.872477,-88.34409
"53150","Muskego","WI",42.901235,-88.12464
"53151","New Berlin","WI",42.980163,-88.09438
"53152","New Munster","WI",42.574616,-88.232632
"53153","North Prairie","WI",42.935259,-88.40501
"53154","Oak Creek","WI",42.884347,-87.8992
"53156","Palmyra","WI",42.879242,-88.58987
"53157","Pell Lake","WI",42.540048,-88.358167
"53158","Pleasant Prairie","WI",42.529075,-87.87201
"53159","Powers Lake","WI",42.555695,-88.296914
"53167","Rochester","WI",42.742629,-88.22308
"53168","Salem","WI",42.573081,-88.12444
"53170","Silver Lake","WI",42.550263,-88.17065
"53171","Somers","WI",42.642298,-87.903161
"53172","South Milwaukee","WI",42.909816,-87.86395
"53176","Springfield","WI",42.642223,-88.41179
"53177","Sturtevant","WI",42.699169,-87.91692
"53178","Sullivan","WI",43.015999,-88.59572
"53179","Trevor","WI",42.515668,-88.13454
"53181","Twin Lakes","WI",42.515596,-88.25761
"53182","Union Grove","WI",42.696322,-88.04658
"53183","Wales","WI",43.002534,-88.37771
"53184","Walworth","WI",42.532636,-88.59862
"53185","Waterford","WI",42.798555,-88.19409
"53186","Waukesha","WI",43.015289,-88.20924
"53187","Waukesha","WI",43.018696,-88.302997
"53188","Waukesha","WI",43.020762,-88.26852
"53189","Waukesha","WI",42.967394,-88.264
"53190","Whitewater","WI",42.818747,-88.73279
"53191","Williams Bay","WI",42.573162,-88.54021
"53192","Wilmot","WI",42.511818,-88.18285
"53194","Woodworth","WI",42.58098,-87.662878
"53195","Zenda","WI",42.512403,-88.48262
"53197","Walworth","WI",42.566752,-88.56557
"53199","Silver Lake","WI",42.55,-88.17
"53201","Milwaukee","WI",43.011264,-87.958409
"53202","Milwaukee","WI",43.046213,-87.9005
"53203","Milwaukee","WI",43.037963,-87.91548
"53204","Milwaukee","WI",43.017414,-87.92625
"53205","Milwaukee","WI",43.053763,-87.93473
"53206","Milwaukee","WI",43.076179,-87.93476
"53207","Milwaukee","WI",42.985465,-87.89998
"53208","Milwaukee","WI",43.047863,-87.96618
"53209","Milwaukee","WI",43.11941,-87.94727
"53210","Milwaukee","WI",43.068962,-87.97423
"53211","Milwaukee","WI",43.083012,-87.8859
"53212","Milwaukee","WI",43.072062,-87.9103
"53213","Milwaukee","WI",43.049012,-88.00012
"53214","Milwaukee","WI",43.020363,-88.01273
"53215","Milwaukee","WI",42.999364,-87.94343
"53216","Milwaukee","WI",43.086711,-87.9749
"53217","Milwaukee","WI",43.14351,-87.90894
"53218","Milwaukee","WI",43.11096,-87.99436
"53219","Milwaukee","WI",42.996614,-87.99213
"53220","Milwaukee","WI",42.969115,-87.99141
"53221","Milwaukee","WI",42.953915,-87.9457
"53222","Milwaukee","WI",43.083261,-88.02823
"53223","Milwaukee","WI",43.163692,-87.98717
"53224","Milwaukee","WI",43.153865,-88.04032
"53225","Milwaukee","WI",43.11576,-88.04121
"53226","Milwaukee","WI",43.048545,-88.04239
"53227","Milwaukee","WI",42.997647,-88.03717
"53228","Milwaukee","WI",42.966681,-88.03798
"53233","Milwaukee","WI",43.037313,-87.93373
"53234","Milwaukee","WI",43.017412,-87.569664
"53235","Saint Francis","WI",42.971156,-87.87452
"53237","Milwaukee","WI",43.017412,-87.569664
"53244","Milwaukee","WI",42.94,-87.91
"53245","Eaton","WI",44.056094,-87.985595
"53259","Milwaukee","WI",43.038663,-87.913934
"53263","Milwaukee","WI",43.074583,-88.06044
"53267","Milwaukee","WI",43.044013,-87.909834
"53268","Milwaukee","WI",43.038513,-87.909584
"53270","Milwaukee","WI",43.038763,-87.903634
"53274","Milwaukee","WI",43.017412,-87.569664
"53277","Milwaukee","WI",43.038863,-87.902384
"53278","Milwaukee","WI",43.038863,-87.902384
"53280","Milwaukee","WI",43.040963,-87.957786
"53281","Milwaukee","WI",43.040963,-87.957786
"53284","Milwaukee","WI",43.017412,-87.569664
"53285","Milwaukee","WI",43.017412,-87.569664
"53288","Milwaukee","WI",43.040613,-87.909784
"53290","Milwaukee","WI",43.037263,-87.914034
"53293","Milwaukee","WI",43.040813,-87.919135
"53295","Milwaukee","WI",43.017412,-87.569664
"53401","Racine","WI",42.727153,-87.675979
"53402","Racine","WI",42.767286,-87.79747
"53403","Racine","WI",42.704519,-87.80062
"53404","Racine","WI",42.743169,-87.80534
"53405","Racine","WI",42.714369,-87.82424
"53406","Racine","WI",42.730807,-87.85827
"53407","Racine","WI",42.731224,-87.782818
"53408","Racine","WI",42.727153,-87.675979
"53449","Jefferson","WI",42.999481,-88.782526
"53490","Racine","WI",42.727153,-87.675979
"53501","Afton","WI",42.605454,-89.070448
"53502","Albany","WI",42.71815,-89.44315
"53503","Arena","WI",43.150122,-89.92545
"53504","Argyle","WI",42.698173,-89.85736
"53505","Avalon","WI",42.642661,-88.82547
"53506","Avoca","WI",43.15498,-90.28594
"53507","Barneveld","WI",43.008697,-89.90117
"53508","Belleville","WI",42.865397,-89.55461
"53510","Belmont","WI",42.729814,-90.31984
"53511","Beloit","WI",42.526464,-89.04291
"53512","Beloit","WI",42.669779,-89.072779
"53515","Black Earth","WI",43.131939,-89.7438
"53516","Blanchardville","WI",42.802663,-89.85943
"53517","Blue Mounds","WI",43.031138,-89.83672
"53518","Blue River","WI",43.23854,-90.59683
"53520","Brodhead","WI",42.613107,-89.37364
"53521","Brooklyn","WI",42.839241,-89.40088
"53522","Browntown","WI",42.552731,-89.79624
"53523","Cambridge","WI",42.99273,-89.02274
"53525","Clinton","WI",42.551253,-88.85412
"53526","Cobb","WI",42.970855,-90.33452
"53527","Cottage Grove","WI",43.073751,-89.1967
"53528","Cross Plains","WI",43.116408,-89.64371
"53529","Dane","WI",43.228109,-89.53605
"53530","Darlington","WI",42.686745,-90.10983
"53531","Deerfield","WI",43.055415,-89.09349
"53532","De Forest","WI",43.240098,-89.33659
"53533","Dodgeville","WI",42.974296,-90.14404
"53534","Edgerton","WI",42.841688,-89.07223
"53535","Edmund","WI",43.011323,-90.133932
"53536","Evansville","WI",42.772516,-89.2802
"53537","Footville","WI",42.668944,-89.20998
"53538","Fort Atkinson","WI",42.924942,-88.84813
"53540","Gotham","WI",43.222854,-90.2935
"53541","Gratiot","WI",42.572413,-90.02605
"53542","Hanover","WI",42.632325,-89.15942
"53543","Highland","WI",43.043206,-90.35954
"53544","Hollandale","WI",42.878192,-89.92864
"53545","Janesville","WI",42.69146,-89.04277
"53546","Janesville","WI",42.666761,-88.99528
"53547","Janesville","WI",42.729359,-89.030111
"53548","Janesville","WI",42.68,-89.07
"53549","Jefferson","WI",42.993905,-88.79321
"53550","Juda","WI",42.567333,-89.49397
"53551","Lake Mills","WI",43.082761,-88.90838
"53553","Linden","WI",42.92239,-90.28554
"53554","Livingston","WI",42.906219,-90.42574
"53555","Lodi","WI",43.325153,-89.56074
"53556","Lone Rock","WI",43.213963,-90.23909
"53557","Lowell","WI",43.339823,-88.79719
"53558","McFarland","WI",43.015498,-89.28954
"53559","Marshall","WI",43.172619,-89.07464
"53560","Mazomanie","WI",43.177861,-89.78012
"53561","Merrimac","WI",43.37262,-89.69418
"53562","Middleton","WI",43.103711,-89.51106
"53563","Milton","WI",42.778497,-88.95595
"53565","Mineral Point","WI",42.852038,-90.1745
"53566","Monroe","WI",42.603462,-89.64037
"53569","Montfort","WI",42.989241,-90.43855
"53570","Monticello","WI",42.745346,-89.61455
"53571","Morrisonville","WI",43.277409,-89.35853
"53572","Mount Horeb","WI",42.985255,-89.73647
"53573","Muscoda","WI",43.1914,-90.45655
"53574","New Glarus","WI",42.81636,-89.64075
"53575","Oregon","WI",42.929208,-89.38478
"53576","Orfordville","WI",42.635236,-89.24268
"53577","Plain","WI",43.302123,-90.07619
"53578","Prairie Du Sac","WI",43.318318,-89.74928
"53579","Reeseville","WI",43.296299,-88.86721
"53580","Rewey","WI",42.85044,-90.37608
"53581","Richland Center","WI",43.361048,-90.40776
"53582","Ridgeway","WI",43.020516,-89.97928
"53583","Sauk City","WI",43.267183,-89.76912
"53584","Sextonville","WI",43.279435,-90.287566
"53585","Sharon","WI",42.518695,-88.7226
"53586","Shullsburg","WI",42.5744,-90.23935
"53587","South Wayne","WI",42.584521,-89.9026
"53588","Spring Green","WI",43.174503,-90.07267
"53589","Stoughton","WI",42.926473,-89.22432
"53590","Sun Prairie","WI",43.189953,-89.2253
"53591","Sun Prairie","WI",43.06956,-89.423861
"53593","Verona","WI",42.988593,-89.55543
"53594","Waterloo","WI",43.18584,-88.97553
"53595","Dodgeville","WI",42.976078,-90.141299
"53596","Sun Prairie","WI",43.192403,-89.26288
"53597","Waunakee","WI",43.182873,-89.45408
"53598","Windsor","WI",43.21352,-89.34203
"53599","Woodford","WI",42.649309,-89.862202
"53648","Salem","WI",42.547163,-88.079487
"53698","Union Center","WI",43.680522,-90.26952
"53701","Madison","WI",43.06956,-89.423861
"53702","Madison","WI",43.06956,-89.423861
"53703","Madison","WI",43.078646,-89.37727
"53704","Madison","WI",43.121416,-89.34968
"53705","Madison","WI",43.073395,-89.45049
"53706","Madison","WI",43.074296,-89.40774
"53707","Madison","WI",43.06956,-89.423861
"53708","Madison","WI",43.06956,-89.423861
"53709","Madison","WI",43.06956,-89.423861
"53710","Madison","WI",43.06956,-89.423861
"53711","Madison","WI",43.036696,-89.44499
"53713","Madison","WI",43.037647,-89.39154
"53714","Madison","WI",43.099861,-89.31786
"53715","Madison","WI",43.061546,-89.40024
"53716","Madison","WI",43.065621,-89.32085
"53717","Madison","WI",43.072994,-89.51992
"53718","Madison","WI",43.095178,-89.2704
"53719","Madison","WI",43.029497,-89.50531
"53725","Madison","WI",43.06956,-89.423861
"53726","Madison","WI",43.06956,-89.423861
"53744","Madison","WI",43.06956,-89.423861
"53774","Madison","WI",43.07,-89.4
"53777","Madison","WI",43.06956,-89.423861
"53778","Madison","WI",43.06956,-89.423861
"53779","Madison","WI",43.098202,-89.324196
"53780","Madison","WI",43.06956,-89.423861
"53782","Madison","WI",43.06956,-89.423861
"53783","Madison","WI",43.15955,-89.285235
"53784","Madison","WI",43.048908,-89.338447
"53785","Madison","WI",43.06956,-89.423861
"53786","Madison","WI",43.06956,-89.423861
"53787","Madison","WI",43.06956,-89.423861
"53788","Madison","WI",43.076691,-89.37632
"53789","Madison","WI",43.06956,-89.423861
"53790","Madison","WI",43.06956,-89.423861
"53791","Madison","WI",43.06956,-89.423861
"53792","Madison","WI",43.06956,-89.423861
"53793","Madison","WI",43.06956,-89.423861
"53794","Madison","WI",43.06956,-89.423861
"53801","Bagley","WI",42.922835,-91.09378
"53802","Beetown","WI",42.873625,-90.936354
"53803","Benton","WI",42.563769,-90.36783
"53804","Bloomington","WI",42.873162,-90.91222
"53805","Boscobel","WI",43.136963,-90.69831
"53806","Cassville","WI",42.734625,-90.95124
"53807","Cuba City","WI",42.607138,-90.44812
"53808","Dickeyville","WI",42.627951,-90.5939
"53809","Fennimore","WI",42.98995,-90.63483
"53810","Glen Haven","WI",42.818053,-90.9931
"53811","Hazel Green","WI",42.532592,-90.49997
"53812","Kieler","WI",42.859325,-90.791337
"53813","Lancaster","WI",42.847591,-90.70167
"53816","Mount Hope","WI",42.996023,-90.85263
"53817","Patch Grove","WI",42.941786,-90.97564
"53818","Platteville","WI",42.743948,-90.48625
"53820","Potosi","WI",42.695285,-90.69309
"53821","Prairie Du Chien","WI",43.036566,-91.11838
"53824","Sinsinawa","WI",42.859325,-90.791337
"53825","Stitzer","WI",42.928048,-90.56703
"53826","Wauzeka","WI",43.124756,-90.90828
"53827","Woodman","WI",43.063729,-90.82292
"53886","New Diggings","WI",42.522232,-90.340446
"53901","Portage","WI",43.549851,-89.47101
"53910","Adams","WI",43.908737,-89.80722
"53911","Arlington","WI",43.321005,-89.36681
"53913","Baraboo","WI",43.483503,-89.74753
"53916","Beaver Dam","WI",43.456814,-88.84058
"53917","Beaver Dam","WI",43.414202,-88.704914
"53919","Brandon","WI",43.734566,-88.78585
"53920","Briggsville","WI",43.660412,-89.59309
"53922","Burnett","WI",43.518602,-88.71347
"53923","Cambria","WI",43.559975,-89.13762
"53924","Cazenovia","WI",43.503482,-90.26902
"53925","Columbus","WI",43.340383,-89.04091
"53926","Dalton","WI",43.664224,-89.19684
"53927","Dellwood","WI",43.95546,-89.941771
"53928","Doylestown","WI",43.426936,-89.14912
"53929","Elroy","WI",43.752732,-90.2853
"53930","Endeavor","WI",43.691602,-89.48924
"53931","Fairwater","WI",43.740108,-88.86812
"53932","Fall River","WI",43.407179,-89.05837
"53933","Fox Lake","WI",43.566325,-88.90158
"53934","Friendship","WI",43.967604,-89.85287
"53935","Friesland","WI",43.588986,-89.06787
"53936","Grand Marsh","WI",43.868852,-89.70736
"53937","Hillpoint","WI",43.378638,-90.15726
"53939","Kingston","WI",43.693508,-89.12856
"53940","Lake Delton","WI",43.589593,-89.79306
"53941","La Valle","WI",43.579867,-90.13608
"53942","Lime Ridge","WI",43.468211,-90.161478
"53943","Loganville","WI",43.401354,-90.04308
"53944","Lyndon Station","WI",43.705113,-89.89911
"53946","Markesan","WI",43.727646,-89.02574
"53947","Marquette","WI",43.747501,-89.1405
"53948","Mauston","WI",43.783534,-90.0566
"53949","Montello","WI",43.792518,-89.34061
"53950","New Lisbon","WI",43.90147,-90.13777
"53951","North Freedom","WI",43.393526,-89.84489
"53952","Oxford","WI",43.776098,-89.60323
"53953","Packwaukee","WI",43.765621,-89.45736
"53954","Pardeeville","WI",43.522529,-89.32342
"53955","Poynette","WI",43.404191,-89.4171
"53956","Randolph","WI",43.544491,-89.01137
"53957","Randolph","WI",43.535249,-89.006845
"53958","Reedsburg","WI",43.393767,-89.95589
"53959","Reedsburg","WI",43.53414,-89.99183
"53960","Rio","WI",43.442214,-89.24134
"53961","Rock Springs","WI",43.469055,-89.93827
"53962","Union Center","WI",43.685137,-90.26578
"53963","Waupun","WI",43.633781,-88.7351
"53964","Westfield","WI",43.907282,-89.49412
"53965","Wisconsin Dells","WI",43.645603,-89.78104
"53968","Wonewoc","WI",43.648089,-90.24377
"53969","Wyocena","WI",43.49534,-89.30897
"53981","Willow","WI",43.412658,-90.274101
"53995","Poynette","WI",43.39269,-89.404154
"54001","Amery","WI",45.326339,-92.37857
"54002","Baldwin","WI",44.96915,-92.37326
"54003","Beldenville","WI",44.782907,-92.44657
"54004","Clayton","WI",45.319095,-92.13016
"54005","Clear Lake","WI",45.237727,-92.22901
"54006","Cushing","WI",45.586187,-92.64165
"54007","Deer Park","WI",45.189667,-92.37018
"54009","Dresser","WI",45.351585,-92.60246
"54010","East Ellsworth","WI",44.734759,-92.465532
"54011","Ellsworth","WI",44.718955,-92.46651
"54012","Emerald","WI",45.115377,-92.28686
"54013","Glenwood City","WI",45.06461,-92.18504
"54014","Hager City","WI",44.626915,-92.548
"54015","Hammond","WI",44.957487,-92.44589
"54016","Hudson","WI",44.978518,-92.71996
"54017","New Richmond","WI",45.122052,-92.53691
"54020","Osceola","WI",45.299735,-92.64222
"54021","Prescott","WI",44.752662,-92.77958
"54022","River Falls","WI",44.854636,-92.61729
"54023","Roberts","WI",44.970887,-92.5478
"54024","Saint Croix Falls","WI",45.469339,-92.62088
"54025","Somerset","WI",45.142151,-92.6819
"54026","Star Prairie","WI",45.221875,-92.53507
"54027","Wilson","WI",44.938989,-92.18637
"54028","Woodville","WI",44.944206,-92.27961
"54034","Forest","WI",43.690997,-90.478904
"54035","Fond du Lac","WI",43.747687,-88.418643
"54052","Kickapoo","WI",43.489717,-90.712433
"54061","New London","WI",44.393405,-88.72588
"54082","Saint Joseph","WI",45.068411,-92.74248
"54101","Abrams","WI",44.788898,-88.04535
"54102","Amberg","WI",45.503625,-88.08108
"54103","Armstrong Creek","WI",45.655708,-88.48292
"54104","Athelstane","WI",45.428789,-88.25278
"54106","Black Creek","WI",44.472424,-88.45746
"54107","Bonduel","WI",44.710588,-88.45159
"54110","Brillion","WI",44.179504,-88.07449
"54111","Cecil","WI",44.826617,-88.4018
"54112","Coleman","WI",45.054842,-88.0547
"54113","Combined Locks","WI",44.264904,-88.312
"54114","Crivitz","WI",45.245131,-88.1504
"54115","De Pere","WI",44.42042,-88.07896
"54119","Dunbar","WI",45.613142,-88.17458
"54120","Fence","WI",45.755118,-88.43264
"54121","Florence","WI",45.873589,-88.27342
"54123","Forest Junction","WI",44.205239,-88.15899
"54124","Gillett","WI",44.904959,-88.37822
"54125","Goodman","WI",45.634252,-88.33667
"54126","Greenleaf","WI",44.291766,-88.05059
"54127","Green Valley","WI",44.795823,-88.26895
"54128","Gresham","WI",44.860223,-88.79585
"54129","Hilbert","WI",44.131149,-88.19443
"54130","Kaukauna","WI",44.293197,-88.25922
"54131","Freedom","WI",44.416326,-88.464873
"54135","Keshena","WI",44.901909,-88.59535
"54136","Kimberly","WI",44.268387,-88.33656
"54137","Krakow","WI",44.76022,-88.25467
"54138","Lakewood","WI",45.312629,-88.47583
"54139","Lena","WI",44.943923,-88.06843
"54140","Little Chute","WI",44.286637,-88.31001
"54141","Little Suamico","WI",44.728341,-88.00712
"54143","Marinette","WI",45.092448,-87.64929
"54149","Mountain","WI",45.204046,-88.51121
"54150","Neopit","WI",44.984514,-88.85947
"54151","Niagara","WI",45.732689,-87.96996
"54152","Nichols","WI",44.565437,-88.46717
"54153","Oconto","WI",44.886571,-87.89935
"54154","Oconto Falls","WI",44.86802,-88.16446
"54155","Oneida","WI",44.52284,-88.18008
"54156","Pembine","WI",45.595032,-87.95018
"54157","Peshtigo","WI",45.057605,-87.77449
"54159","Porterfield","WI",45.207353,-87.80061
"54160","Potter","WI",44.1196,-88.09784
"54161","Pound","WI",45.116325,-88.16811
"54162","Pulaski","WI",44.65711,-88.24208
"54165","Seymour","WI",44.51523,-88.31075
"54166","Shawano","WI",44.779241,-88.60636
"54169","Sherwood","WI",44.173538,-88.27525
"54170","Shiocton","WI",44.506022,-88.56461
"54171","Sobieski","WI",44.718335,-88.10117
"54173","Suamico","WI",44.640367,-88.03732
"54174","Suring","WI",45.047766,-88.37913
"54175","Townsend","WI",45.30942,-88.61753
"54177","Wausaukee","WI",45.370117,-87.87769
"54180","Wrightstown","WI",44.325856,-88.16205
"54182","Zachow","WI",44.731453,-88.369842
"54201","Algoma","WI",44.613604,-87.46502
"54202","Baileys Harbor","WI",45.059668,-87.13196
"54203","Branch","WI",44.109853,-87.483874
"54204","Brussels","WI",44.753401,-87.64628
"54205","Casco","WI",44.58906,-87.62271
"54206","Kossuth","WI",44.237283,-87.801108
"54207","Collins","WI",44.086144,-87.98331
"54208","Denmark","WI",44.358527,-87.79747
"54209","Egg Harbor","WI",45.027668,-87.28234
"54210","Ellison Bay","WI",45.271782,-87.04561
"54211","Ephraim","WI",45.158078,-87.16796
"54212","Fish Creek","WI",45.146473,-87.24154
"54213","Forestville","WI",44.693392,-87.51197
"54214","Francis Creek","WI",44.200758,-87.71974
"54215","Kellnersville","WI",44.224851,-87.79943
"54216","Kewaunee","WI",44.456022,-87.54429
"54217","Luxemburg","WI",44.55681,-87.71413
"54220","Manitowoc","WI",44.096194,-87.68919
"54221","Manitowoc","WI",44.132295,-87.599031
"54226","Maplewood","WI",45.059713,-87.006012
"54227","Maribel","WI",44.27809,-87.79026
"54228","Mishicot","WI",44.257289,-87.64866
"54229","New Franken","WI",44.559995,-87.81553
"54230","Reedsville","WI",44.142939,-87.9131
"54232","Saint Nazianz","WI",44.008575,-87.92456
"54234","Sister Bay","WI",45.186528,-87.11618
"54235","Sturgeon Bay","WI",44.844133,-87.38044
"54240","Tisch Mills","WI",44.326784,-87.62239
"54241","Two Rivers","WI",44.174245,-87.58613
"54242","Ludington","WI",44.829002,-91.210194
"54245","Valders","WI",44.037618,-87.90026
"54246","Washington Island","WI",45.365984,-86.89946
"54247","Whitelaw","WI",44.19011,-87.79109
"54301","Green Bay","WI",44.489059,-88.01674
"54302","Green Bay","WI",44.505782,-87.97947
"54303","Green Bay","WI",44.530892,-88.04482
"54304","Green Bay","WI",44.499346,-88.06318
"54305","Green Bay","WI",44.460064,-88.007382
"54306","Green Bay","WI",44.460064,-88.007382
"54307","Green Bay","WI",44.460064,-88.007382
"54308","Green Bay","WI",44.459509,-87.805912
"54310","Liberty Grove","WI",45.210664,-87.041244
"54311","Green Bay","WI",44.485243,-87.92232
"54313","Green Bay","WI",44.564261,-88.10326
"54324","Green Bay","WI",44.460064,-88.007382
"54337","Bone Lake","WI",45.610429,-92.324516
"54344","Green Bay","WI",44.42504,-88.111252
"54353","Georgetown","WI",45.54142,-92.398168
"54383","Wascott","WI",46.18508,-91.959307
"54401","Wausau","WI",44.958382,-89.6693
"54402","Wausau","WI",44.900936,-89.7701
"54403","Wausau","WI",44.976118,-89.59209
"54404","Marshfield","WI",44.466554,-90.02136
"54405","Abbotsford","WI",44.950905,-90.30486
"54406","Amherst","WI",44.421111,-89.30618
"54407","Amherst Junction","WI",44.513056,-89.30422
"54408","Aniwa","WI",45.03324,-89.28376
"54409","Antigo","WI",45.121666,-89.13388
"54410","Arpin","WI",44.536298,-90.04317
"54411","Athens","WI",45.040345,-90.01829
"54412","Auburndale","WI",44.662975,-89.9943
"54413","Babcock","WI",44.283542,-90.12791
"54414","Birnamwood","WI",44.95258,-89.16252
"54415","Blenker","WI",44.619128,-89.918563
"54416","Bowler","WI",44.879391,-88.95511
"54417","Brokaw","WI",45.025111,-89.64609
"54418","Bryant","WI",45.221567,-88.96427
"54419","Chelsea","WI",45.222391,-90.329035
"54420","Chili","WI",44.619487,-90.36605
"54421","Colby","WI",44.903,-90.30657
"54422","Curtiss","WI",44.984128,-90.44176
"54423","Custer","WI",44.585504,-89.42139
"54424","Deerbrook","WI",45.28142,-89.20118
"54425","Dorchester","WI",45.006072,-90.33146
"54426","Edgar","WI",44.907131,-89.9777
"54427","Eland","WI",44.834167,-89.23917
"54428","Elcho","WI",45.440199,-89.13837
"54429","Elderon","WI",44.780171,-89.247809
"54430","Elton","WI",45.138072,-88.88498
"54431","Little Black","WI",45.116388,-90.352237
"54432","Galloway","WI",44.900936,-89.7701
"54433","Gilman","WI",45.186932,-90.81846
"54434","Jump River","WI",45.206757,-90.484132
"54435","Gleason","WI",45.372921,-89.43748
"54436","Granton","WI",44.557846,-90.44622
"54437","Greenwood","WI",44.775105,-90.62639
"54439","Hannibal","WI",45.206757,-90.484132
"54440","Hatley","WI",44.830734,-89.37414
"54441","Hewitt","WI",44.645158,-90.10523
"54442","Irma","WI",45.345991,-89.67087
"54443","Junction City","WI",44.612879,-89.74163
"54444","Kempster","WI",45.249382,-89.032136
"54446","Loyal","WI",44.758265,-90.48248
"54447","Lublin","WI",45.077541,-90.7324
"54448","Marathon","WI",44.935076,-89.83699
"54449","Marshfield","WI",44.656686,-90.18152
"54450","Mattoon","WI",45.006232,-89.047379
"54451","Medford","WI",45.171131,-90.40527
"54452","Merrill","WI",45.181311,-89.70469
"54454","Milladore","WI",44.620203,-89.87223
"54455","Mosinee","WI",44.787003,-89.69066
"54456","Neillsville","WI",44.553719,-90.61457
"54457","Nekoosa","WI",44.260056,-89.88239
"54458","Nelsonville","WI",44.490241,-89.310944
"54459","Ogema","WI",45.434426,-90.26806
"54460","Owen","WI",44.945107,-90.53973
"54462","Pearson","WI",45.392118,-89.0051
"54463","Pelican Lake","WI",45.516138,-89.17824
"54464","Phlox","WI",45.249382,-89.032136
"54465","Pickerel","WI",45.393536,-88.88706
"54466","Pittsville","WI",44.404914,-90.24246
"54467","Plover","WI",44.452277,-89.54399
"54469","Port Edwards","WI",44.348816,-89.86368
"54470","Rib Lake","WI",45.297753,-90.16658
"54471","Ringle","WI",44.918707,-89.44139
"54472","Marshfield","WI",44.466554,-90.02136
"54473","Rosholt","WI",44.641554,-89.33596
"54474","Rothschild","WI",44.885168,-89.61922
"54475","Rudolph","WI",44.484001,-89.79403
"54476","Schofield","WI",44.903194,-89.57937
"54479","Spencer","WI",44.764411,-90.33179
"54480","Stetsonville","WI",45.064903,-90.29794
"54481","Stevens Point","WI",44.524054,-89.55621
"54482","Stevens Point","WI",44.57,-89.54
"54484","Stratford","WI",44.793747,-90.06026
"54485","Summit Lake","WI",45.381803,-89.20073
"54486","Tigerton","WI",44.734445,-89.04525
"54487","Tomahawk","WI",45.510639,-89.73162
"54488","Unity","WI",44.844939,-90.32891
"54489","Vesper","WI",44.456798,-89.99623
"54490","Westboro","WI",45.321034,-90.40218
"54491","White Lake","WI",45.211554,-88.74259
"54492","Stevens Point","WI",44.509433,-89.528584
"54493","Willard","WI",44.729524,-90.79351
"54494","Wisconsin Rapids","WI",44.373468,-89.78761
"54495","Wisconsin Rapids","WI",44.376507,-89.90771
"54498","Withee","WI",45.034443,-90.63063
"54499","Wittenberg","WI",44.797279,-89.18442
"54501","Rhinelander","WI",45.64672,-89.39408
"54511","Argonne","WI",45.69606,-88.81274
"54512","Boulder Junction","WI",46.083178,-89.66605
"54513","Brantwood","WI",45.54608,-90.13535
"54514","Butternut","WI",46.024995,-90.44778
"54515","Catawba","WI",45.536545,-90.50935
"54517","Clam Lake","WI",46.136639,-90.93065
"54519","Conover","WI",46.040996,-89.28591
"54520","Crandon","WI",45.522208,-88.9105
"54521","Eagle River","WI",45.922669,-89.24825
"54524","Fifield","WI",45.85263,-90.41709
"54525","Gile","WI",46.429932,-90.22247
"54526","Glen Flora","WI",45.500701,-90.85944
"54527","Glidden","WI",46.119661,-90.64288
"54529","Harshaw","WI",45.707456,-89.68877
"54530","Hawkins","WI",45.549336,-90.73047
"54531","Hazelhurst","WI",45.754415,-89.79791
"54532","Heafford Junction","WI",45.337678,-89.735524
"54534","Hurley","WI",46.40553,-90.21811
"54536","Iron Belt","WI",46.346699,-90.33543
"54537","Kennan","WI",45.527003,-90.61228
"54538","Lac Du Flambeau","WI",45.964667,-89.90731
"54539","Lake Tomahawk","WI",45.811923,-89.57988
"54540","Land O Lakes","WI",46.149936,-89.36592
"54541","Laona","WI",45.55375,-88.6624
"54542","Long Lake","WI",45.920035,-88.68929
"54543","McNaughton","WI",45.731478,-89.52525
"54545","Manitowish Waters","WI",46.122746,-89.83996
"54546","Mellen","WI",46.273618,-90.70102
"54547","Mercer","WI",46.183572,-90.05754
"54548","Minocqua","WI",45.869921,-89.79346
"54550","Montreal","WI",46.410758,-90.25072
"54551","Presque Isle","WI",46.187253,-89.769399
"54552","Park Falls","WI",45.927783,-90.34311
"54554","Phelps","WI",46.056677,-89.08234
"54555","Phillips","WI",45.716124,-90.40013
"54556","Prentice","WI",45.549425,-90.31571
"54557","Presque Isle","WI",46.221041,-89.73707
"54558","Saint Germain","WI",45.914371,-89.4897
"54559","Saxon","WI",46.495575,-90.45101
"54560","Sayner","WI",45.995755,-89.52565
"54561","Star Lake","WI",46.058408,-89.4516
"54562","Three Lakes","WI",45.815926,-89.10942
"54563","Tony","WI",45.477056,-90.98354
"54564","Tripoli","WI",45.63298,-89.96658
"54565","Upson","WI",46.309371,-90.4354
"54566","Wabeno","WI",45.432682,-88.67339
"54568","Woodruff","WI",45.924341,-89.68496
"54601","La Crosse","WI",43.797116,-91.21141
"54602","La Crosse","WI",43.907739,-91.167621
"54603","La Crosse","WI",43.848665,-91.24922
"54610","Alma","WI",44.362741,-91.85287
"54611","Alma Center","WI",44.44202,-90.93859
"54612","Arcadia","WI",44.253423,-91.48885
"54613","Arkdale","WI",44.061018,-89.90838
"54614","Bangor","WI",43.894741,-90.97441
"54615","Black River Falls","WI",44.277231,-90.80066
"54616","Blair","WI",44.293183,-91.23075
"54618","Camp Douglas","WI",43.95685,-90.29445
"54619","Cashton","WI",43.749142,-90.78473
"54620","Cataract","WI",44.087601,-90.842289
"54621","Chaseburg","WI",43.659389,-91.08195
"54622","Cochrane","WI",44.248179,-91.83124
"54623","Coon Valley","WI",43.713575,-91.02348
"54624","De Soto","WI",43.433893,-91.15949
"54625","Dodge","WI",44.130528,-91.52601
"54626","Eastman","WI",43.217285,-91.05946
"54627","Ettrick","WI",44.168986,-91.25737
"54628","Ferryville","WI",43.373139,-91.0025
"54629","Fountain City","WI",44.13288,-91.67722
"54630","Galesville","WI",44.087366,-91.35965
"54631","Gays Mills","WI",43.291992,-90.83048
"54632","Genoa","WI",43.559832,-91.16957
"54634","Hillsboro","WI",43.610055,-90.40896
"54635","Hixton","WI",44.400995,-91.04608
"54636","Holmen","WI",43.978816,-91.2512
"54637","Hustler","WI",43.880649,-90.27423
"54638","Kendall","WI",43.795422,-90.37609
"54639","La Farge","WI",43.610629,-90.62108
"54640","Lynxville","WI",43.246161,-91.05429
"54641","Mather","WI",43.94521,-90.049489
"54642","Melrose","WI",44.15175,-91.04558
"54643","Millston","WI",44.186869,-90.635831
"54644","Mindoro","WI",44.029269,-91.06484
"54645","Mount Sterling","WI",43.31493,-90.9287
"54646","Necedah","WI",44.057528,-90.07117
"54648","Norwalk","WI",43.836783,-90.62066
"54649","Oakdale","WI",43.971514,-90.361161
"54650","Onalaska","WI",43.899664,-91.22963
"54651","Ontario","WI",43.740893,-90.56934
"54652","Readstown","WI",43.454264,-90.76116
"54653","Rockland","WI",43.869244,-90.91873
"54654","Seneca","WI",43.265154,-90.959
"54655","Soldiers Grove","WI",43.388055,-90.76632
"54656","Sparta","WI",43.96977,-90.80796
"54657","Steuben","WI",43.194284,-90.8911
"54658","Stoddard","WI",43.68804,-91.19665
"54659","Taylor","WI",44.309131,-91.11676
"54660","Tomah","WI",43.984412,-90.48416
"54661","Trempealeau","WI",44.026843,-91.4513
"54662","Tunnel City","WI",44.003084,-90.562005
"54664","Viola","WI",43.502238,-90.65131
"54665","Viroqua","WI",43.543934,-90.89904
"54666","Warrens","WI",44.134587,-90.43289
"54667","Westby","WI",43.656393,-90.85562
"54669","West Salem","WI",43.903949,-91.08847
"54670","Wilton","WI",43.833159,-90.49044
"54699","West Salem","WI",43.900433,-91.071758
"54701","Eau Claire","WI",44.780427,-91.48065
"54702","Eau Claire","WI",44.726626,-91.285931
"54703","Eau Claire","WI",44.82961,-91.50521
"54720","Altoona","WI",44.80416,-91.43963
"54721","Arkansaw","WI",44.62411,-92.07828
"54722","Augusta","WI",44.699923,-91.12509
"54723","Bay City","WI",44.608838,-92.44607
"54724","Bloomer","WI",45.101683,-91.48415
"54725","Boyceville","WI",45.062111,-92.02641
"54726","Boyd","WI",44.946486,-91.02282
"54727","Cadott","WI",44.963809,-91.16181
"54728","Chetek","WI",45.312195,-91.64173
"54729","Chippewa Falls","WI",44.932711,-91.38877
"54730","Colfax","WI",45.012181,-91.73021
"54731","Conrath","WI",45.36469,-91.04968
"54732","Cornell","WI",45.155211,-91.17005
"54733","Dallas","WI",45.275752,-91.85084
"54734","Downing","WI",45.086186,-92.12453
"54735","Downsville","WI",44.946496,-91.90344
"54736","Durand","WI",44.613891,-91.92402
"54737","Eau Galle","WI",44.718959,-91.99704
"54738","Eleva","WI",44.586469,-91.48873
"54739","Elk Mound","WI",44.872678,-91.69231
"54740","Elmwood","WI",44.763269,-92.1517
"54741","Fairchild","WI",44.601345,-90.98854
"54742","Fall Creek","WI",44.763678,-91.29172
"54743","Gilmanton","WI",44.311074,-91.806396
"54744","Hillsdale","WI",45.319786,-91.881754
"54745","Holcombe","WI",45.253108,-91.1559
"54746","Humbird","WI",44.550251,-90.89542
"54747","Independence","WI",44.38161,-91.47913
"54748","Jim Falls","WI",45.074725,-91.2563
"54749","Knapp","WI",44.949207,-92.08073
"54750","Maiden Rock","WI",44.615442,-92.30798
"54751","Menomonie","WI",44.86877,-91.92915
"54754","Merrillan","WI",44.434537,-90.79473
"54755","Mondovi","WI",44.584633,-91.68767
"54756","Nelson","WI",44.451724,-91.95785
"54757","New Auburn","WI",45.235611,-91.52127
"54758","Osseo","WI",44.555876,-91.21713
"54759","Pepin","WI",44.478326,-92.14053
"54760","Pigeon Falls","WI",44.424662,-91.20833
"54761","Plum City","WI",44.624559,-92.17732
"54762","Prairie Farm","WI",45.24647,-91.99273
"54763","Ridgeland","WI",45.186997,-91.88073
"54764","Rock Falls","WI",44.946496,-91.90344
"54765","Sand Creek","WI",45.142866,-91.699794
"54766","Sheldon","WI",45.323865,-90.89376
"54767","Spring Valley","WI",44.833746,-92.25937
"54768","Stanley","WI",44.963528,-90.93012
"54769","Stockholm","WI",44.530201,-92.23721
"54770","Strum","WI",44.545046,-91.38753
"54771","Thorp","WI",44.95298,-90.79784
"54772","Wheeler","WI",45.084813,-91.89724
"54773","Whitehall","WI",44.377781,-91.30948
"54774","Chippewa Falls","WI",45.07413,-91.294397
"54801","Spooner","WI",45.850775,-91.94361
"54805","Almena","WI",45.418325,-92.02914
"54806","Ashland","WI",46.577191,-90.89707
"54810","Balsam Lake","WI",45.455304,-92.40153
"54812","Barron","WI",45.39701,-91.86337
"54813","Barronett","WI",45.646145,-92.01923
"54814","Bayfield","WI",46.856701,-90.85401
"54816","Benoit","WI",46.682796,-91.143254
"54817","Birchwood","WI",45.661506,-91.54526
"54818","Brill","WI",45.423409,-91.848206
"54819","Bruce","WI",45.45273,-91.29437
"54820","Brule","WI",46.588243,-91.55208
"54821","Cable","WI",46.213138,-91.13997
"54822","Cameron","WI",45.401622,-91.72727
"54824","Centuria","WI",45.454867,-92.52701
"54826","Comstock","WI",45.505963,-92.17646
"54827","Cornucopia","WI",46.802909,-91.10944
"54828","Couderay","WI",45.858431,-91.25765
"54829","Cumberland","WI",45.552434,-92.05004
"54830","Danbury","WI",46.036193,-92.21802
"54832","Drummond","WI",46.326236,-91.29643
"54834","Edgewater","WI",45.742668,-91.47648
"54835","Exeland","WI",45.671767,-91.23317
"54836","Foxboro","WI",46.449996,-92.21831
"54837","Frederic","WI",45.679878,-92.42153
"54838","Gordon","WI",46.233591,-91.81795
"54839","Grand View","WI",46.360155,-91.14425
"54840","Grantsburg","WI",45.75118,-92.67182
"54841","Haugen","WI",45.612444,-91.77624
"54842","Hawthorne","WI",46.513247,-91.84824
"54843","Hayward","WI",46.005082,-91.35255
"54844","Herbster","WI",46.765166,-91.21312
"54845","Hertel","WI",45.811685,-92.13692
"54846","High Bridge","WI",46.372151,-90.74865
"54847","Iron River","WI",46.553351,-91.37996
"54848","Ladysmith","WI",45.477445,-91.105
"54849","Lake Nebagamon","WI",46.476428,-91.67634
"54850","La Pointe","WI",46.799835,-90.73209
"54851","Lewis","WI",45.468941,-92.521938
"54853","Luck","WI",45.577963,-92.45652
"54854","Maple","WI",46.626518,-91.6952
"54855","Marengo","WI",46.396053,-90.81506
"54856","Mason","WI",46.433167,-91.10883
"54857","Mikana","WI",45.591546,-91.60046
"54858","Milltown","WI",45.52624,-92.46971
"54859","Minong","WI",46.127976,-91.84389
"54861","Odanah","WI",46.599122,-90.65361
"54862","Ojibwa","WI",45.766112,-91.13603
"54863","Stanley","WI",45.458812,-91.712017
"54864","Poplar","WI",46.587809,-91.8074
"54865","Port Wing","WI",46.757192,-91.39611
"54867","Radisson","WI",45.767489,-91.22193
"54868","Rice Lake","WI",45.517226,-91.72638
"54870","Sarona","WI",45.714265,-91.77498
"54871","Shell Lake","WI",45.750367,-91.99048
"54872","Siren","WI",45.780793,-92.39152
"54873","Solon Springs","WI",46.354613,-91.71166
"54874","South Range","WI",46.58521,-91.95129
"54875","Springbrook","WI",45.947509,-91.67526
"54876","Stone Lake","WI",45.842713,-91.47902
"54880","Superior","WI",46.684273,-92.09474
"54886","Winter","WI",45.882227,-90.967711
"54888","Trego","WI",45.967422,-91.87907
"54889","Turtle Lake","WI",45.407855,-92.15619
"54890","Wascott","WI",46.525129,-91.921631
"54891","Washburn","WI",46.69297,-90.93744
"54893","Webster","WI",45.870441,-92.29416
"54895","Weyerhaeuser","WI",45.422669,-91.42678
"54896","Winter","WI",45.843581,-90.94323
"54901","Oshkosh","WI",44.043984,-88.53528
"54902","Oshkosh","WI",43.988616,-88.54699
"54903","Oshkosh","WI",44.06858,-88.644873
"54904","Oshkosh","WI",44.018871,-88.61324
"54906","Oshkosh","WI",44.06858,-88.644873
"54909","Almond","WI",44.28018,-89.36002
"54911","Appleton","WI",44.276986,-88.39445
"54912","Appleton","WI",44.416326,-88.464873
"54913","Appleton","WI",44.322836,-88.40492
"54914","Appleton","WI",44.267411,-88.4383
"54915","Appleton","WI",44.244753,-88.37783
"54919","Appleton","WI",44.416326,-88.464873
"54921","Bancroft","WI",44.307561,-89.54673
"54922","Bear Creek","WI",44.538848,-88.74381
"54923","Berlin","WI",43.978561,-88.95413
"54926","Big Falls","WI",44.617819,-89.016622
"54927","Butte Des Morts","WI",44.101044,-88.65531
"54928","Caroline","WI",44.732083,-88.88507
"54929","Clintonville","WI",44.63605,-88.74673
"54930","Coloma","WI",44.025668,-89.52124
"54931","Dale","WI",44.416326,-88.464873
"54932","Eldorado","WI",43.830749,-88.6258
"54933","Embarrass","WI",44.666988,-88.70686
"54934","Eureka","WI",44.00443,-88.84108
"54935","Fond Du Lac","WI",43.769889,-88.4281
"54936","Fond Du Lac","WI",43.740559,-88.522984
"54937","Fond Du Lac","WI",43.785391,-88.48704
"54940","Fremont","WI",44.237843,-88.84998
"54941","Green Lake","WI",43.841808,-88.97443
"54942","Greenville","WI",44.29382,-88.53557
"54943","Hancock","WI",44.122177,-89.57305
"54944","Hortonville","WI",44.333183,-88.6167
"54945","Iola","WI",44.558941,-89.13383
"54946","King","WI",44.336537,-89.146258
"54947","Larsen","WI",44.191271,-88.68846
"54948","Leopolis","WI",44.779838,-88.87123
"54949","Manawa","WI",44.472791,-88.91625
"54950","Marion","WI",44.669461,-88.89693
"54951","Medina","WI",44.416326,-88.464873
"54952","Menasha","WI",44.212448,-88.40959
"54956","Neenah","WI",44.180085,-88.48273
"54957","Neenah","WI",44.198944,-88.678863
"54960","Neshkoro","WI",43.959371,-89.22575
"54961","New London","WI",44.394143,-88.75521
"54962","Ogdensburg","WI",44.481372,-89.03101
"54963","Omro","WI",44.042594,-88.7627
"54964","Pickett","WI",43.923141,-88.72654
"54965","Pine River","WI",44.167646,-89.04218
"54966","Plainfield","WI",44.220945,-89.51227
"54967","Poy Sippi","WI",44.13777,-88.99443
"54968","Princeton","WI",43.842646,-89.13955
"54969","Readfield","WI",44.269991,-88.775457
"54970","Redgranite","WI",44.057375,-89.09788
"54971","Ripon","WI",43.849309,-88.84494
"54974","Rosendale","WI",43.797693,-88.66261
"54975","Royalton","WI",44.461926,-88.915027
"54976","Saxeville","WI",44.176716,-89.11271
"54977","Scandinavia","WI",44.454684,-89.15371
"54978","Tilleda","WI",44.805167,-88.9006
"54979","Van Dyne","WI",43.877109,-88.52573
"54980","Waukau","WI",43.987186,-88.77247
"54981","Waupaca","WI",44.331217,-89.11499
"54982","Wautoma","WI",44.064068,-89.29417
"54983","Weyauwega","WI",44.319005,-88.9404
"54984","Wild Rose","WI",44.186455,-89.20231
"54985","Winnebago","WI",44.075084,-88.51758
"54986","Winneconne","WI",44.110806,-88.73155
"54990","Iola","WI",44.461926,-88.915027
